Name,Address,City,Cap,Latitude,Longitude
L‚ÄôAlbero dei Gelati,Via A. Volta 1,Cogliate,20815,45.6461,9.0815
"Gusto 17 - Arco della Pace, Milano",Via Luigi Cagnola 10,Milano,20154,45.4774,9.1727
Lo's,Via Mercato 14,Milano,20121,45.471,9.1844
Bisi Pizzeria Verace,Via Giuseppe Garibaldi 94,Giussano,20833,45.7037,9.2026
Pizzeria Ristorante Il Regno Di Napoli,Corso Goffredo Mameli 31,Verbania,28921,45.9341,8.5724
Birrificio Brasseria Soralam√†,Via Nazionale 14,Sant'Antonino di Susa,10050,45.1071,7.2922
La Perla Nera,Via Luigi Baccino Ospedale 19,Cairo Montenotte,17014,44.3978,8.2755
"Gelateria Via Piave, Noventa di Piave",Via Piave 13,Venezia,30020,45.6608,12.5288
Kyo Restaurant,Corso Cavour 136,Borgo Ticino,28040,45.7291,8.5778
Inari Sushi,"Viale della Vittoria, Snc, 37047",San Bonifacio,37047,45.4061,11.2477
Kokoro Sushi Restaurant,Via Defendente Lodi 80,Lodi,26900,45.3184,9.4992
Gelateria Malibu 'By Sironi Andrea,Piazza Cesare Battisti 5,Carate Brianza,20841,45.6772,9.2355
MITO SUSHI RESTAURANT,Viale della Repubblica 27,Melegnano,20077,45.3578,9.3171
Perla d'Oriente,Via Antonio Gramsci 81,Gaglianico,13894,45.5419,8.0714
Pizza Garage,Piazzale Giuseppe Fortina 7,Novara,28100,45.4516,8.6498
Dinzu Restaurant Treviso,Via Postumia Castellana 32,Quinto di Treviso,31055,45.6686,12.1811
Yummy sushi,Via Statale 9,Cugliate-Fabiasco,21030,45.9491,8.8395
La Casa dei Bardi,Via Giacomo Brodolini 8,Cavriago,42025,44.6874,10.5247
Laguna Blu,Via Marittima 69,San Giorgio di Nogaro,33058,45.8234,13.2144
Suban,Via Emilio Comici 2,Trieste,34128,45.6534,13.8082
Pizzeria Giordano (Ex2001),Via Lorenzo Delleani 33,Biella,13900,45.5595,8.0518
Monkey Steakhouse & Cocktail bar,Via Sant'Anna 7,Casale Corte Cerro,28881,45.9045,8.4196
Restaurant Pizzeria Al Passetto,Via Guglielmo Marconi 8,Cortina d'Ampezzo,32043,46.5394,12.1371
Ristorante Pizzeria Le Scuderie,Via V. Bachelet 83,Porto Mantovano,46047,45.2063,10.7959
La Tenda Rossa,Via Laino 2,Centro Valle Intelvi,22023,45.9721,9.0704
Il Pacero Pizzeria e Tigelleria,Via Bassa 47,Occhiobello,45030,44.8955,11.6043
La Corte - Pizzeria Trattoria (Ex Rispoli),Via Giuseppe Verdi 6,Campoformido,33030,46.0277,13.2052
Ristorante La terra degli ulivi,Via Milano 7,Cairate,21050,45.6949,8.8532
Ristorante da Martino,Via Fondovalle Panaro 39,Pavullo nel Frignano,41026,44.3088,10.9064
Stefy Gelateria di Gasparini Stefania,Via Str√† 25,Colognola ai Colli,37030,45.4149,11.1823
Ristorante Trattoria La Stanga di Campari E. & F.,Via Dolfini 27,Offanengo,26010,45.3177,9.6168
L'angolo di Mel,Via Croux 2,Courmayeur,11013,45.792,6.9714
Walla Walla - tasty burger,Via S. Giacomo della Vittoria 46,Alessandria,15121,44.9113,8.6144
Ristorante Pizzeria Don Peppino,Strada Aeroporto 2,Caselle Torinese,10072,45.1718,7.6516
Zen Sushi,Via Maddalena 1,Milano,20122,45.4597,9.1887
Ristorante Pizzeria l'Ancora,Via Fratelli Vigorelli 126,Casteggio,27045,45.0023,9.1369
La Sella d'Oro,Via Brusimpiano 8,Lavena Ponte Tresa,21037,45.9536,8.8761
La Cascina Gastronomia e Bacaro,Piazzetta degli Storti 4,Dolo,30031,45.426,12.0731
Ristorante Pizzeria da Gennaro,Via Adolfo Vital 96,Conegliano,31015,45.8773,12.3029
Ristorante Passata,Via Passata 5,Sorisole,24010,45.7946,9.7253
Ristorante Pizzeria agli Eremitani,Via Porciglia 29,Padova,35121,45.4108,11.8814
Le Tre Ciose,Strada Statale 235,Orzinuovi,25034,45.4149,9.9228
TEX MEX Saloon,Via Bassanese 14,Asolo,31011,45.7886,11.9046
Speck Stube l‚Äôoriginale - Malcesine,"Via Navene Vecchia, Localit√† Molini, 139",Malcesine,37018,45.7838,10.8211
Gelateria Cavallar,Piazza PM Borzaga 8,Sarnonico,38011,46.4085,11.1376
Route 66 DSG,Via Brescia 163,Travagliato,25039,45.52,10.1016
Inverness Pub,Via Ungheresca Nord 115,Mareno di Piave,31010,45.8575,12.3294
PIZZAMORE,V. Roma 145,Villorba,31050,45.7232,12.2539
Bar Perla,Via Mestrina 28,Venezia,30172,45.4913,12.2429
Pasticceria Adolfo Stefanelli,Viale Premuda 12,Milano,20129,45.464,9.2077
Itoya,Piazza della Repubblica 10,Varese,21100,45.815,8.8299
Passione Pizza,Via Sette Assedi 4,Cuneo,12100,44.3945,7.5518
Ristorante Pizzeria La Colomba,Via Colomba 16,Colognola ai Colli,37030,45.4101,11.2136
Lon Fon,Via Lazzaretto 10,Milano,20124,45.4782,9.2025
Rishi Restaurant Fusion,Via Gombe 23,Thiene,36016,45.6893,11.4837
Ristorante Giapponese Kanji,V. Levantina 183,Jesolo,30016,45.5129,12.6608
Zelo Gelateria,"Corso Giuseppe Mazzini, Corso Italia, 50",Savona,17100,44.3051,8.4819
Ravioleria Sarpi,Via Paolo Sarpi 27,Milano,20149,45.4813,9.1761
MagiClem,Via Santa Maria 112,Parabiago,20015,45.5541,8.9528
L'angolo del gelato,Piazza S. Vito 1,Lentate sul Seveso,20823,45.6782,9.1213
Bar Tavola Calda Domio,Localit√† Domio 132,San Dorligo della Valle,34018,45.6111,13.8285
Elio's Burger & grill,"Corso Carlo Marx, 54",Alessandria,15121,44.9008,8.604
Ristorante Pizzeria Al Lago,Via del Lago 5,Bagolino,25072,45.8116,10.517
RISTORANTE GOEN,Via Camillo Benso Conte di Cavour 9,Castiglione delle Stiviere,46043,45.3885,10.4807
JI Sushi,Via Str. Regia 1,Mozzo,24030,45.7147,9.5607
Ristorante Pizzeria Stadio,Villaggio Europa 13,Lignano Sabbiadoro,33054,45.6733,13.1009
da Ciro Leone 1924,Via Giovanni Zambelli 20,Verona,37121,45.4404,10.9978
ZenzeroBlu,Viale Terme 1113,Castel San Pietro Terme,40024,44.3863,11.5892
Ristorante Pizzeria La Baitella,Via Pineta 71,Ranica,24020,45.8872,9.9957
Gelateria De Martin & C Snc,Piazza Italia 25,Cordignano,31016,45.9484,12.4155
La pizzeria Tradizionale,Ripa di Porta Ticinese 7,Milano,20143,45.452,9.1769
Sportcenter Deutschnofen,Via Fora 1,Nova Ponente,39050,46.4131,11.4342
La Giara,Via Quintino Sella 24,Valdengo,13855,45.5639,8.1452
Pizzeria il Cigno,Via Torino 159,Sommariva del Bosco,12048,44.7801,7.7766
Pizzeria Area 6,Corso Mondovicino 23,Mondov√¨,12084,44.4196,7.8488
Pasticceria Buzzi,Via Circonvallazione Sud 39,Gressan,11020,45.7383,7.4655
Gelateria Caffetteria Ketty,Via Giuseppe Garibaldi 71,Bovolone,37051,45.2564,11.1232
Biwak Restaurant Pizzeria Pub,Via Brennero 12,Vipiteno,39049,46.904,11.4295
Pasticceria Zarotti,Via Cavaillon 73,Langhirano,43013,44.6806,10.2865
Buddineria Budineria Naturalmente,Piazza Capitello 4,Torreglia,35038,45.3356,11.7324
Restaurant Pizzeria Pfefferm√ºhle,Via Circonvallazione 39,Appiano sulla strada del vino,39057,46.4474,11.2651
Lo Schiaccianoci,Via Celletta 14,Argenta,44011,44.6097,11.8381
Al Nuovo Faraone,Via Rimembranze 3,Viadana,46019,44.9438,10.4746
Birrone - Birrificio Artigianale Agricolo Vicenza,Via Fossanigo 6,Isola Vicentina,36033,45.6201,11.4632
Fata Roba,Via Tellarini 31,Lugo,48022,44.4185,11.9146
HOMU,Via Carlo Dolci 8,Milano,20148,45.4724,9.1432
Pizzeria San Giorgio,Via Porta Parma 66,Pontremoli,54027,44.3843,9.8841
Eggbauerhof,Via S. Antonio 53,Caldaro sulla strada del vino,39052,46.4091,11.2352
Bar Gelateria Aurora,Via Cominazzini 1,Mergozzo,28802,45.9738,8.426
Pizzeria Ristorante La Zangola,Via Rio 27,Cornedo Vicentino,36073,45.6142,11.3724
Antica Pizzeria Fiorentina,V.le Bligny 41,Milano,20136,45.4511,9.1953
Feel Fusion,Viale Severino Boezio 10,Milano,20145,45.479,9.1603
Ristorante Pizzeria la Lucciola,Piazza S. Paolo 12,Biella,13900,45.5565,8.0662
Don Peppe pizza e cucina co‚Äô core,Via Pietro Arduino 30175,Venezia,30175,45.4579,12.213
Pizzeria Maison Jolie,V. Levantina 184,Jesolo,30016,45.5136,12.6702
Bottega Flegrea,C.so Francia 93,Torino,10098,45.0714,7.5394
Pizzeria Spaccanapoli,VIA C.S. per Mortara 2,Dorno,27020,45.2782,8.7469
Centolire Rovigo,V.le Porta Po 90,Rovigo,45100,45.0527,11.7881
Gelateria il Gelapo,Via Statale 767,Garlate,23852,45.8087,9.4009
Al Pesce Vela,Via Roma 130,Albese con Cassano,22032,45.8,9.1541
Osteria La Montanara,Via Dolomites 185,Canazei,38032,46.4768,11.7736
Komenn Thai,Via Lazzaro Papi 5,Milano,20135,45.4503,9.2067
Osteria degli Adelardi,Via Guglielmo degli Adelardi 27,Ferrara,44121,44.8357,11.6208
Sottosopra,Localit√† Saint B√©nin 1,Gressan,11020,45.7284,7.3498
Locanda del Viandante - Pizzeria Ristorante a Villafranca di Verona,Via Mantova 1,Villafranca di Verona,37069,45.3477,10.8409
Trattoria al Macello,Via Vittorio Veneto 54,Castel d'Ario,46033,45.1914,10.9793
Speck Stube Bardolino,Via Croce 1,Bardolino,37011,45.5477,10.7245
Pizzeria Pellegrini,Via Circonvallazione 97,Tione di Trento,38079,46.029,10.724
Gelateria Papavero,Corso Giuseppe Mazzini 7,Correggio,42015,44.7721,10.7783
Trattoria Due Spade,Via Tini 54,Campodolcino,23021,46.3993,9.3521
Ristorante Pizzeria Byron,Via Palma Il Vecchio 33,Bergamo,24122,45.691,9.6602
Boombastic Pub VE,Via Brianza 6,Mira,30034,45.464,12.1748
Pizzeria El Tigre,Via Silvio Pellico 37,Carignano,10041,44.9037,7.6733
AL LAGO,SS16 1475,Solesino,35047,45.1881,11.7536
Speedy Paninoteca,Via Moncenisio 14,Monza,20900,45.5842,9.2652
Pizzeria da Frenck,Via Stelvio 36,Sondrio,23100,46.1704,9.8952
Ristorante Giapponese Hanami Parma,Largo Novaro 13,Parma,43121,44.8063,10.3353
Fifties Cafe Diner by Pedro pok√©,SP299 13037,Serravalle Sesia,13037,45.6728,8.3242
Pasticceria Citterio,Via Alessandro Verza 13,Canzo,22035,45.851,9.2737
Fabbrica Birra Busalla,Localit√† Birra 3,Serra Ricc√≤,16010,44.5672,8.9556
Restaurant Pizzeria Latscher Stube,Via Hans Pegger 19,Laces,39021,46.6159,10.8591
Ristorante Pizzeria Il Cantuccio,Via Beale 10,Giaveno,10094,45.0343,7.3459
La Baia Restaurant,Frazione San Vito 8,Carlazzo,22010,46.0881,9.278
Il Portico,Via Fossano 92,Villafalletto,12020,44.5336,7.5728
Gelateria Sottozero Srl,Via Piola 84,Gattico-Veruno,28013,45.7254,8.4949
Tourl√© la Pizzeria di Ossona,Viale Europa 38,Cornaredo,20010,45.5036,8.8916
Pizzeria Calafuria,Viale Marche 65,Milano,20159,45.496,9.1922
NIMA Sushi,Via Alberico Albricci 8,Milano,20122,45.4607,9.19
Busa dei Briganti Pub Vicenza,Contr√† Giacomo Zanella 8,Vicenza,36100,45.5499,11.5459
Fusion Restaurant KOI,Via Secondo Frola 4,Torino,10121,45.0669,7.6809
Sushi Yan,Piazzale Vittime delle Foibe 23,Belluno,32100,46.141,12.2104
Barcollando,Str. Ghiare 3,Bosco Marengo,15062,44.824,8.6812
Ristorante Pizzeria Il Portico,Via Campo 766,Bergantino,45032,45.0525,11.2426
Civico 39 Ristorante Pizzeria,Viale Dante Alighieri 39,Castelnovo di Sotto,42024,44.8107,10.5605
Gelateria Serafini,Via Cembra 27,Lavis,38015,46.1436,11.1072
St. Thomas's Gate Pub,Viale Vittorio Veneto 1,Treviso,31100,45.6702,12.2505
Pasticceria Zizzola Srl,Via Martiri della Libert√† 50,Resana,31023,45.6315,11.9555
Ristorante con Pizzeria Edelweiss,Via Barcis 10,Aviano,33081,46.1089,12.5173
il Veliero Bar Pizzeria,Via Nazionale 14,Corte Franca,25040,46.1113,10.313
Il Monaco Pizzeria Ristorante,Via delle Arti e dei Mestieri 62,Casale di Scodosia,35040,45.1846,11.4449
Paradiso dei Golosi srl,Via Francesco Musoni 3,San Pietro al Natisone,33049,46.1272,13.4855
Al Pescatore,Via di Portosecco 52,Cavallino-Treporti,30013,45.4674,12.4448
Pizzeria Antica Coltelleria,Via Battiferri 25,Maniago,33085,46.1793,12.7095
Restaurant Pizzeria M√ºhlbacher Klause,Meransner Str. 8,Rio di Pusteria,39037,46.7987,11.6685
Nuovo Bar Sport Met di Zhou Ze & C. Snc,Via Padana Est 2,Quattordio,15028,44.8983,8.4091
Ristorante Pizzeria L‚Äôaltra Piedigrotta,Via dello Stadio 41,Brescia,25133,45.5693,10.235
EL Mordisco,Via Pordenone 3,Brugnera,33070,46.0287,12.5065
"Mein Beck, Marling",Piazza Chiesa 7,Parcines,39020,46.6545,11.1406
Toshi Restaurant Vicenza,Via Vercelli 10,Torri di Quartesolo,36040,45.5111,11.6237
PanzeR√© San Zeno,Via Porta S. Zeno 11,Verona,37123,45.4421,10.9769
Cartapaglia Pizza & Gin,Lungolago Cesare Battisti 25015,Desenzano del Garda,25015,45.4719,10.5401
Ristorante Pizzeria Torchio,Via Darbedo 5,Cannobio,28822,46.0696,8.6927
Baia di Par√® - Hotel Ristorante Pizzeria,Frazione Par√® 37,Valmadrera,23868,45.8586,9.3655
Il Chiringuito,Via del Ginestrino 17,Milano,20061,45.5528,9.3499
Pizzeria Ristorante La Terrazza,Via Passalacqua 42,Bassano del Grappa,36061,45.7717,11.7463
Gelateria Biancoperla,Via Indipendenza 76,Meda,20821,45.6595,9.1621
Kebabbo,Corso Regina Margherita 66,Torino,10153,45.0728,7.6964
Panino Grigliato,Via Matteotti 21,Busto Arsizio,21052,45.612,8.8467
Ristorante Fuku jima,Via Ascanio Sforza 73,Milano,20142,45.4425,9.1761
Pizzeria Mulino,"Localit√† Podere Molino, Snc, 29017",Fiorenzuola d'Arda,29017,44.9143,9.8536
Bellavista Ristorante Pizzeria,Lungolago Marinai d'Italia 4,Riva del Garda,38066,45.8841,10.8404
Dai Tosi - Trissino,Via Palladio 43,Trissino,36070,45.5677,11.377
Pizzeria Ristorante Genzianella,Via Zurlon 1,Cavedine,38073,45.9655,10.9737
Ristorante Pizzeria I Laghi di Tuna,Localit√† Canneto Sotto 117,Rottofreno,29010,44.9708,9.587
Teatro 26,Corso Marcello Prestinari 26,Vercelli,13100,45.3237,8.4137
Cascade Ristorante Pizzeria Bar,Strada Promenade 1,Castelrotto,39040,46.5722,11.6746
Il Corsiero,Via Statale 80,Santa Vittoria d'Alba,12069,44.6918,7.9268
Sconosciuta Compagnia,Via Molossi Maria 1,Casalmaggiore,26041,45.0015,10.4139
Ginza Conegliano,Viale Venezia 85,Conegliano,31015,45.8719,12.2799
Pizzeria Scialapopolo,Piazza Papa Giovanni XXIII' 2,Torrazza Piemonte,10037,45.2199,7.9834
Il Gatto e La Volpe RISTORANTE PIZZERIA,"localita' ARGINONE, Via San Cristoforo, 192",San Giovanni in Persiceto,40017,44.7409,11.2416
Rittnerstube,Via Tann 2,Renon,39054,46.5429,11.4582
Gelateria Lapecoranera,Piazza della Vittoria 7,Brescia,25122,45.538,10.2189
Pizzeria Pontafel,Via G. Mazzini 61,Pontebba,33016,46.5077,13.3086
Muccala,Via della Novaglia 60,Mornago,21020,45.7876,8.7814
Il Punto Pizza da Giuliano,Via della Liberta' 5,San Pietro in Casale,40018,44.6955,11.4006
Pizzeria Da Volpe,Via Barco 33,Casier,31030,45.7687,11.9563
La Rosa dei Venti,Viale Unione Sovietica 57,Mede,27035,45.1025,8.7467
Modugno,Via Prelio 1,San Salvatore Monferrato,15046,44.9952,8.5659
La Vecchia Sportiva bar Pizzeria,Via Spirito Antonelli 2,Maggiora,28014,45.6902,8.4193
Burgerino,Via Guido D'Arezzo 2,Verona,37131,45.4468,11.0274
Restaurant Pizzeria Torgglkeller,Via Tinne 7,Chiusa,39043,46.6401,11.5644
Alzati Lazzaro,Via del Commercio 61,Moconesi,16047,44.4291,9.1841
Trattoria Al Ponte,Via Bertolda 27,Lusia,45020,45.0792,11.6601
Helmut Pub,Via Olme 37,Mogliano Veneto,31021,45.5628,12.2551
"Ristorante Pizzeria ""Il Baffo""",Via per Pralboino 20,Flero,25020,45.2948,10.2108
Trattoria Paninoteca Lido,Via Cesare Battisti 64,Staranzano,34079,45.8014,13.5064
Pasticceria Bomb√©,Via Emilia Est 117,Parma,43123,44.793,10.3559
Ristorante Pizzeria Sant'Ercolano,Via Statale Maderno 5,Toscolano-Maderno,25088,45.636,10.6042
Yu Sushi,Via Varese 177,Lainate,20020,45.6172,9.0643
Ristorante Pizzeria L'Officina,Via Romana di Levante 53,Arenzano,16011,44.4106,8.6874
Trattoria Pizzeria Al Senato,Via Verona 55,Vigasio,37068,45.329,10.949
Tortuga,Via Giannino Ancillotto 34,San Don√† di Piave,30027,45.6308,12.5638
Trattoria del Gallo,Via Tanzi Montebello 5,Vailate,26019,45.4587,9.6036
A Tutto Gas,Strada Statale 26 della Valle d'Aosta 39,Chambave,11023,45.7437,7.558
Goldener L√∂we,Piazza Centrale 4,Monguelfo-Tesido,39035,46.7566,12.1055
La Palta,"Loc, Frazione Bilegno, 67",Borgonovo Val Tidone,29011,44.9915,9.4704
Pizzeria Ristorante Apollo XI,Via Badiale 4,Tignale,25080,45.7391,10.7201
Osteria del Maggio,Costabona di Villa Minozzo 42030,Villa Minozzo,42030,44.3496,10.4925
Candrina Panificio e Pasticceria di Andrea Candrina,Viale Europa 45,Castel Goffredo,46042,45.295,10.4765
Il Masetto,Via di Canneto Il Lungo 111,Genova,16123,44.4066,8.9323
City Istanbul Turkish Kebap,Via Scipione Ronchetti 507,Cavaria con Premezzo,21044,45.6952,8.8033
La Torre Pizza e Gril,Via Roma 12,Cameri,28062,45.5,8.6607
"RISTORANTE DELL'ANGELO - Specialit√† Carne e Pesce, Pizzeria, Cerimonie, Eventi, Hotel","Frazione Tornello, SS 617",Mezzanino,27040,45.1279,9.2284
Saporoso,Via dei Mille 1,Trento,38122,46.063,11.1276
Osteria Versa,Via F. Crispi 7,Santa Maria della Versa,27047,44.9875,9.3008
Ristorante Medioevo,Via C√† Diedo 4,Rosolina,45010,45.1105,12.2575
Agriturismo Giada,Via Marconi 116,Rivanazzano Terme,27055,44.9156,9.0378
Il Panino di Lignano Pineta dal 1983,Raggio dell'Ostro 2,Lignano Sabbiadoro,33054,45.6681,13.1055
Restaurant Pizza Steakhouse Anny,Via delle Palade 29,Marlengo,39020,46.6537,11.1468
Duca di Bentivoglio,Via Asinari 9,Bentivoglio,40010,44.6354,11.4386
Nami Zhao Ristorante Giapponese,P.za XXVII Ottobre 45,Venezia,30172,45.4921,12.2456
MANGIA MANGIA | Bussoleno,Via Traforo 16,Bussoleno,10053,45.1391,7.1452
Gelateria Dalla Corte,Via Dante Alighieri 5,Feltre,32032,46.0191,11.8939
Bar Chicco Rosso,Via Torino 9,Piossasco,10045,44.9902,7.4695
Sakura Japanese Restaurant,Via Sant'Antonino 259,Treviso,31100,45.6516,12.2587
Saporhit,Via Bafile 252,Jesolo,30016,45.5029,12.6363
My Kimchi,Viale Montello 9,Milano,20121,45.4804,9.1813
Sushic Cassano Magnago,Via IV Novembre 18,Cassano Magnago,21012,45.6721,8.8235
Ristorante Pizzeria O' Scugnizzo,Via Tre Innocenti 12,Montichiari,25018,45.4114,10.397
Al Rifugio,Via Codroipo 9,Zoppola,33080,45.9531,12.7895
Pizzeria La Pace,Via Cartiera 62,Rossano Veneto,36028,45.7039,11.8044
Ristorante Pizzeria Ancora,Via IV Novembre 32,Tesero,38038,46.2895,11.5105
Le Acque Pizzeria Ristorante,Via delle Acque 2,Vicoforte,12080,44.355,7.8631
Gelateria Rocca Non Solo Bar,Via XX Marzo 10,Cologna Veneta,37044,45.3084,11.3856
Ristorante Kalispera,Riviera Martiri della Libert√† 14,Dolo,30031,45.4294,12.1091
Mamototo Azzano,Via Ilaria Alpi 3,Azzano Decimo,33082,45.8916,12.6977
Ristorante Pizzeria alla Grotta,Lungolago Barbarani 14,Cavaion Veronese,37010,45.6098,10.6856
Ristorante Pizzeria NABLUS,Via Supiane 1,Gardone Riviera,25083,45.6296,10.5745
Osteria La Spl√©uza Cucina & Pizza,V. Nazionale 1345,Dimaro Folgarida,38025,46.3319,10.8854
Piadineria Gli Ingordi,Via Ferrara 239,Ostellato,44020,44.7639,11.8714
trattoria val noveglia,st 43032,Bardi,43032,44.5905,9.761
L'hamburger del contadino,Trav. 1 di Viale Mellini 1,Chiari,25032,45.5383,9.932
Delicious Baobing,V.le Bligny 26,Milano,20122,45.4508,9.1909
Nobu Milano,Via Gastone Pisoni 1,Milano,20121,45.4707,9.1929
La Bitta Chiavari dal 1992 Pizzeria Ristorante,Corso Giuseppe Garibaldi 99,Chiavari,16043,44.3136,9.3253
Nuovo Infinito,Via Statale 24,Rottofreno,29010,45.1157,9.9932
Hardimitz'n Restaurant & Steakhouse Pizzeria,Via Funivia 7,Brunico,39031,46.7715,11.9432
Wang Jiao,Via Paolo Lomazzo 16,Milano,20154,45.4819,9.1725
Bul√® Farinata pizzeria,Piazzale Guglielmo Marconi 4,Alessandria,15121,44.9096,8.6134
Agrigelateria St. P√©,Cascina S. Pietro 29,Poirino,10046,44.9402,7.8537
Ristorante Pinocchio,Via G. Marconi 97,Lovere,24065,45.822,10.0818
Sange asian restaurant Trissino,Via Stazione 56,Trissino,36070,45.553,11.384
Petit Parc,Via Provinciale 21030,Cugliate-Fabiasco,21030,45.9138,8.7587
limonet,"Fraz, Frazione Pont Suaz, 162",Gressan,11020,45.728,7.322
Leon Rampante Bar Pizzeria,Via Guglielmo Marconi 17,Palazzo Pignano,26020,45.3891,9.5693
S‚ÄôAgapo‚Äô | Ristorante Greco,Via S. Giovanni 8,Bergamo,24121,45.7004,9.6755
Ristorante Pizzeria Hostaria Cascina,Via Mascazza 29,Turate,22078,45.6645,8.989
Il Divino,Via Muraglione 13,Baiso,42031,44.463,10.6564
Pizzeria Vesuvio,Viale Trieste 44,Bolzano,39100,46.4912,11.3435
Ristorante Pizzeria La Fratta,"Via Montecchio, Via Resga, 2",Montechiarugolo,43022,44.6981,10.4244
Pastry Shop San Paolo,Via F. Petrarca 159,Sarezzo,25068,45.6748,10.1861
Bacio Gelateria Caffetteria,Via Varesina 58,Lurate Caccivio,22075,45.7718,9.0013
MATERIA PIZZERIA - MILANO CENTRO,Via del Torchio 1,Milano,20123,45.4603,9.1806
MIC Ramen,Viale Marconi 14,Pordenone,33170,45.9622,12.6569
Ciucciu√©,Via Antonio Gramsci 8,Monza,20851,45.6107,9.2433
Mergellina Bakery,V.le Bligny 13,Milano,20136,45.4514,9.1889
Denzel,Via Giorgio Washington 9,Milano,20146,45.465,9.1553
Hamb√π - Hamburgeria e Pinsa Romana a Meda,Via Indipendenza 161,Meda,20821,45.6557,9.1762
Slice Milano,Via Giovanni Gherardini 2,Milano,20145,45.4768,9.17
Ristorante Pizzeria Il Palio,Piazza Trieste 11,Montagnana,35044,45.2313,11.4693
Integraldo,"fraz. Tiveriacco, Via Osoppo, 18",Campoformido,33030,46.1892,13.0563
Pizzeria Ristorante Bar La Torate,Via Divisione Julia 54,Paluzza,33026,46.5348,13.0149
Haru Asian Fusion Restaurant,Corso Brigate Partigiane 13,Cairo Montenotte,17014,44.3908,8.2809
La Vecchia Quercia,Via Canal Vecchio 1,Finale Emilia,41034,44.8373,11.266
Pizzeria Ristorante Bar Ti Spiazza,Borgata Pal√π 17,Sappada,33012,46.5657,12.6798
Ristorante Pizzeria Il Caminetto,Piazza Vittorio Emanuele 6,Sorisole,24010,46.0043,9.7599
Ristorante Pizzeria Garden,Corso G. Garibaldi 1,Malcesine,37018,45.7645,10.8069
Trattoria Falconi,Via Valbona 81,Sorisole,24010,45.7306,9.6538
La Taverna del Gusto,Piazza S. Materno 10,Grumello Cremonese ed Uniti,26023,45.2166,9.8519
Pizzeria Trattoria Olivi,Via Olivi 22,Possagno,31054,45.8486,11.8766
Caff√® Val d'Anna,Str. Val d'Anna 39,Ortisei,39046,46.58,11.6873
Asia,Via Atleti Azzurri d'Italia 7,Piacenza,29121,45.0542,9.6601
McOnor,Piazza Erminio Ferretto 75,Venezia,30174,45.4933,12.2411
Il Delfino Pizzeria,Via Don Luigi Sturzo 36,Carpi,41012,44.7971,10.8852
Dolci Storie,Via degli Imbriani 47,Milano,20158,45.5009,9.1667
Pasticceria Melograno Urgnano,Via C. Colombo 271,Urgnano,24059,45.602,9.6979
El Beso,Via Bernardino Galliari 22,Torino,10125,45.0593,7.6832
Snoopy Pub Ristorantino Cordenons,Viale delle Dolomiti 17,Cordenons,33084,45.9954,12.7032
Crema Gelato GHEDIN S.R.L,Riva Camperio 9,Grado,34073,45.6778,13.3862
Revolution Montichiari by Linus,Via Trieste 78,Montichiari,25018,45.4102,10.3961
Seventh Mexican Restaurant,Via Repubblica 58,Ro√® Volciano,25077,45.611,10.4954
Pasticceria Cortinovis,Via Guglielmo Marconi 109,Ranica,24020,45.7203,9.7137
Pizzeria Almiro,Via Puglie 40060,Castel San Pietro Terme,40024,44.4295,11.5223
Pizzeria Arcobaleno,Via Antonio Zanchi 5,Padova,35133,45.4305,11.8895
Reebs,Via Calnova 59,Venezia,30020,45.6661,12.5335
Made In Sud,Via Roma 29,Aicurzio,20886,45.6407,9.4132
Due Colombe,Via Foresti 13,Borgonato,25040,45.6212,10.016
Gelateria Lariana,22020 San Fermo della Battaglia,San Fermo della Battaglia,22042,45.8078,9.05
Ristorante Pizzeria al Fogolar,Via Udine 12,Tavagnacco,33010,46.1004,13.2145
Taverna del Pittore,Via Nicola Badaloni 25,Rovigo,45100,45.0688,11.7887
Nonna Papera Ice Cream Shop,Via Borgognone 38,Cant√π,22063,45.7307,9.127
Burmet,Via Monte Bianco 16,Lomazzo,22074,45.6938,9.0292
Industry,Via Galeasso 1,Pancalieri,10060,44.841,7.5845
Mille Luci,Via dei Mille 1,Jesolo,30016,45.4869,12.5964
Restaurant Pizzeria Meraner,Via Monte 19,San Michele,39057,46.4589,11.2543
La Fazenda,Str. Marosticana 590,Vicenza,36010,45.6087,11.5618
Ristorante Il Terziere,Via delle Industrie 2,Delebio,23014,46.1367,9.4768
LA FARMACIA DEI SANI - Pizzeria,Via E. Filiberto 4,Adria,45011,45.0616,12.0486
Carlo's,Via Muzzinello 1,San Giovanni in Persiceto,40017,44.6369,11.1896
Sushi Zero,Via Guido Maggiora 1,Asti,14100,44.906,8.2321
Max Music Pub,Via Marconi 41,Campodarsego,35011,45.4792,11.935
Ristorante - Pizzeria L'Oster Bif & Beef,Via Guglielmo Marconi 21,Valtrighe,24030,45.6967,9.5337
Pizzeria Don Matteo in Villa Bellati,Via Montello 1,Trevignano,31040,45.8555,12.0173
H24 - Pizzeria ristorante bar,Via delle Fiamme Gialle 10,Trieste,34123,45.6387,13.7629
Furci Bakery,Viale Giacomo Matteotti 79,Milano,20099,45.536,9.2252
SAN ROCCO,via eridania occidentale 2,Castelmassa,45035,45.0148,11.3332
Instabile Venezia,Via Venezia 166,Scorz√®,30037,45.563,12.1253
Bocon Divino,Via Macallo 38,Bagnacavallo,48012,44.4273,11.9505
Mizuumi Sushi Lavena Ponte Tresa,Via Ungheria 1,Lavena Ponte Tresa,21037,45.9666,8.8588
Caff√® Longobardo,Piazza Paolo Diacono 6,Cividale del Friuli,33043,46.0946,13.4304
Ostu Pizzeria - Bottega - Enoteca,Via Amaretti 28,Poirino,10046,44.9203,7.8475
Focacceria Revello,Via Giuseppe Garibaldi 183,Camogli,16032,44.3505,9.1526
Ristorante da Genio,Via Polcenigo 6,Brugnera,33070,46.0386,12.4965
L'Inizio Pizzeria,P.zza Garzena 7,Torino,10036,45.137,7.7688
Ristorante Pizzeria Bella Capri,Via Jacopo da Ponte 47,Bassano del Grappa,36061,45.7674,11.7378
Ristorante Gardenia,Corso Torino 9,Caluso,10014,45.3034,7.8902
Il Graffio,Via Ferdinando Magellano 18,San Giovanni in Persiceto,40017,44.628,11.1979
Piadina Ciliegina,Lungomare Italia 25,Lido delle Nazioni,44022,44.7388,12.2418
Pizzeria Ristorante Pan e Vin,Via Costo 40,Monticello Conte Otto,36010,45.7675,11.4559
Pan Pan,Corso Cavour 88,Borgo Ticino,28040,45.7339,8.5741
Eliapizza Trattoria Al Cacciatore,Via Villa del Bosco 268,Pontelongo,35029,45.2454,12.0237
Restaurant Atmosphera,Viale Venezia 8,Lignano Sabbiadoro,33054,45.6885,13.141
Ristorante Pizzeria Italia da Nikolas,Via Portici Umberto 5,Malcesine,37018,45.7639,10.8068
Ristorante Pizzeria Regina Major,Via Artigianale 1,Manerbio,25025,45.3549,10.1268
Pizzeria Napoli Di De Rosa Annalisa,Corso Saracco 183,Ovada,15076,44.6335,8.6371
ZERO 11,Via della Repubblica 32,Torino,10036,45.1345,7.7616
Al Tiglio cucina naturale / Ristorante Veg,Via Centa 8,Campoformido,33030,46.1196,13.1228
Remember,Via Roma 98,Breganze,36042,45.7063,11.5628
Pizzeria La Luna Pizzeria e Bar,Via S. Don√† 208,Venezia,30174,45.5034,12.2648
Al Fogher Ristorante Pizzeria,Via Arzerini 48,Camponogara,30010,45.3985,12.0823
La Stiva,Piazza Albertini 1,Mareno di Piave,31010,45.8719,12.0801
Pizzeria Ristorante La Tirolese,Localit√† Sottoguda 1,Rocca Pietore,32023,46.4249,11.9393
Pizzeria Ristorante Don Felipe,Via Stazione 4,Castelleone,26012,45.3016,9.7674
Panineria La Farcia Alessandria,Via Carlo Caniggia 25,Alessandria,15121,44.9101,8.6123
Antica Gelateria Guarino Snc,Via Cesare Crosa di Vergagni 25,Genova,16124,44.4132,8.9334
La Barchetta,Via Emilia 75,Fontevivo,43010,44.834,10.1794
"Pizzeria ""da Giannino""",Via Dante Alighieri 2,Tarvisio,33018,46.5044,13.5881
Pizzeria di Porta Garibaldi - MILANO,Corso Como 6,Milano,20124,45.4815,9.1874
Gelateria Baires 1997,Via Buenos Aires 78,Torino,10137,45.038,7.6396
Arte & Pizza,Via XX Settembre 83,Cardano al Campo,21010,45.6364,8.7668
Ichiban Ramen Padova,Via del Santo 113,Padova,35123,45.4032,11.8794
Le Campane,Cannaregio 1401,Venezia,30121,45.4439,12.3282
Aldo e Maria Ristorante Pizzeria d'autore,Via Cavour 34,Alzano Lombardo,24022,45.7375,9.7381
La Base,via Campo Rivera 145,Vaprio d'Adda,20069,45.5711,9.5157
Ristorante Pizzeria Il Ristoro,Via Piave 87,Vazzola,31028,45.8065,12.3463
Pizzeria Trattoria La Strega,Via Papa Giovanni XXIII' 16,Vigasio,37068,45.3371,10.9206
Ristorante Pizzeria Santo Stefano 4,Via D.Orione 5,Cassano Magnago,21012,45.6803,8.822
Da Tituta,Viale Panama 2,Caorle,30021,45.6065,12.8746
El Tocororo,Via Statale Paullese 32,Palazzo Pignano,26020,45.3468,9.7217
Yuki Sushi,Via Ottone III' 9,Concordia Sagittaria,30023,45.7651,12.8274
Pizzeria Santa Lucia - Spaghetti House,Via Terraglio 78,Treviso,31100,45.653,12.2422
Trattoria da Marte,Vicolo Belfiore 3,San Benedetto Po,46027,45.0413,10.9284
Ristorante Pizzeria Waikiki,Frazione Melezet 117,Bardonecchia,10052,45.0579,6.6822
Pizzeria Da Lino,Via Jacutinga 1,Trevignano,31040,45.8519,12.0253
La Perla Sas,Via Cavour 4,Spilimbergo,33097,46.1115,12.898
Ristorante pizzeria La vecchia stalla,Via Madonnina Inferiore 16,Cogoleto,16016,44.3912,8.66
Pizzeria La Ghironda,Via Roma 33,Viggi√π,21059,45.8718,8.9072
Ristorante Pizzeria Al Faro,Via Valsugana 18,Pergine Valsugana,38057,46.0369,11.2437
Capri,"9, Lido Di Iesolo",Jesolo,30016,45.5062,12.6434
Pizzeria napoletana da Tony,Via Padana Superiore 18,Milano,20090,45.5123,9.2679
Pizza Ok 2,Via S. Siro 9,Milano,20149,45.47,9.1535
Ristorante Sushi Kami,Via Friuli 14,Burolo,10010,45.4705,7.924
Rock Burger¬Æ Torino,Via Roero di Cortanze 2,Torino,10124,45.0678,7.6955
Ristorante Pizzeria Montecarlo,Via Locatelli 11,Castellanza,20025,45.6073,8.9142
PuraBrace-GrillHouse Vedano al Lambro,Via della Misericordia 15,Monza,20854,45.619,9.2706
Ristorante Oasi,Via Georges Bizet 5,Reggio nell'Emilia,42124,44.6964,10.6075
Pizzeria Damino,Viale Pietro Martire 34,Angera,21021,45.7738,8.5682
Pizzeria Ristorante La Piota,Via Valeriana 234,Dubino,23015,46.17,9.4356
Al Messicano,Via Torni 58,Mogliano Veneto,31021,45.5586,12.263
La Smorfia,Via Nicol√≤ Cavallerini 4,Modena,41121,44.6492,10.9264
Ristorante Pizzeria - All' Antica Segheria,Via Campiglio 2,Carisolo,38080,46.1701,10.7648
Sushi One Superior Desenzano,Via Lario 23,Desenzano del Garda,25015,45.4651,10.5518
Pasticceria Gambasin,Via IV Novembre 46,Pieve del Grappa,31017,45.8361,11.8538
Pizzeria Blu Notte Snc Dei F.lli Gherri Enrico e Mirella| Correggio| Reggio Emilia,Via Lemizzone 11,Correggio,42015,44.7337,10.7545
Ines Stube,Via Luigi Cadorna 6,Nibionno,23895,45.7467,9.2695
Balobino Lendinara,Via Santa Maria Nuova 59,Lendinara,45026,45.0878,11.6036
San Michele Ristopizza,Via Bergamo 37,Stezzano,24040,45.5806,9.5556
Jubin Due - Ristorante Cinese,Via Padova 7,Milano,20127,45.4876,9.2184
MEI SHI MEI KE,Via Luigi Cibrario 9,Torino,10143,45.0774,7.6673
Manu√® Ristorante Pizzeria e Friggitoria,Viale Fratelli Kennedy 12,Azzano San Paolo,24052,45.6997,9.7378
Ginzo - Creative Taste Padova,Via Antonio Grassi 8,Padova,35129,45.4101,11.9024
Pizzeria Linus Brescia,Via della Volta 6,Brescia,25124,45.5183,10.2245
Pizzeria Il Giglio,Via Caselle 10,Sommacampagna,37066,45.408,10.8515
Il CHIOSCO - Sosta e Shop - Sequals,S.da di Sequals 17,Spilimbergo,33097,46.1417,12.858
Pizzeria Giuliana,Via Rizzi 51,Nove,36055,45.7258,11.6751
Pasticceria Passoni,Via Roma 36,Barzio,23816,45.9448,9.4681
Burggr√§fler,V. Principale 22,Tirolo,39019,46.6901,11.1556
Gelateria Antica Torre,Via Lungolago 8,Fontaneto d'Agogna,28010,45.8009,8.3875
The Temple Bar,piazzale oltrep√≤ 5,Casei Gerola,27050,45.0268,9.1588
Creo Bakery Caf√®,Piazza della Repubblica 15,Sant'Ilario d'Enza,42049,44.7606,10.4485
Yang Asian Restaurant - Costa Volpino,Via Cesare Battisti 26,Costa Volpino,24062,45.8275,10.1073
"Ristorante-Pizzeria ""Del Brenta""",38018 Molveno,Molveno,38018,46.1517,10.9608
Restaurant Pizzeria W√ºrstlhof,Via S. Giacomo 151,Laives,39055,46.4546,11.3354
Preziosilla,Via Pieve Vecchia 40,Nave,25075,45.5932,10.3121
Ristorante Delfino,Via Lonato 2,Orzinuovi,25034,45.4009,9.9286
DOPOLAVORO,Via Pila 11,Cassano d'Adda,20062,45.5269,9.5258
Panin Onto & Bira Bona,Calle Ghirardi 19,Mirano,30035,45.4939,12.1101
Ristorante OKAI,Via Daniele Piccinini 2,Bergamo,24122,45.6951,9.6669
Ristorante Pizzeria Bar Lido,Via Gualtiero Berti 33,Maccagno con Pino e Veddasca,21061,46.0379,8.7345
Pizzeria Al Greco,Via Giuseppe Ellero 42,Ampezzo,33021,46.4103,12.8057
Pizzeria da Pietrino,Via Mazzini 61,Stazzano,15060,44.7079,8.8882
La Fossa Romea,Viale IV Novembre 2,Castelnuovo Scrivia,15053,44.982,8.8751
Pizzeria Cusinot,Viale Italia 61 76,Sant'Antonino di Susa,10050,45.0523,7.3015
Pizzeria Ristorante Da Arnold's,Str. Catarina Lanz 65,Valle Aurina,39030,46.6949,11.9393
B+ Caf√®,Via Toscana 15,Zola Predosa,40069,44.4909,11.2381
Excalibur Ristorante Pizzeria,Via Circonvallazione 37,Verolanuova,25028,45.3329,10.0836
Ristorante Il Lupo,Centro 54,Carpaneto Piacentino,29013,44.9078,9.815
Antico Forno,Rugheta del Ravano 973,Venezia,30125,45.4382,12.3336
Pizzeria Ristorante Nuovo Ronche,Via Ronche Sopra di Piavon 22,Oderzo,31046,45.7643,12.5333
Rosa Ristorante Pizzeria,Quartiere L. Perosi 41,Conselve,35026,45.2281,11.8778
Taverna del Gufo,Piazza Umberto I 1,Longarone,32013,46.2683,12.3003
Il casolare da Ross e Simo,Via Reale 26,Alfonsine,48011,44.4963,12.0578
Il Piccolo Arcobaleno,Via Valla 2,Pavia,27100,45.188,9.1537
Brunch Cafe,Calle de la Madoneta 1457,Venezia,30125,45.4373,12.3311
"Osteria Pizzeria ""Senza Tempo""",Via D. Semeghini 25,Quistello,46026,45.0257,10.9952
Agrigelateria Guado,26852 Guado,Casaletto Lodigiano,26852,45.2882,9.3426
Birreria Romagnolo di Bonato Luca e Bianchi Davide & Co S.a.s.,Piazza Giacomo Matteotti 8,Bolzano,39100,46.49,11.3364
Pizzeria Ristorante Bella Napoli,Viale Centrale 20,Lignano Sabbiadoro,33054,45.6821,13.1273
Ristoro Di Dante,Via G. Micheli 10,Castelnovo ne' Monti,42035,44.4321,10.4107
Maoji Street Food,Piazza Aspromonte 43,Milano,20131,45.4838,9.2193
Pasticceria Ugetti,Via G. F. Medail 80,Bardonecchia,10052,45.0779,6.7077
Al Giardinetto Oderzo - Pizza e Cucina,Via Contrada Rossa 10,Oderzo,31046,45.783,12.493
Piadineria la Piadeina,Via Calzolerie 1,Bologna,40124,44.4942,11.3453
La Sorgente Ristorante Pizzeria Indiano Italiano Novara,Corso Risorgimento 216,Novara,28100,45.4751,8.613
Pizzeria Ristorante La Picara Casalmaggiore,S.S. Sabbionetana 420,Casalmaggiore,26041,44.9804,10.4251
Gelateria Nico,Fondamenta Zattere Al Ponte Lungo 922,Venezia,30123,45.4296,12.3262
B√§ckerei Konditorei Gatterer des Paul Gatterer & Co. OHG,Via Chienes 2,Valle Aurina,39030,46.8062,11.836
China Town,Via IV Novembre 4,Piacenza,29122,45.0435,9.7007
Albergo delle Alpi,Via Bolladore 19,Sondalo,23035,46.3267,10.3255
Pasticceria Botter,Via della Vittoria 2,Trevignano,31040,45.8542,12.0244
Trattoria ai Cortili di Giordani Maria Alessandra,Via Canne 124,Argenta,44011,44.6558,11.6551
Cuore di Luca Brancati,Via Monte Pasubio 9,Marano Vicentino,36035,45.6917,11.426
Hiro Restaurant,Via S. Pietro 16,Milano,20017,45.5315,9.0649
Yuan Sushi Revolution,Via Euganea 4,Padova,35030,45.3909,11.8065
Frankly,P.za Argentina 3,Milano,20124,45.4843,9.2144
Don Raffaele - Trattoria Pizzeria,Via Roncaglia 3,Milano,20146,45.4587,9.154
Pizzeria Al Grottino Brugherio,Viale Lombardia 239,Monza,20861,45.5551,9.2986
Amici Miei Restaurant,C.so Vittorio Emanuele II 94,Torino,10121,45.0669,7.6684
Sleppa - ùòÉùó∂ùóÆ ùó©ùóÆùóπùóπùóÆùòáùòáùó≤,Via Vallazze 103,Milano,20129,45.4852,9.2311
Vurria Moscova | Pizzeria,Via della Moscova 27,Milano,20121,45.4767,9.1891
Ristorante Pizzeria La Terrazza,Via Tre Capitelli 149,Idro,25074,45.7523,10.4804
Pasticceria Ruffoni,Via Pozzolo 8,San Giovanni Bianco,24015,45.8746,9.6508
Trattoria Risol Ristorante,Via Andrea Fantoni 71,Ranica,24020,45.915,10.0629
Koriander,Strada Val Pusteria 3,Valle Aurina,39030,46.7922,11.9808
La Corte del Duca Pizzeria,Via Coronella 75,Galliera,40015,44.7495,11.3922
Rifugio √útia Bioch,Piz Sorega - Loc. Bioch 39036,Badia,39036,46.5471,11.9097
"Gelateria ""Da Vitto""",Lungomare Giovanni Bettolo 57,Recco,16036,44.3612,9.143
Ristorante Braceviva,Via Amellina 100,Trescore Balneario,24069,45.6844,9.8233
Binta Ristorante Pizzeria,Via Casies 2,Valle Aurina,39030,46.77,12.1754
Vesuvio,Via Paolo Gerolamo Brusco 2,Savona,17100,44.3089,8.4783
Pizzeria Ristorante AL RIO,Piazza Rizzardi 1,Auronzo di Cadore,32041,46.5469,12.4542
Gelateria Settimo Cielo,Via S. Francesco 16,Nogara,37054,45.1752,11.0637
Edelweiss Stube,Borgata Pal√π 23,Sappada,33012,46.5656,12.6802
Bunker,Via Vittoria 43,Mussolente,36065,45.7791,11.8036
Caff√® Florian,P.za San Marco 57,Venezia,30124,45.4336,12.3382
Panificio Luppi MN,Via Enrico Mattei 3,Sermide e Felonica,46028,45.0092,11.2799
Spazio Caffelarte,Via Postumia 166,Paese,31038,45.6713,12.1708
D√∂ner Kebab - Kebapci Aga San Fior (TV),Via Europa 42,San Vendemiano,31020,45.9192,12.3548
Kalcheralm,Via Passo Giovo 11,Castelrotto,39040,46.8499,11.3224
Via dei Luppoli Pub,V. Boschi 57,Martellago,30030,45.5548,12.1372
Panificio Fiordiponti,Via Jacopo Ruffini 26,Santa Margherita Ligure,16038,44.3298,9.2124
Kowa sushi - Castel Bolognese,Via Martiri di Felisio 53,Castel Bolognese,48014,44.3249,11.7875
Pizzeria Ristorante La Civetta,Via dei Giardini 38086,Pinzolo,38086,46.1413,10.7734
Caff√® delle Carrozze,Piazza Giacomo Matteotti 1,Chiavari,16043,44.3166,9.327
Al Laghetto Cicogna,Via Dossi 13,Arcole,37040,45.2765,11.487
Pizzeria Officina,Via Alessandro Volta 2,Cambiano,10020,44.9715,7.7637
Cafe Bel Sit,SP211 1,Lomello,27034,45.1229,8.7992
Ristorante e Pizzeria L'Ora | Riva del Garda,Viale Rovereto 101,Riva del Garda,38066,45.8786,10.8578
Pub 900,Via Giacomo Matteotti 3,Sant'Ambrogio di Valpolicella,37015,45.5221,10.8328
Ristorante Pizzeria La Fontana,SS10 15055,Pontecurone,15055,44.9729,8.9577
Saccaro,Via Padova 1,Sacile,33077,45.9515,12.4885
PIZZERIA FILO 2.0 - Fidenza,Via R. Bormioli 18,Fidenza,43036,44.8519,10.0757
L'Hamburgheria -la fabbrica del panino-,Via XIII Martiri 165,San Don√† di Piave,30027,45.6307,12.573
PizzaRandom,Via Provinciale Saronnese 34,Rescaldina,20027,45.6117,8.9516
Pizzeria JAMM Vercelli,Corso Marcello Prestinari 116,Vercelli,13100,45.3238,8.4099
Tairyo,Via Raffaello Sanzio 10,Milano,20149,45.4689,9.1528
Ristorante Europa,Via Pozzi Donnino 12,Fontanellato,43012,44.8783,10.1713
Steakhouse Gerhard Restaurant & Pizzeria,Via delle Palade 1,San Martino in Passiria,39010,46.6254,11.1475
Mamma Mia Pizzeria,Via Cristoforo Colombo 38,Novellara,42017,44.853,10.7368
Il Circolo di Tornavento,Piazza Privata Parravicino 1,Lonate Pozzolo,21015,45.5831,8.7083
Retrogusto Ristorante Pizzeria,"Strada Prinzera, Loc. La Salita, 8",Fornovo di Taro,43045,44.6775,10.0937
Arcano,Via S. Martino 12,Nizza Monferrato,14049,44.7752,8.359
Chicken n Chicken,Via S. Felice 222,Vicenza,36100,45.5443,11.5319
Pizzagrill Incanto,Via Trieste 33,Martinengo,24057,45.5713,9.761
DedasPuri Ristorante Georgiano & Wine Shop - Pavia,Via Beccaria 24,Pavia,27100,45.1854,9.1534
Farini,Ruga Rialto 655,Venezia,30125,45.4383,12.3339
Napul√® Hamburgeria Friggitoria & Pizzeria Napoletana,Via Cesare Battisti 74,Seriate,24068,45.6802,9.7204
La Sosta,Via Conte Mellerio 21,Malesco,28854,46.1271,8.5
Alpina 1954 Ristorante Pizzeria,Via Vecellio 43,Pedavena,32034,46.0478,11.8741
Pizzeria La Rocca 019,Via Pietro Trebeschi 51,Castegnato,25045,45.5638,10.1179
Trani Braceria Pizzeria,Via Ortaglie 4,Pisogne,25055,45.8044,10.1077
Ristorante Pizzeria Zurigo,Via del Garda 63,Mori,38065,45.8518,10.9716
Pizzeria Moncalveat,Via IV Marzo 11,Moncalvo,14036,45.0506,8.266
Tavernetta da Nani,Riviera Luigi Balzan 849,Badia Polesine,45021,45.0937,11.4911
Mani in Pasta - pizza & co.,Via Sant'Antonio da Padova 86,Vittorio Veneto,31029,45.9664,12.319
da Pino Padova,Via Cavour 20,Padova,35121,45.4077,11.8782
Gemma Grill,Via Roma 424,Fontanelle,31043,45.8127,12.4763
Gelateria Brina,Piazza Vittorio Emanuele II 6,Cologno al Serio,24055,45.5801,9.708
Il Kapuziner Platz im Wald (CASTELSEPRIO-Va),Via Molino Lepori 21050,Cairate,21050,45.7095,8.8673
Tivoli Pub,Via Papa Giovanni XXIII 18,Alm√®,24011,45.7394,9.6122
Corte Vittoria,Via Valle Molini 20,Sommacampagna,37066,45.3845,10.7867
Ristorante Pizzeria Nonno Socrate,Via Nazionale Nord 68,Argenta,44011,44.6542,11.7695
La Playa,Via Mogno 441,Cadrezzate con Osmate,21062,45.8029,8.6499
Kisen Sushi Milano,Via Gian Giacomo Mora 9,Milano,20123,45.4589,9.1795
TWISTER Pizza & Restaurant,Via Cesana e Villa 45,Monza,20853,45.6267,9.2758
Birracrua,Str. Vicinale Monte Crocetta 6,Vicenza,36100,45.5594,11.5171
Pizza OK,Via Lambro 15,Milano,20129,45.4745,9.2103
Ristorante Pizzeria DA GIGI,Via Gardesana 214,Malcesine,37018,45.7591,10.8084
Pizzamorefantasia,Viale Sabotino 283,Legnano,20025,45.6016,8.8928
Birrificio Gregorio,Via reggio 14,Parma,43126,44.8104,10.324
Osteria Pizzeria Daim√≤,Via Carlo Jussi 1,Bologna,40068,44.4689,11.412
Feltrin Gelateria & Wine Bar,Via Luciano Piazza 44,Spresiano,31027,45.7811,12.2596
Paddock,Viale Europa 9,Iseo,25049,45.655,10.0464
Xin Sushi,Via Sommariva 31,Torino,10022,44.8443,7.7304
Fitz,Via Laghi di Avigliana 9,Busca,12022,44.4809,7.5045
Main Street Pub,Via Guglielmo Marconi 78,Desenzano del Garda,25015,45.47,10.5318
Pizzeria All' Angolo,Via Umberto I 64,Maniago,33085,46.1688,12.7044
Antigua Bar & Steakhouse,Via Emanuele Filiberto 16,Triuggio,20844,45.649,9.2813
Il Mascalzone pizzeria con cucina,Via Pilastro 55,Cento,44045,44.7662,11.2787
Panificio Pasticceria Tossini,Via della Cittadella 2,Chiavari,16043,44.3173,9.3242
Pizzeria Castello,Via Madonna del Castello 27,Carpenedolo,25013,45.3627,10.4318
Banda Bistropub Feltre,Via Luigi Basso 6,Feltre,32032,46.016,11.9076
Ristorante Pizzeria LaPerla,Via Campagnola 3,Gemona del Friuli,33013,46.2816,13.1092
Il Gattaccio,Piazza S. Giorgio 15,Rosolina,45010,45.1201,12.3228
Ristorante Pizzeria Baciami Ancora,Via Milano 121,Viadana,46019,44.9372,10.4969
Pasticceria Maniscalco - Rainero,Viale Ilare Mongilardi 5,Valdilana,13835,45.6199,8.1586
La Locanda Di Vinadio,Via Roma 16,Cervasca,12010,44.3067,7.1742
Arbor,Piazza Grande 7,Oderzo,31046,45.7833,12.4935
La Mela Verde,Via Venezia 30,Vercurago,23808,45.8137,9.4214
Osteria al Bacaro,Via Browning 165,Asolo,31011,45.8013,11.9145
Pizzeria Luna Rossa-Carnia,Via Piave 62,Villa Santina,33029,46.4134,12.9131
Gelateria Toldo,Via Camillo Benso Conte di Cavour 41,Lecco,23900,45.8544,9.3912
La Cueva,Via Giovanni Lanza 84,Vicenza,36100,45.5462,11.5131
Ristorante Pizzeria Piccadilly,Piazza Ponci 1,Medesano,43048,44.7257,10.0884
Da Lauro,Via Calcada 57,Vittorio Veneto,31029,45.9992,12.2933
Ca' Solare,Via Provinciale 51,Riva del Po,44033,44.943,11.7617
Ristorante pizzeria Sunrise Bormio,Via Don Evaristo Peccedi 24,Bormio,23032,46.4655,10.3727
Pizzeria Amore,Viale delle Costellazioni 15,Venezia,30028,45.636,13.0604
DiNapoli Masters Pizzaioli,Via Alberto Boccardi 7,Trieste,34121,45.6486,13.766
Pasticceria Bonati,Via bolis 7,Mozzo,24030,45.7265,9.6097
Alfio Ristorante Pizzeria Bar,Via Giuseppe Mazzini 12,Dro,38074,45.9605,10.9138
Il Tiglio Ristorante Pizzeria,Piazza Guglielmo Marconi 3,Varallo,13019,45.8139,8.2588
Il Banco,Via Monte di Piet√† 5,Novi Ligure,15067,44.7585,8.7842
Ristorante La Lumira,Via Provinciale S. Pietro 9,Pieve di Cento,40066,44.7122,11.3127
Puro Malto,SS665 151,Langhirano,43013,44.6838,10.2887
Ristorante Pizzeria 4Strade,Via Parma 33,Asola,46041,45.2176,10.4208
Ristorante Pizzeria Rosso Peperino,Via cabianca 3,Breno,25043,45.9471,10.294
Pasticceria San Gaetano Da Mariano,Via Ghedina 3,Casier,31030,45.8279,11.8853
Japan House Vittorio Veneto,VIa G. Celante 126,Vittorio Veneto,31029,45.9755,12.3073
Ristorante Campiello,Viale Venezia 48,Casarsa della Delizia,33072,45.9568,12.8361
Ristorante Pizzeria Giardino,Via Carlo Antonio Pilati 16,Cles,38023,46.3648,11.0331
Pizzeria da Nin√≠,Via Cesare Battisti 5,Pontoglio,25037,45.5695,9.8529
Ristorante Pizzeria Il Castagno,Via I Maggio 5,Torre de' Busi,23806,45.779,9.4943
La Caveja,Via XXX Aprile 9,Belluno,32100,46.1387,12.2168
Panorama Al fil,Via Provinciale 25080,Mazzano,25080,45.7384,10.7302
Gelapajo,Via Vallera Sottana 82,Caraglio,12023,44.4023,7.4103
Ristorante Pizzeria Ae do Rode,Viale Santa Margherita 8,Caorle,30021,45.5978,12.882
Madama Vigna,Via Nazionale 41,Baldichieri d'Asti,14011,44.9033,8.0909
Pub - Pizzeria Biker's - Pub Alzano Lombardo,Via Guglielmo Marconi 7,Alzano Lombardo,24022,45.7379,9.721
Ristorante dell'Olmo,"Cabanette, Via Strada Acqui, 148",Alessandria,15122,44.8809,8.575
Trattoria Zamboni,Via S. Croce 73,Arcugnano,36057,45.4751,11.536
Maccalli Bread & Cakes,Via Spartaco 10,Caravaggio,24043,45.4952,9.6462
AmaLe Muggi√≤ - Pizzeria Contemporanea,Via Alfonso Casati 3,Monza,20835,45.5956,9.227
Atelier della Pizza,Viale Bistolfi 18,Casale Monferrato,15033,45.1343,8.4578
Gelateria Oasi,Via dei Fabbri 26,Milano,20123,45.459,9.1782
Sarchiapone pizzeria Torino,Via Claudio Luigi Berthollet 17,Torino,10125,45.0591,7.6813
Cocorico,Via Bafile 396,Jesolo,30016,45.5002,12.6292
Fabbrica Libera,Via Don L. Milani 28,Casatenovo,23880,45.6883,9.3167
Pizzeria ALEXANDER PIOSSASCO *****,Via Pinerolo 149,Piossasco,10045,44.9853,7.4599
Eisdiele,Piazza Franz Bonatti 3,Egna,39044,46.3145,11.2718
Pizzeria Ristorante Charlie,Via Giovanni XXIII 11,Roncade,31056,45.6265,12.3726
La sacra birra,Corso Moncenisio 18,Sant'Ambrogio di Torino,10057,45.0931,7.3777
La Smorfia Srl Nonantola,Via Roma 52,Nonantola,41015,44.678,11.0425
Trattoria San Basilio,Via S. Basilio 3,Ariano nel Polesine,45012,44.9453,12.1767
Ristorante Birreria I Templari,Via Crevada 8,Susegana,31058,45.8738,12.2424
La siciliana Caffetteria Pasticceria Trattoria di Ficarra,Via Gallarate 57,Gazzada Schianno,21045,45.7677,8.8133
Central Theater Caf√®,Via Peter Paul Rainer 17,San Candido,39038,46.7335,12.2793
Don Matt√© Mathi,Via Santa Lucia 92,Mathi,10075,45.2488,7.5424
La Bella Matil Detta Pizzeria con forni a legna & Forno Gluten Free,Via Trieste 102,Galliate,28066,45.4693,8.7038
Trattoria Al Galo,Via Cavour 9,Colognola ai Colli,37030,45.4251,11.1751
L'Osteria Di Camurana,Via Camurana 31,Medolla,41036,44.8627,11.0783
Restaurant Engelkeller,Largo Ballhaus 41,Egna,39044,46.3114,11.2689
Portobello Food & Drink,Str. Cisa 105,Porto Mantovano,46047,45.2066,10.7935
Pasticceria Aries Giorgio & C.,Via Luigi Roncari 53,Besozzo,21023,45.8445,8.6695
La Coccinella,Regione Roccaguercia 29,Bistagno,15012,44.6514,8.3625
Ristorante Pizzeria Al Parco,Via Wolfgang Amadeus Mozart 40,Oppeano,37050,45.3399,11.0701
Double B. Burgers,Via Noalese 99,Zero Branco,31059,45.5937,12.1484
Al Fortino Trattoria Pizzeria,Via Dante Alighieri 105,Monticello Conte Otto,36010,45.8607,11.46
Pizzeria Papier Ma√Øs,Via F. Baracca 26,Spresiano,31027,45.7582,12.2507
Tapas de Pescado,Via Gaetana Agnesi 2,Milano,20135,45.4504,9.201
Focaccia In Piazzetta,Piazzetta Nostra Signora del Suffragio 9 16036,Recco,16036,44.3647,9.1471
Albergo Ristorante al Caminetto,Via Rocca 7,Conselice,48017,44.5124,11.8282
Ristorante Giapponese Koi,V.le Mentana 8,Parma,43121,44.8,10.3383
Al Desco Pizzeria Gourmet,Strada Bressana Salice 30,Casei Gerola,27050,44.9525,9.0315
Zum goldenen L√∂wen,Via Centrale 32,Brunico,39031,46.7959,11.939
Birreria Pizzeria Piper,Via Fratelli Baccari 15,Lendinara,45026,45.0854,11.6011
Donna Titina,Via Principe Eugenio 15,Milano,20155,45.4894,9.1636
Le Sablon,Via Guido Reni 67,Padova,35134,45.4339,11.8902
Ristorante Sunshine,Via Vittorio Veneto 127,Verbania,28922,45.9298,8.5684
Gelateria Mister Ice,Via Caneva 14,Castellamonte,10081,45.3823,7.7088
Vivina restaurant beer-house,Via Maniago 48,Maniago,33085,46.1548,12.7333
Ai Due Delfini,Borgo Aquileia 26,Palmanova,33057,45.9033,13.3099
Volo Leggero,Via Corte Casalino 840,Oppeano,37050,45.2624,11.1933
Ristorante Pizzeria Cellini,Via dei Celti 2,Povoletto,33040,46.0849,13.37
Ristorante pizzeria Da Pia,Via Torino 222,Trofarello,10028,44.9796,7.7516
American Bar Gelateria Oasi Srl,Via Treviglio 3461,Fara Gera d'Adda,24045,45.5416,9.5557
"Pizzeria Trattoria da ""ICIO&PAOLA 1989""","Colceresa VI IT, Via S. Pietro, 6",Colceresa,36064,45.7244,11.5935
Walter's Food | Griglieria - Hamburgheria - Birreria,Via Nazionale 15,Cambiano,10020,44.9724,7.7634
La Civetta,Piazza Pietro Micca 4,Torre Pellice,10066,44.821,7.2284
Ristorante Pizzeria Rita,Via Provinciale 8,Maissana,19010,44.3538,9.5451
Dassie Gelato - Sant'Agostino,Via Sant'Agostino 42,Treviso,31100,45.6675,12.2505
Ristorante Pizzeria le Fucine,Via Leonardo Da Vinci 5,Rovereto,38068,45.8853,11.03
Ristorante Pizzeria Cafe' del Ricordo,Corso Giuseppe Mazzini 16,Bondeno,44012,44.8857,11.4151
Bar Pizzeria da Pedro,Vicolo Porto Vecchio 9,Malcesine,37018,45.7648,10.8074
Sacchio1970,Str. Farnesiana 47,Piacenza,29122,45.0387,9.7084
Brasserie al Mulino,Via Gobbe 60,Marostica,36063,45.7394,11.653
Pizzeria Rivasecca,Via dei Martiri 48,Crocetta del Montello,31035,45.8338,12.038
Ristorante Pinseria Le Forche,Via G. Di Vittorio 39,Quattro Castella,42020,44.635,10.5751
Ristorante Griglieria Pizzeria Il Glicine,Via Sant'Anna 12,Robecco sul Naviglio,20087,45.4424,8.8632
Passaparola,"Via Sottomarina, Lungomare Adriatico, 30",Chioggia,30015,45.2143,12.2948
Salvetti - 1885 - Forneria Pasticceria Caffetteria,Via Nazionale 83,Vezza d'Oglio,25059,46.24,10.3994
QR Unconventional Food,via Fogliascheda 50,Agugliaro,36020,45.3344,11.5632
Santa Lucia,Str. Montichiari 65,Ghedi,25016,45.4006,10.3145
Joker Caf√© Birreria Paninoteca,Via Montebello 11,Busto Arsizio,21052,45.613,8.8502
Tourl√® LaPizzeria e ilGrill Altavilla Vicentina,Via Olmo 7,Altavilla Vicentina,36077,45.5231,11.4883
Nuova Pizzeria e Ristorante Capri,Via Vincenzo Gioberti 31,Vercelli,13100,45.3263,8.4246
Ristorante Tavel,Via Perli 1,San Michele all'Adige,38010,46.1635,11.0029
Artigiana Fiume,Viale delle Repubblica 79,Porcia,33080,45.9321,12.7268
Panetteria Gasparini üçû,Via Thiene 74,Piovene Rocchette,36013,45.7464,11.4334
Ristorante Carosello,Via del Sasso 1,Pianoro,40065,44.3972,11.3348
Chalet Spolverino,Pr√† del Lago - Monte Spolverino 26,Dimaro Folgarida,38025,46.285,10.8374
Pizzeria Linus Rezzato,Via Giuseppe Garibaldi 50,Rezzato,25086,45.5092,10.3216
Trattoria Croce Bianca 2. M. C.C. Di Massolini Anna & C. Snc,Via G. Matteotti 30,Vestone,25078,45.7032,10.3874
Ristorante Casa Nardon,Via Guido Fiorini 15,Mezzolombardo,38017,46.2091,11.096
Sennerei Drei Zinnen,Pustertaler Stra√üe 3,Dobbiaco,39034,46.7297,12.2187
La Puppola Ristorante Toscano,Via Papa Giovanni XXIII 11,Moggio,23817,45.9308,9.4864
Sushi Kibo,Via Garilli Amato 10,Caorso,29012,45.0521,9.8787
Ristorante da Aldo vidigulfo,Piazza Italia 14,Vidigulfo,27018,45.29,9.2358
Ristorante Pizzeria Delfino Blu,Viale J.F. Kennedy 30,Grado,34073,45.6799,13.4039
Osteria Pozzodipinto,Via Pozzo Dipinto 44,Valvasone Arzene,33098,45.9892,12.8774
Ristorante Pizzeria Jolly,Via Nazionale 28,Castelrotto,39040,46.241,11.2081
La Gardenia Trattoria-Pizzeria,Via Porrettana Sud 52,Marzabotto,40043,44.3326,11.1876
Pizzeria Magia,Via Trento e Trieste 31,Asiago,36012,45.8738,11.5077
Ristorante Cinese Asia,Via Q. Sella 138,Busto Arsizio,21052,45.6303,8.8268
Pantagruel Pizza & Rist√≤,Via Giuseppe Boselli 26,Castelbelforte,46032,45.2164,10.8932
Risotteria Melotti Isola della Scala,Piazza Martiri della Libert√† 3,Isola della Scala,37063,45.2728,11.0063
Pasticceria Terraglio,Str. Terraglio 137,Preganziol,31022,45.6359,12.2405
Pizza Leggera Pavia,Via Alessandro Brambilla 70,Pavia,27100,45.2024,9.1494
Ca' della Brace,Via Olmo 166,Martellago,30030,45.5191,12.1778
Gaia Bistr√≤ Dongo,Piazza V. Matteri 3,Dongo,22014,46.1275,9.2823
Ristorante Dong,Via Russo 4,Bologna,40068,44.4719,11.4203
The Temple,Via X Giugno 98,Piacenza,29121,45.0562,9.6997
Hamburgeria Bellaria,Via Scotti da Vigoleno 40,Carpaneto Piacentino,29013,44.9153,9.7893
Avalon,Localita' Etral 8,Gressan,11020,45.7179,7.276
Pizzeria Ristorante Al Veliero,Via Marco Emilio Lepido 29,Parma,43123,44.7912,10.3615
Strike,Via A.Tabanelli 20,Imola,40026,44.3467,11.7156
Pizzeria da Rosario Ristorante Bar Locazione Turistica,Via Toschian 4,Cesiomaggiore,32030,46.0782,11.9572
Gelateria Costantin,Piazza Italia 8,Mandello del Lario,23826,45.9121,9.3176
UNA Sushi Restaurant,Via Bologna 98,San Giovanni in Persiceto,40017,44.6326,11.1923
La Razdora,Via XXV Aprile 2,Vigarano Mainarda,44049,44.8625,11.5118
Der Keller Pizzeria,Via Ragen di Sopra 13,Brunico,39031,46.795,11.9413
LA ROCCA farinata e vino,Vicolo del Castello 7,Sarezzano,15050,44.8497,8.8701
Al Gambero,Via Roma 11,Calvisano,25012,45.3492,10.343
Ristorante Pizzeria San Fermo,Via S. Fermo 30,Feltre,32032,46.011,11.9158
Ristorante Pizzeria Crotto Buzzi,Via Cantine 29,Cairate,21050,45.9081,8.8959
Gelateria TOLVE,Via Gramsci 91,Castel Maggiore,40013,44.573,11.3623
Antica Focacceria Fiorentina,Via Ca' Marcello 8,Venezia,30172,45.4814,12.2377
Dusci Via Grazzano,Via Grazzano 98,Udine,33100,46.0563,13.2309
Ristorante Osaka,Via Nazionale 73,Seriate,24068,45.6855,9.7311
Giulietta Vintage Pizza,Via Liguria 1,Mozzo,24030,45.7065,9.6054
Pizzeria L'Abbazia Saletto,Via Roma 2,Borgo Veneto,35046,45.2285,11.5286
Al Bivio degli Artisti,Via C√† Bembo 38,Martellago,30030,45.5275,12.1608
Pizzeria Il Piacere srl,Viale del Piave 53,Brescia,25123,45.5309,10.2406
RockCaf√® Modena,Viale Trento Trieste 76,Modena,41124,44.6399,10.9305
Rifugio Degli Artisti,Via Statale 365,Terre del Reno,44047,44.7722,11.3469
Bar Pizzeria Da Mario Snc Di De Rosa Armando & C.,Via Pordenone 81,Maniago,33085,46.1545,12.7086
Da Ezio | Ristorante in Collina,Via Roma 13,Teolo,35037,45.3499,11.6741
Pasticceria L'Artigiana Srl,Largo Annunziata 20,Villanova Mondov√¨,12089,44.3482,7.7725
La Lumaca Di Prato Barbieri,Localit√† Prato Barbieri 42,Bettola,29021,44.7399,9.6653
Hostaria Vite Rossa,Via Pietro Bembo 30,Venezia,30172,45.4849,12.2404
Caff√® Busetta,Via dei Martiri 1,Noventa Vicentina,36025,45.2907,11.5391
Pasticceria Gelateria New Style,Via Cesare Battisti 35026,Conselve,35026,45.2321,11.8736
Ristorante Pizzeria Lunaelaltro Marostica,Corso della Ceramica 33,Marostica,36063,45.7366,11.6608
Ristorante Pizzeria Cafe' Mania,Via Mozart Amedeo 10,Missaglia,23873,45.7034,9.3469
Gastronomia Yamamoto,Via Amedei 5,Milano,20123,45.46,9.1867
Sushi Tao Verona ( we are not all you can eat),Lungadige Bartolomeo Rubele 14,Verona,37121,45.4423,11.0007
Yeti ‚Ä¢ Pila,Frazione Pila 22,Gressan,11020,45.6887,7.3116
Crosta,Via Felice Bellotti 13,Milano,20129,45.4708,9.2092
Ristorante Lamm,Strada Digon 6,Castelrotto,39040,46.5735,11.6592
Home Stube,Via Adamello 16,Pinzolo,38086,46.2273,10.8259
Trattoria alla Contadina,Via S. Paolino 24,Povoletto,33040,46.0686,13.3937
Kaori Japanese Restaurant,Via Vittorio Emanuele Orlando 41,Varedo,20814,45.5968,9.1697
Ravioleria,Calle della Madonnetta 1465,Venezia,30125,45.4372,12.331
Civico Uno Food&Pizza,Via Domenico da Catalogna 1,Pavia,27100,45.1867,9.1593
il Birrificio di Como,Via Pasquale Paoli 3,Como,22100,45.7892,9.0826
Pariani Pasticceria e Gelateria (Busto Arsizio),Viale Luigi Cadorna 10,Busto Arsizio,21052,45.6102,8.8572
Gelateria Bandirali,Via Piacenza 93,Crema,26013,45.3514,9.6877
SushiTO,Via Cottolengo 2,Mappano,10079,45.1598,7.7095
Ciacco,Via Spadari 13,Milano,20123,45.4637,9.1868
Food truck Dal Vezza,Via Edmondo De Amicis 22070,Appiano Gentile,22070,45.7234,8.9859
Peter's Hamburgheria,Via S. Materno 9,Dorno,27020,45.1501,8.9592
Ristorante Pizzeria Le Vele,Viale Giosu√® Carducci 97,Comacchio,44029,44.6679,12.2438
Gabry Pizzeria & Ristorante,Via A. De Gasperi 11,Monteforte d'Alpone,37032,45.4194,11.2837
Il Gabbiano di Massone Roberto,Via G. Marconi 2,Godiasco Salice Terme,27052,44.9149,9.0266
Sabbia d'Oro Ristorante Pizzeria,SP235 27019,Villanterio,27019,45.2108,9.3549
Ristorante Pizzeria L' Arina del Sante-Pizza & Cucina- Peschiera d.G.,Via Martiri del Lavoro di Marcinelle 3,Peschiera del Garda,37019,45.4415,10.7054
Sherlock Holmes,Via Mercato 23,San Vito al Tagliamento,33078,45.9181,12.8584
Atmosphera,Piazza Treviso 1,Venezia,30028,45.6352,13.0473
Vecia Societ√†,Viale G. Mazzini 38,Arsiero,36011,45.8027,11.3518
Il Veliero Borgo Mantovano,Via Roma Nord 290,Borgo Mantovano,46036,45.0241,11.1232
Pizzeria Da Stecca,Via Scarantello 5,Torri di Quartesolo,36040,45.474,11.4511
HAMA SUSHI ristorante giapponese,Via S. Severo 1,Bardolino,37011,45.5499,10.7225
Ristorante Pizzeria Grattacielo,Via Daniele Maffeis 5,Gazzaniga,24025,45.7963,9.8347
Pizzeria Ristorante del Tosco,SS10 5,Pontecurone,15055,44.9476,8.9197
Terrazza a Mare,Lungomare Trieste 5,Lignano Sabbiadoro,33054,45.6883,13.1479
Hubenbauer,Schattengasse 12,Varna,39040,46.7378,11.6358
Bar Da Lucio,Via Umberto I' 5,Casei Gerola,27050,44.9631,9.0588
PAUSSA's Bakery - Cormons,Via Vino della Pace 34,Cormons,34071,45.9432,13.4607
Birrificio di Quero,Via Feltre 23,Quero Vas,32038,45.9282,11.9364
Ristorante Drago D'oro,Piazza Malfatti 12,Rovereto,38068,45.8879,11.0448
Ristorante Pizzeria Da Silvio,Via Pragrande 27,Agordo,32021,46.2748,12.0367
Pizzeria al Porto di Arco,Via Linfano 52,Arco,38062,45.8792,10.8733
RISTORANTE/PIZZERIA IL SOGNO,Via Armando Diaz 22,San Fermo della Battaglia,22042,45.8088,9.0517
Ristorante Molinetto,Via Sinistra Canale Molinetto 139,Ravenna,48122,44.4358,12.2705
Ristorante Pizzeria I Tre Archi,Via Emile Chanoux 82,Saint-Vincent,11027,45.751,7.6476
Castl√® - Carni alla brace,Localit√† Castellero 12,Mont√†,12046,44.8274,7.9365
La Bussola,Via Valle 16,Celle Ligure,17015,44.3458,8.5497
Ristorante Pizzeria Bucaneve,SS 42 38020,Rabbi,38020,46.3204,10.8359
Il Nuovo Villaggio della Fonte,Str. Grangia 15,Cavallermaggiore,12030,44.674,7.5637
Stella PUB,Via S. Quirico 4,Suello,23867,45.8193,9.3093
Basil & Co.,Contr√† Pozzetto 13,Vicenza,36100,45.5447,11.5488
Pizzeria Restaurant Barracuda,Via Andrea Doria 2,Castel San Giovanni,29015,45.0531,9.4429
Sushi Maison 2 Crema,Via della Fiera 9,Crema,26013,45.3527,9.6886
Ristorante Orientale,Via Piave 174,Venezia,30171,45.4845,12.2329
Gelateria Gemma since 1970,Via Borgo Palazzo 90,Bergamo,24125,45.6953,9.6866
Gran Gelato,Viale Vittorio Veneto 25,Monza,20900,45.5792,9.2523
Gelateria Puro & Bio Lodi,Via Acquedotto 3,Lodi,26900,45.3115,9.4981
Ristorante Pizzeria La Rustica,Via Beltempo 1,Luino,21016,45.9967,8.7525
Fumagalli Pastries,Via Enzo Ferrari 2,Barzan√≤,23891,45.7326,9.3145
Bar Ristorante Pizzeria La Bussola,Piazza San Marco 11,Toscolano-Maderno,25088,45.6359,10.599
City Wok,Via Emilia Parmense 23,Piacenza,29122,45.039,9.719
Gelateria al Rond√≤,Via Asti 36,San Damiano d'Asti,14015,44.8387,8.0715
Birraria da Bauce,Via Enrico Mattei 62,Domegge di Cadore,32040,46.4301,12.2326
Trenti pub,Via Europa 6,Pove del Grappa,36020,45.7948,11.7233
Bar Pasticceria Mastai,Viale Consoli Chiavennaschi 3,Chiavenna,23022,46.3194,9.3987
Buffalo Grill da Pino,Via Marosticana 313,Dueville,36031,45.6458,11.5763
La Bottega del Gelato,Via Roen 15,Bolzano,39100,46.4977,11.3369
Ristorante Pizzeria da Mimmo,Via Edmondo De Amicis 5,Bondeno,44012,44.886,11.4186
Wulfenia da LIVIO,Passo Pramollo 8,Pontebba,33016,46.5571,13.2785
La Siciliana,Via Teodosio 85,Milano,20131,45.4887,9.2296
Come 'Na Volta Hamburgeria - Scandiano,Via Palmiro Togliatti 1,Scandiano,42019,44.5945,10.7006
Ristorante Corte San Carlo (Giropizza a Saliceto),Via Giuseppe Galluzzi 56,Cortemaggiore,29016,44.9978,9.9089
Bar pizzeria Cinzia,5,Idro,25074,45.7354,10.4685
NOI - Mercato delle Erbe,Via S. Gervasio 3,Bologna,40121,44.4961,11.338
Ristorante Pizzeria da Franco,Viale della Vittoria 16,San Pellegrino Terme,24016,45.8412,9.6648
Pizzeria Don Pedro,Via Cesare Battisti 138,Comano Terme,38077,46.0364,10.8758
Sioneri,Regione Sioneri 12040,Sommariva Perno,12040,44.7385,7.9994
Ristorante Pizzeria Leon D'Oro,Via Dante Alighieri 2,Iseo,25049,45.6595,10.0473
L'Altro Carlo R√® Dal Gianlu,Via Tiro a Segno 36,Zevio,37059,45.3727,11.1223
Caff√® Veneziano,Piazza Arturo Toscanini 5,Pavullo nel Frignano,41026,44.3313,10.8314
Pizzeria Ristorante al Fiume,Piazza Italia 17,Arco,38062,45.9205,10.8905
Alfieri,Via Asilo Alfieri 1,Guarene,12050,44.7669,8.0689
Sushi 2.0,Via Guido Miglioli 9,Carpi,41012,44.7943,10.8749
La piccola Conchiglia,Viale Zonta Stelvio 2,Suzzara,46029,44.9924,10.7469
Ristorante Pizzeria Zodiaco,Via del Belcredi 19,Casei Gerola,27050,45.0283,9.1594
Chakramen & U Sushi1,Via Giorgione 15,San Don√† di Piave,30027,45.6306,12.5858
The Gammon Pub,Via Pionieri dell'Aria 104,Porcia,33080,46.0294,12.6198
Osteria La Vecchia Corte,Via XXV Aprile 6,Castelgerundo,26844,45.1898,9.7434
Trattoria Fossatone,Via S. Vitale Ovest 5536,Medicina,40059,44.4954,11.5681
Ristorante Pizzeria Dedomenici,Via Roma 43,Casei Gerola,27050,44.8521,9.0972
Ristorante Sushi Sakura Vittuone,Via Milano 22,Cornaredo,20010,45.4838,8.9543
Dal√¨ - Ristorante Pizzeria Lounge Bar,Corso Goffredo Mameli 32,Verbania,28921,45.9357,8.5754
Gelateria Florian,Via Benedetto Croce 6,Avigliana,10051,45.0829,7.4019
Gelateria Da Bepi,Via Madonna della Salute 85,Padova,35129,45.4281,11.914
Istanbul Kebab e Pizza,Via Sant'Ambrogio 10,Monfalcone,34074,45.8094,13.5333
Padellone Tranci&Piatti Pizza al Trancio-Carne alla Griglia-Hamburger,Via Europa 41,Cornaredo,20010,45.5447,9.0009
Block House,Piazza Vittoria 14,Camposampiero,35012,45.5708,11.9324
Ristorante Alla Piazza Koya,Via Antonio Emmanueli 50,Piacenza,29121,45.0475,9.6744
IM KULT,Via delle Palade 19,Parcines,39020,46.6551,11.1471
Pizzeria Ristorante du Tunnel,Via Circonvallazione 80,Courmayeur,11013,45.7905,6.9718
Da Salvatore,Viale Centrale 2,Lignano Sabbiadoro,33054,45.6864,13.1362
Gelateria Pilier central - Pasticceria,Rue du Mont Blanc 83,Morgex,11017,45.7556,7.0393
Al Grill - San Marco,S. Marco 1659,Venezia,30124,45.4339,12.335
Pabo's Pizza Rovato,Via Passo Gavia Snc 25038,Rovato,25038,45.5603,10.0163
Flame Codroipo,Via Circonvallazione Ovest 12,Codroipo,33033,45.957,12.973
Pizzeria Trattoria da Giorgio,Via L. Benati 106,Roverbella,46048,45.2686,10.7736
Caffarel S.P.A. Negozio Aziendale,Via Caduti per la Libert√† 8,Luserna San Giovanni,10062,44.8171,7.2448
Cambius,Via Madonna del Carmine 12,Cambiasca,28814,45.9589,8.5464
Carpe Diem,Via Angelo Bianciotto 47,Villar Perosa,10069,44.9168,7.2484
Petronilla,Via Milano 10,Albavilla,22031,45.7925,9.1979
Osteria della Pizza,Via Callalta Capoluogo 52,Motta di Livenza,31045,45.7823,12.6496
Trattoria Sofia,Via Baldo Giuseppe 12,Ronco all'Adige,37055,45.3394,11.2419
Ristorante Pizzeria Le Quattro Rose,Via Perossaro 780,San Felice sul Panaro,41038,44.8318,11.1286
Sorbole!,Via Torino 396,Brandizzo,10032,45.1741,7.8317
Pizzeria S. Lucia,Piazza Papa Giovanni XXIII 11,Mozzo,24030,45.6918,9.5689
Gelateria La Carapi√±a,Via Umberto I 25,Gravedona ed Uniti,22015,46.1472,9.3057
Ristorante Pizzeria AL SOLE,Localit√† Brenta 2,Caldonazzo,38052,46.0057,11.2727
Ristorante Pizzeria Giro',Via Fontana 54,Colognola ai Colli,37030,45.4255,11.137
Kuuk Pizza,Corso Monferrato 1,Alessandria,15121,44.9166,8.6102
Gelateria Jelassic Park,Via Emilia 167,Bologna,40068,44.4705,11.4094
Gastronomia Da Marco,Via Udine 2,Bovolone,37051,45.2565,11.1357
Le Vieux Bourg,Rue abb√© Fran√ßois Martinet 1,Etroubles,11014,45.8213,7.2289
Ayaki Sushi Ristorante,Piazza Alessandro Bianconcini 2,Imola,40026,44.3524,11.7104
Arcadia Pizzeria Steak House,Via Comunale 1,Vobarno,25079,45.6504,10.4746
Gel√† naturale,Via Guglielmo Marconi 8,San Pietro in Cariano,37029,45.5144,10.8938
Pizzeria La Dispensa,Via Trento 39,Albiate,20847,45.656,9.2548
Accademia della Birra,Via P. Mascagni 14,Azzate,21022,45.7846,8.7905
Binario Zero,Piazza S. Paolo 4,Biella,13900,45.5577,8.0667
Vanilla Bakery,Via S. Siro 2,Milano,20149,45.4692,9.1547
Pizzeria Gennar√¨,Viale Monza 8,Milano,20127,45.488,9.2175
La Locanda dei Sapori,Via XXV Aprile 3,Borghetto Lodigiano,26812,45.2144,9.501
La Locanda,"la Vite, Via Santa Maria, 16",Olginate,23854,45.7921,9.4124
Hokkaido Ristorante Giapponese,Via Milano 18,Cocquio-Trevisago,21034,45.8594,8.6871
Pizzeria ristorante Il Cortile dei Frati,Corso Giuseppe Garibaldi 192,Gattinara,13045,45.6137,8.3558
RaviolPub,Localita' Mulino Nuovo 15060,Stazzano,15060,44.7244,8.9275
Vecchia Pergine,Via Maier Contrada Taliana 69,Pergine Valsugana,38057,46.0584,11.2402
Tre Vele Ristorante Pizzeria Pinseria,Via Milano 34,Samarate,21017,45.6258,8.7889
White Bar Busche - Lattebusche SCA,Via Nazionale 57,Cesiomaggiore,32030,46.0406,11.9833
Il Pizzorante,Via Luigi Pirandello 34,Lonate Pozzolo,21015,45.5824,8.7158
Pizzeria Da Umberto locanda e cucina,Via Leonardo da Vinci 12,Malo,36034,45.6534,11.4185
Bar Piadineria LA FARFALLA,Via Localit√† Lovara 62,Codigoro,44021,44.8761,12.1976
Ai Quattro Camini,SS45bis 16,Flero,25020,45.4637,10.2061
G - Gelateria Corso Telesio,Corso Bernardino Telesio 92,Torino,10146,45.0817,7.6288
Al Cantuccio,Piazza Libert√† 24,Leffe,24026,45.8007,9.8854
Pizzeria Martina,Via S. Giuseppe 17,Valle Aurina,39030,46.6909,12.366
Ristorante Pizzeria Villa la pausa,Via S. Giacomo 42,Bagolino,25072,45.8087,10.5088
Takashi Genova,Via Giuseppe Casaregis 9,Genova,16145,44.3954,8.9492
La Stalla Del Nonno,Piaz Veie 28,Campitello di Fassa,38031,46.4775,11.7406
Capanigra Birra e Cucina | Pizzeria,Via Dante Alighieri 12,Lavagna,16033,44.3096,9.3466
Ristorante pizzeria La Palud da Rocco e Francesco Courmayeur,Strada la Palud 17,Courmayeur,11013,45.8178,6.9644
Area Gusto 1987,Via Circonvallazione Nord 54,Valsamoggia,40053,44.5076,11.0838
Taj Mahal,Via Calatafimi 6,Brescia,25122,45.542,10.2121
Moby Dick,Via Michelangelo Buonarroti 30,Tricesimo,33019,46.1447,13.2204
Pizzeria CHARLOT s.a.s. di Zappalorto Ezio & C,Via Conca Nuova 87,Trevignano,31040,45.788,12.1745
Ristorante Shangrila,Via Circonvallazione 4,Prato Sesia,28077,45.6455,8.3736
Al Vecchio Kalkerin Ristorante Pizzeria Affittacamere,Via Statale 1963,Pescate,23855,45.8205,9.3949
Pub Rosa,Via Turri 11,Valbrenta,36029,45.8493,11.6697
CIVICO18,Strada Asti-Alba 18,Isola d'Asti,14057,44.8244,8.1659
Greek Tavern Olimpia,Via Lavagna 7,Torino,10126,45.0337,7.6687
Turonda | pizza ¬∑ bistrot ¬∑ drinks,Strada Johann Baptist Purger 5,Ortisei,39046,46.5748,11.6705
Pasta Madre,Via Postumia Castellana 34,Quinto di Treviso,31055,45.6684,12.1813
Japan House San Vendemiano,Via Resistenza 2,San Vendemiano,31020,45.8811,12.3252
Antica Pizzeria Trattoria da Gigi,Via Ca' Coatto 1,Negrar di Valpolicella,37024,45.5152,10.9471
Pizzeria da Albert,Via Giuseppe Verdi 15,Trento,38122,46.0666,11.1172
Pizzeria Locanda Antica Pieve,Via Nazionale 55,Filattiera,54023,44.3315,9.9299
Ryo Sushi Fusion Restaurant,Corso G. Matteotti 332,Serravalle Sesia,13037,45.6767,8.3197
Al Cantun 311,Strada Statale Goitese 311,Goito,46044,45.2542,10.6719
La casetta del Gad,Via Riccardo Ghiotti 19,Oulx,10056,45.0421,6.8466
Pizzeria El Gringo,Via Nazionale 13,Calalzo di Cadore,32042,46.4405,12.3803
Pizzeria Sobborghi,Via Carlo Rota 5,Monza,20900,45.5816,9.2862
Mario Ice Cream Shop,Via Santa Geltrude 48,Bolzano,39100,46.4869,11.3484
Trattoria Campocervaro,Via XXX Ottobre 73,Codogn√®,31013,45.8662,12.4208
Civico 02 Cafe',Via Giuseppe Mazzini 2,Annicco,26021,45.2435,9.8778
Pizzeria Da Daniele,Via Emilio Lepido 37,Parma,43123,44.7906,10.3626
Meggima am See - Bar Restaurant Pizzeria,Hauptort 4 39030,Valle Aurina,39030,46.8908,11.87
"Restaurant, Pizzeria, Bar Putzer",Strada Val Pusteria 9,Castelrotto,39040,46.783,11.6687
Bakery Tossini 2 Of M.Tossini & C. (S.N.C.),C.so Italia 42,Rapallo,16035,44.3502,9.2307
Pizzeria Il Chiostro,Via Mantova 157,Cerea,37053,45.1854,11.1962
Pizzeria Marechiaro Garlasco,Via Pavia 33,Garlasco,27026,45.194,8.9307
Ginza Padova,Via Venezia 61,Padova,35129,45.4109,11.9068
Hanami Fusion Restaurant,SS33 del Sempione 4,Cornaredo,20010,45.5442,9.0033
Mani in Pasta - Pizzeria,Via Carlo Pisacane 47,Milano,20129,45.473,9.211
Ristorante Pizzeria Italia,Piazzale Italia 5,Carpignano Sesia,28064,45.5326,8.4162
Ristorante Pizzeria Red Fox,Via Centrale 2,Grosotto,23034,46.2877,10.2627
Panificio Cappelli,Via Ripagrande 4,Ferrara,44121,44.8337,11.6173
Ristorante Pizzeria Minelli,Via Ponte Nuovo 21,Pieve di Cento,40066,44.7141,11.2989
Cooperative outlet of the Pennar Cheese Factory,Via Ceresara 18,Asiago,36012,45.8658,11.5011
Dago Red,Via Provinciale 20,Dolzago,23843,45.7709,9.3384
"Pizzeria Ristorante ""La Pergola""",Via Tassinari 30,Cento,44042,44.7658,11.2735
Gelateria Artigianale Mont Blanc di Terenzani Claudio & c. snc,Via Adriatica 170,Campoformido,33030,46.0297,13.2159
Ristorante Casanostra,Via G. Matteotti 38,Stezzano,24040,45.5768,9.5376
Ristorante - Pizzeria Celeste,Via Benacense 18,Rovereto,38068,45.8809,11.037
La Bula,Str. Meisules 287,Selva di Val Gardena,39048,46.5522,11.7636
Restaurant Pizzeria Lampl,Via Dr. Heinrich Flora 4,Malles Venosta,39024,46.6915,10.5441
Da Gino Trattoria Pizzeria,Via Pordelio 3,Cavallino-Treporti,30013,45.462,12.4725
Namaste Ristorante Indiano,P.za San Rocco 8,Como,22100,45.7986,9.087
Pizzeria Trattoria La Capanna Nus,Frazione Rovarey 2,Gressan,11020,45.7456,7.4902
Trattoria La Gassa,Via S. Al√≤ 6,San Stino di Livenza,30029,45.6838,12.743
Bar Ristorante Pizzeria 2 Barche,Via G. Matteotti 366,San Possidonio,41039,44.8591,10.9657
Birrificio Citabiunda,Via Moniprandi 1,Neive,12052,44.7118,8.1349
Mauriz Keller - Restaurant - Pizzeria,Strada Rezia 32,Ortisei,39046,46.5742,11.6715
Don Stuart Pub,Via dei Platani 228,Piadena Drizzona,26034,45.1332,10.3524
Ristorante Pizzeria Gelateria Polin,Via Roma 66,Paese,31038,45.6762,12.161
Peperino e Milano,Viale Francesco Crispi 2,Milano,20154,45.4808,9.1859
Albergo Ristorante Pizzeria La Madonnina,Via Milano 80,Orzinuovi,25034,45.4007,9.8987
Ru Yi,Stradone Porta Palio 39,Verona,37122,45.4373,10.985
Ristorante Pizzeria Bella Napoli E Albergo,Via Brescia 1,Chiari,25032,45.5405,9.9396
Steakhouse LA TAMBRA - Restaurant & Pizzeria,Via Dursan 13,Santa Cristina Valgardena,39047,46.558,11.7239
Speedy,Via Monsignor Checchi 20,Bedonia,43041,44.5034,9.6281
LAQUOLINA,Via Pier de Coubertin 4,Cavenago di Brianza,20873,45.5849,9.4066
Pizzeria Sotto zero,Via Meynet 14,Valtournenche,11021,45.9342,7.6293
Birreria Mariolo's Pub,Via Pal√π 5,Caldogno,36030,45.7293,11.5
Solo Pizza,Via Quarda Superiore 21,Savona,17100,44.3088,8.484
Pizzeria da Gimo,Via C√≤ Panico 35,Piove di Sacco,35028,45.2963,12.04
Pizzeria Sud Riva del Garda,"cc Bluegarden, Via Padova, 5",Riva del Garda,38066,45.883,10.8538
Croce Bianca,P.za dei Caduti 29,Fiorenzuola d'Arda,29017,44.9273,9.914
Ristorante Pizzeria alle Rose - Tutto rinnovato!,Via 4 Novembre 1,Casale di Scodosia,35040,45.1001,11.7365
Pizzeria Adamello,"16, Via Zette",Sal√≤,25087,45.5896,10.5219
Osteria al Bacco San Vito al Tagliamento,Via Mercato 14,San Vito al Tagliamento,33078,45.9182,12.858
Baccanale,Piazza della Libert√† 21,Battaglia Terme,35041,45.2904,11.7836
Pizzeria Regin√®,Viale Lombardia 21,Saronno,21047,45.6149,9.044
Dusci Gangi,Via Tricesimo 46,Udine,33100,46.0838,13.2329
8 Sapori - Ravioleria Artigianale,Via Po 28,Torino,10123,45.0673,7.6913
Blanche Pizzeria,Via Montanaro Disma 11,Carasco,16042,44.3515,9.3433
Sushi House,Via Monza 20,Gorgonzola,20064,45.5351,9.3923
Ca'Romea Ristorante Pizzeria,Strada Statale 309 Romea 41,Mira,30034,45.4277,12.182
Grano Cucina - Ristorante Pizzeria Bar Panificati,Via Sambuy 100,Santena,10026,44.9565,7.7868
L'uva e Il grano,Via Gattico 8,Torino,10149,45.0985,7.6648
Pizza Smile Chioggia,Lungomare Adriatico 28,Chioggia,30015,45.2154,12.2946
Antica Costese,Via Vittorio Veneto 87,Castelverde,26022,45.1735,9.969
Sapori di Casa Max,Via S. Vitale Est 4544,Medicina,40059,44.4617,11.6952
BIRRERIA Artigianale Via Priula di San Pellegrino Terme,Via de Medici 2,San Pellegrino Terme,24016,45.8331,9.6655
Vecchia Rocka Pub,Via Roma 3,Frassinello Monferrato,15035,45.0331,8.3865
Trattoria Albergo Pizzeria Veranda Barabasca,SP462R 201,Fiorenzuola d'Arda,29017,44.9588,9.9092
Workshop-Pizza in pala alla romana,Via Calata Pietro Sbarbaro 17100,Savona,17100,44.307,8.4853
L'Angolo Nascosto,Via Piave 51,Piombino Dese,35017,45.6299,12.0218
Don Peppe,Viale delle Nazioni 1,Verona,37135,45.4066,10.9765
Pizzeria Ristorante Primavera,Via Roma 46,Casier,31030,45.6359,12.2479
IPPOCOCCOLO,Piazza Garibaldi 7,Treviglio,24047,45.5211,9.5921
Bar The Brothers,Viale Olimpia 1,Grezzana,37023,45.5231,11.0173
Birreria Lemon,Via Spilimbergo 220,Fagagna,33034,46.0967,13.0867
Al Pescatore | Bar ~ Ristorante ~ Pizzeria ~ Residence,Via delle Cappelle 11,Caldes,38022,46.3825,10.9721
La Nuova Perla,Via Giuseppe Garibaldi 1645,Venezia,30122,45.432,12.3508
Ristorante Pizzeria La Toscanella,Via Ferdinando Santi 25,Dozza,40060,44.3793,11.6486
Gusto Divino,Piazza Camillo Benso Conte di Cavour 21,Saluzzo,12037,44.6459,7.4931
Barcelleria Chiavari,Via Parma 332,Chiavari,16043,44.3353,9.3472
KIYOMI SUZZARA,Viale Virgilio 70,Suzzara,46029,44.9944,10.7333
Cascina Vecchia Pizzeria Ristorante,14042 Case Vecchie,Calamandrana,14042,44.7442,8.3262
Pizza Jazz,Piazza Libert√† 21,Azzano Decimo,33082,45.8807,12.7132
Vicentini 1966,Piazza Alcide de Gasperi 2,Breganze,36042,45.6862,11.6056
HAIKKY Ristorante Novara,Corso Vercelli 118,Novara,28100,45.4299,8.5843
Mama Eat - Gluten-free Restaurant & Pizzeria,Via Giulio Cesare Procaccini 32,Milano,20154,45.4835,9.1701
Gelodoc,Corso Martiri della Libert√† 69,Ciri√®,10073,45.2305,7.603
Chihuahua Tacos,P.za Ventiquattro Maggio 7,Milano,20136,45.4523,9.1815
BAR GELATERIA I PORTICI,Via G. Verdi 27,Samarate,21017,45.6317,8.7852
Ristorante Mexicali - Villasanta,Via Leonardo da Vinci 31,Monza,20852,45.6154,9.3109
"BAYRAM pizzeria, kebap, grill e burger- COSSATO-BI",Via Martiri della Libert√† 1,Cossato,13836,45.5689,8.1836
Pizzeria Da Gaetano,Via Albert Einstein 18,Montecchio Emilia,42027,44.6971,10.4695
Amaranto,Via Mura di San Vitale 10,Ravenna,48121,44.4201,12.1946
19 al Paradiso,Via Luneo 37,Mirano,30035,45.5104,12.1228
Vespucci Ispra,"Amerigo Vespucci, Via Lungolago, 78",Ispra,21027,45.814,8.6074
Panorama - Lievito Madre Ristorante Pizzeria Bar,Viale Venezia 19,Roncegno Terme,38050,46.0043,11.2589
La Corte dei Ciliegi,Via Alfonso Lamarmora 1,Longare,36023,45.4822,11.6144
Piadina Ciliegia,Viale delle Querce 4,Comacchio,44029,44.6656,12.2436
Ramon,S.da Ciadenac 5,San Giovanni di Fassa,38036,46.4413,11.6946
Ristorante Yamakawa,Via Sempione 183,Legnano,20025,45.6,8.918
No Format,Via dei Solteri 39,Trento,38121,46.0883,11.1212
Gelateria Gianni,Via Monte Grappa 11,Bologna,40121,44.4958,11.3402
Gelateria Arlecchina,Via Nazionale 56,Castelli Calepio,24060,45.6866,9.799
Birrificio Curtis Canava,Strada Roncheise 15,Banchette,10010,45.3753,7.7349
Tokyo,Via Giovanni E Ottavio Laviny 24,Vercelli,13100,45.3255,8.4214
TOMO SUSHI 7,Via dei Pioppi 54,Vicenza,36100,45.5297,11.5005
Dal Zovo Cantina & Bistrot - Corso Cavour,Corso Cavour 52,Verona,37121,45.44,10.9892
"Green - Ristorante, Pizzeria",Via Domenico Cimarosa 4,Savona,17100,44.3,8.477
La Rosa Blu Ristorante Pizzeria,Via Mons. Marello 33,Cisterna d'Asti,14010,44.8139,8.1077
Ristorante Pizzeria Il Cigno - Primaluna (lc),Via Provinciale 19,Primaluna,23819,45.9812,9.4408
Pub Number One,Piazzetta Alpini d'Italia 1,Calvisano,25012,45.35,10.3443
Ristorante Uzumaki,Via della Rotta 3,Finale Emilia,41034,44.8321,11.2909
CRAK Brewery & Taproom,Via Pontarola 9,Campodarsego,35011,45.4835,11.9023
Ristorante Pizzeria La Concordia di Maccagno,Viale Garibaldi 58,Maccagno con Pino e Veddasca,21061,46.0376,8.741
Gelateria Il Golosone,Via Enrico Butti 61,Cairate,21050,45.9039,8.906
Ristorante Pizzeria da Aldo,Piazza del Popolo 26,Arona,28041,45.7635,8.5586
Chalet _ Rocca dei Folli | Pizzeria - Ristorante,Localit√† Rocca Dei Folli Rocca Dei 29024,Ferriere,29024,44.6361,9.4912
Ristorante pizzeria L'Ammiraglio,Via Schiavonesca Nuova 24,Trevignano,31040,45.7777,12.1109
Kartell Bistrot Panoramic,Punta Helbronner 11013,Courmayeur,11013,45.7908,6.9709
Pizzeria Sapori del Sud,Prato Santa Caterina 11,Bassano del Grappa,36061,45.7703,11.7356
Ristorante Yuxi,Via Arrigo Boito 74,Monfalcone,34074,45.8026,13.5459
LE COLONNE GELATI & CREPES FAMOSE¬Æ,Corso di Porta Ticinese 75,Milano,20123,45.4565,9.1809
Papilla Milano,P.za Ventiquattro Maggio 5,Milano,20122,45.453,9.181
Koi Asian Restaurant,Piazza Internazionale 2,Jesolo,30016,45.4984,12.6173
Kimuya Japanese Restaurant,Via Giuseppe Garibaldi 156,Garbagnate Milanese,20024,45.5643,9.0771
Restaurant Pizzeria Kutscherhof,Via Vescovado 6,Bressanone,39042,46.7154,11.6559
Ristorante Al Barracuda,Via Circonvallazione 41,Zanica,24050,45.6527,9.723
Restaurant Bar Pizzeria Christl,Via Kerla 1,Valle Aurina,39030,46.7616,12.0287
PinUp Pub,Via Sile 6,Trevignano,31040,45.7766,12.1053
Il Rifugio Dei Briganti,Via Mezzana Sant'Antonio 33,Sabbioneta,46018,45.0123,10.5075
Trattoria Argentina Refrontolo,Via della Vittoria 35,San Vendemiano,31020,45.9214,12.2076
Pizzeria Posillipo,Via Cuneo 21,Borgo San Dalmazzo,12011,44.3408,7.4976
Gelateria Isma,Via Cavassico Inferiore 193,Borgo Valbelluna,32026,46.0812,12.1472
Giada | Hotel Ristorante Pizzeria,Via Nazionale 8,Torri di Quartesolo,36040,45.5028,11.6402
Pedrocchi Caf√©,Via VIII Febbraio 15,Padova,35121,45.4077,11.8772
Titti - Pizza da asporto e pizzeria,Piazza Alcide Degasperi 16,Borgo Valsugana,38051,46.0532,11.4572
Nuova Pasticceria Lady,Via Giuseppe Garibaldi 37,San Secondo Parmense,43017,44.9198,10.2294
Uno Caff√© Olistico,Via Guglielmo Oberdan 27,Bologna,40126,44.4974,11.3462
Yalla Amigo,Piazza Cittadella 14,Verona,37122,45.4364,10.9937
La Bottega del Kebab,Via Torre Vanga 18,Trento,38122,46.07,11.1196
ICE CREAM,Piazza Giovanni XXIII 25,Crema,26013,45.361,9.6829
La Prua,"Stradone, Via Alcide de Gasperi, 2",Sant'Ambrogio di Valpolicella,37015,45.5071,10.8394
Pizzeria Al Gambero di Palmanova,Via Scamozzi 2,Palmanova,33057,45.9067,13.3088
Wen,Piazza della Motta 8,Varese,21100,45.8161,8.8252
Pasticceria Elisir,Viale Roma 121,Ponte nelle Alpi,32014,46.1791,12.2838
Dolomiti Quattro Archi,3,Camponogara,30010,45.3598,12.0934
Pizzeria Fornella - Corvara,Strada R√ºtort 1,Corvara in Badia,39033,46.5516,11.8728
Special Movida,Viale Marco Biagi 31037,Loria,31037,45.7013,11.8226
Restaurant Pizzeria Europa,Via Roma 31,Brennero,39041,46.935,11.4464
jenny doppia O,Via Trieste 8,Azzano Decimo,33082,45.8803,12.7165
"Pasticceria DAF Trofarello Pasticceria e Gelateria Artigianale, Caffetteria, Aperitivo.",Via Leonardo da Vinci 2,Trofarello,10028,44.9739,7.7597
Sushi-si,Via XX Settembre 41,Genova,16121,44.4071,8.9351
Miu,Viale Col di Lana 1,Treviglio,24047,45.5286,9.5917
Londrina,Via S. Giovanni Bosco 1,San Francesco al Campo,10070,45.2248,7.6582
La Pecora Nera - Pizzeria,Via Tresivio 2,Montagna in Valtellina,23020,46.1651,9.9438
La Loggia Del Ce,Piazza Castello 1,Guidizzolo,46040,45.3514,10.6007
Open Baladin Cuneo,Piazza Foro Boario 12100,Cuneo,12100,44.3924,7.5459
Gelateria Cicci,Via Milano 55,San Felice sul Panaro,41038,44.8405,11.1444
Mythos Cucina Greca,Piazzetta S. Carlo 3,Genova,16126,44.4152,8.9255
Ristorante Pizzeria Il Faro,Via Montecchio Nord 30,Colico,23823,46.1375,9.3719
Mollica,Piazza Madama Cristina 2,Torino,10125,45.0589,7.6833
Ali Bab√† e i 40 Panini,Corso Sempione 4,Borgomanero,28021,45.7023,8.4595
Sushi Stella,Via Franceschino da Baxilio 15,Tortona,15057,44.9037,8.8692
tiPinso,Via Felice Casati 13,Milano,20124,45.4782,9.2047
Chiosco Bar Isola Verde,Piazza Melozzo da Forl√¨ 3,Milano,20148,45.4682,9.1311
City Istanbul Kebap-pizza-grill,Via Pier Candido Decembrio 23,Vigevano,27029,45.3178,8.861
La Sgarbatella snc.,Via Roma 15,San Benigno Canavese,10080,45.3412,7.6929
Antica Gelateria Sartori,Piazza Luigi di Savoia 20125,Milano,20124,45.4862,9.2067
Bacarando Corte dell'Orso,Sestiere di S. Marco 5495,Venezia,30124,45.438,12.3374
Mad One,Via Beduschi 45,Casalmaggiore,26041,44.9818,10.4237
Ristorante Pizzeria Luna Rossa,Via Stazione 475,Castagnaro,37043,45.1195,11.4048
Ristorante Pizzeria La Fattoria di brenzio(GRAVEDONA ed uniti),Via Brenzio 4,Gravedona ed Uniti,22015,46.1472,9.2853
Pasticceria Artigianale Gelato Caff√®,Via di Bregaa 5,Cugliate-Fabiasco,21030,45.9472,8.7674
Roma Pizza & Restaurant,Corso Giuseppe Mazzini 3,Mortara,27036,45.2516,8.7326
Noodles&Sushi,Via Trento 21,Parma,43122,44.8105,10.3306
Ristorante Nuova Pesa,Via G. Garibaldi 80,Minerbio,40061,44.6262,11.4919
Cirilli,Via Calepina 47,Trento,38122,46.0672,11.1249
All'Ancora,Piazza Toni Merlin 7,Borgo Valbelluna,32026,46.0741,12.1329
The Temple Pub,Via Gozzano G. 2,Castelnovo di Sotto,42024,44.8016,10.5688
Da Leo Pizzeria,Viale Padova 1,Chioggia,30015,45.2143,12.2929
Pizzeria La Tavernetta,Via Monte Grappa 35,Tombolo,35019,45.6534,11.8265
Rifugio Fodom,Localita' Prati Del Pordoi 32020,Limana,32020,46.4868,11.8246
Ai Prati,Via Ovada 54,Stazzano,15060,44.6671,8.6642
Pizzeria La Lampara,Via A. Valazza 72,Fontaneto d'Agogna,28010,45.6684,8.4223
Thai Fusion Torino,Via S. Massimo 2,Torino,10123,45.0671,7.6912
Chick a Boom Brasserie,"Pasiano, Viale del Mobile, 5",Pasiano di Pordenone,33087,45.8674,12.6239
Pizzeria Gelateria Cristallo,Piazza Giacomo Matteotti 69,Bardolino,37011,45.5467,10.7197
Frank Baracca | Pizzeria e Ristorante di pesce,Via Roma 35,Trevignano,31040,45.8245,12.2114
Ristorante Pizzeria Maso Sveseri,Localita' Sveseri 22,Sover,38048,46.2068,11.3237
Pizzeria La Noghera,Via Dante Alighieri 13,Feltre,32032,46.0188,11.8915
Skay ristorante pizzeria,Via Rodolfo Martini 30,Domegge di Cadore,32040,46.6048,12.4776
L'OTTANTAVENTI BURGERBAR (L'80/20),Via Nazionale 8,Buttrio,33042,46.0131,13.3215
Cappello - Ristorante Pizzeria,Via Santa Teresa 7,Rosolina,45010,45.0685,12.2444
Mondelli Stable,Via del Cormor 33,Campoformido,33030,45.9114,13.1584
Carozzi Formaggi,Via Provinciale 14,Barzio,23816,45.948,9.453
Gyros kebab Halal,Vicolo Tognon 3,Peschiera del Garda,37019,45.4396,10.6887
Pizzeria Hans,Hauptstra√üe 54,Curon Venosta,39027,46.8475,10.5052
Pizzeria Geppo dal 1981,Via Giovanni Battista Morgagni 37,Milano,20129,45.48,9.2136
Pizza Republic,Via Milano 295,Vigliano Biellese,13856,45.5621,8.1134
Fiabe di Gelato,Via Camillo Benso Cavour 1,Busto Arsizio,21052,45.6114,8.8509
GIOMAKI DIGITAL SUSHI EXPERIENCE,Via IV Novembre 53,Cassano Magnago,21012,45.6737,8.8263
La Teglia,Viale Giuseppe Verdi 45,Merate,23807,45.6971,9.4095
Sushi K√≤bbo,Viale Vittorio Veneto 32,Milano,20124,45.4778,9.1987
Meet Sushi Restaurant,Via Spluga 54,Cernusco Lombardone,23870,45.6909,9.4007
Ristorante Pizzeria Scanabecco,Loc.palazzina Calvenzano 74 40038,Vergato,40038,44.3136,11.1592
Tokyo Restaurant,Via Caimi 32,Sondrio,23100,46.1695,9.8693
Pizzeria Metropolitain,Via Paoletti 8,Follina,31051,45.9507,12.1202
Il Giardino Del Roero,Via Sommariva Perno 2,Monticello d'Alba,12066,44.7185,7.9399
Ej Ristorante Giapponese,Corso Moncenisio 73,Gassino Torinese,10090,45.0841,7.4668
Lindt Factory Shop,L.go Edoardo Bulgheroni 1,Induno Olona,21056,45.8431,8.8248
Ai Dossi Ristorante Albergo,Via 8 Settembre 28,Argenta,44011,44.5876,11.9252
Pizzeria Ristorante da Miceon,Via Talponera 32,Villorba,31050,45.7142,12.1927
Osteria Pizzeria La Calchera,Via Pieve Vecchia 23,Nave,25075,45.592,10.3104
L'Arcimboldo Ristorante con Pizza Centro Storico Giardino e Terrazza a Lago,Via Vittorio Emanuele 71,Sirmione,25019,45.4946,10.6058
Pizzeria Il Cinghei,Via Resegone 5,Camparada,20857,45.6552,9.3293
Brembati Pastry - Bergamo,Passaggio Parco del Borgo 1,Villa d'Alm√®,24018,45.7471,9.6166
Ciampinoi Self Service & Pizzeria,Streda La 39048,Selva di Val Gardena,39048,46.5387,11.7534
PizzArtist - DLF,V. Stalingrado 12,Bologna,40128,44.5069,11.3523
Al Ciliegino Ristorante Pizzeria,Via Nazionale 10,San Giovanni al Natisone,33048,45.9754,13.3918
Locanda del Lago 2.0,Via Provinciale 50,Viverone,13886,45.4233,8.0514
PLEASE - Pizza & Restaurant,Via G. Marconi 54,Lesmo,20855,45.6452,9.306
La Forchetta d'Oro - Ristorante Pizzeria,Via Dante Alighieri 40,Mozzo,24030,45.7086,9.4841
Pasticceria Caff√® del Sole,Viale dei Mille 23,Comacchio,44029,44.6798,12.241
Restaurant Pizzeria Bar Sportbistro,Bahnhofstrasse 27,Lasa,39023,46.6245,10.6483
Ristorante Pizzeria San Giorgio,Viale S. Giorgio 34,Aviano,33081,46.0735,12.5819
Lostaria Pizza Cibo e Birra,Via Romea 19,Porto Viro,45014,45.0242,12.2339
Kung Fu Bao,Viale Monza 37,Milano,20127,45.4899,9.2176
Ristorante TAIYO 6,Via Monte Nero 133,Garbagnate Milanese,20024,45.5731,9.0597
Gelateria Tuttigusti +1,Piazza S. Martino 10,Cardano al Campo,21010,45.6126,8.7576
Le Nove Scodelle,Viale Monza 4,Milano,20127,45.4875,9.2173
Veganda,"Via Cavazzana, Prato della Valle, 1",Padova,35123,45.397,11.8793
Pizzeria Trattoria Capello,Via S. Francesco 35,Cervignano del Friuli,33052,45.8209,13.3424
Bar Trattoria Locanda Il Sagittario,V. Federico Fellini 11,Sant'Ilario d'Enza,42049,44.7621,10.4566
Gelateria Dolcelatte,Via Roma 7,Monza,20862,45.6265,9.3218
Alpino,Via Roma 66,Tarvisio,33018,46.5056,13.5739
Stella Polare,Via Dante Alighieri 8,Piasco,12026,44.5644,7.4564
Enobraceria il Gallo Nero,Via Dante Alighieri 73,Taglio di Po,45019,45.0069,12.2048
Cremeria Visconti,Piazza Conciliazione 15011,Acqui Terme,15011,44.6752,8.472
Club Moritzino - Piz la Ila,Piz La Ila 154 39036,Badia,39036,46.5651,11.9065
Trattoria Menotti,Via Giulia Piccoli 16,Manzano,33044,45.9733,13.3557
Asian Restaurant Offanengo | Sushi & Grill,Via S. Lorenzo 22,Offanengo,26010,45.3751,9.7279
A Casa di Pulcinella,Corso Carlo e Nello Rosselli 82,Torino,10129,45.0529,7.6579
Pizzeria Trattoria La Lumiere,Via Ponzeio 5,Marano di Valpolicella,37020,45.5763,10.9491
Hans Pizzeria Restaurant,Via Pusteria 9,Dobbiaco,39034,46.729,12.2223
Ristorante Pizzeria Wunderbar,Piazzale degli Eroi 1,Asiago,36012,45.8747,11.5142
Cremeria D'Azeglio,Via d'Azeglio 75,Bologna,40123,44.4869,11.3395
Ristorante Pizzeria Re di Quadri,Via Abensberg 2,Lonigo,36045,45.374,11.3906
Red Pub Scandiano,Via Munari 7,Scandiano,42019,44.5974,10.6675
Bonelli Burgers,Via Nazario Sauro 31,Bologna,40121,44.4988,11.34
Pizzeria e Spaghetteria Scoiattolo,Via Emilio Colpi 233,Folgaria,38064,45.9148,11.1744
Pizzeria - Gasthof Stern,Silberstrasse 1,Prato allo Stelvio,39026,46.6173,10.5948
Pizzacoteca di Brera,Via Brera 29,Milano,20121,45.4728,9.1873
Pizzeria Autentiko (Appiano Gentile - Como),"Via Piave, snc, 22070",Appiano Gentile,22070,45.7313,8.9866
Pinsa Per Te,Via XX Settembre 60,Avigliana,10051,45.0828,7.3948
Q35 Ristorantino,Piazza Armandi 10,Fusignano,48034,44.4671,11.9605
Bar La Cambusa,Piazza Martiri della Libert√† 5,Varenna,23829,46.0141,9.2831
Ristorante Pizzeria Il Vecchio Mulino,Via Glere 12,Corte Franca,25040,45.9334,10.296
Ristorante Pizzeria Cascina Del Conte,Via Motta 20,Albaredo d'Adige,37041,45.2973,11.2756
Ristorante Pizzeria La Salera,Via Pizzegoda 9,Cavalese,38033,46.2918,11.4625
Dogali Ristorante Pizzeria,Via Torino 151,Giaveno,10094,45.0412,7.3777
Bar Restaurant Le Palme,Via Canova 39,Olgiate Molgora,23887,45.7281,9.402
Darsenale - Bizantina Brewpub,Viale Giovanna Bosi Maramotti 48122,Ravenna,48122,44.4228,12.2156
Gassl Br√§u,Gerbergasse 18,Chiusa,39043,46.6398,11.5646
Ristorante alla Centrale,Via Cornarotta 61,Martellago,30030,45.5571,12.1145
Osteria Pub Sirius,Via Lame 2,Monte San Pietro,40050,44.6665,11.3057
El Caracol,Via Pineta 3,Mulazzo,54026,44.3141,9.8893
Trattoria Genzianella,Localit√† Capoluogo 8,Gressan,11020,45.7284,7.3562
Ristorante Pizzeria Centrale - La Spinata,P.za Vittorio Veneto 11,Gandino,24024,45.8114,9.9032
Ristorante Pizzeria Bar San Marco,Piazza Pio X 89,Ceggia,30022,45.6836,12.6353
Stella d'Oro Trieste,Via S. Cilino 46,Trieste,34128,45.6554,13.8071
Dubliners Irish Pub,Via S. Siro 24,Piacenza,29121,45.0493,9.6917
ITAL INDIA Restaurant Halal Foods,Fondamenta de le Capuzine 3102,Venezia,30121,45.4462,12.3261
Ristorante Lipen,Via Conte Paolo Taverna 114,Triuggio,20844,45.6596,9.2902
Pasticceria Acquario - Catering,Viale V. Veneto 70,Sant'Omobono Terme,24038,45.8102,9.537
La Buona Tavola,Via Peron 16,Sedico,32036,46.1606,12.1291
Ristorante pizzeria Maria Luigia Luxury,Via Pedemontana 2,Traversetolo,43029,44.6422,10.3806
Gelateria i Giardini di Marzo,Piazza Dante Alighieri 28,Varazze,17019,44.3595,8.5781
Sushisound Restaurant,Via Alessandro Volta 8,Torino,10121,45.0647,7.6783
Ristorante Pizzeria La Contea,Via S. Antonio 21,Tione di Trento,38079,46.0309,10.7333
Dirig√¨,Via Andrea Bafile 232,Jesolo,30016,45.5031,12.6368
U√ÇO PIZZA,Via Claudio Luigi Berthollet 17,Torino,10125,45.0592,7.6812
Ristorante Pizzeria Andel Haus,Viale Trento 23,San Michele all'Adige,38010,46.172,11.0083
La Buca dei Diavoli,Piazza Bruno Lunardi 3,Noceto,43015,44.8047,10.1762
Ristorante Coreano Bada - ÌïúÏãùÎãπ Î∞îÎã§,Via Sertorio Orsato 3,Venezia,30175,45.4641,12.2117
Ristorate Pizzeria Bella Napoli,Via XX Settembre 1,Susa,10059,45.1358,7.0476
Bierstube Alleghe,Piazzale Stadio Del Ghiaccio 6,Alleghe,32022,46.4059,12.0228
Trattoria Da Ivana & Secondo,Via Manazzons 62,Pinzano al Tagliamento,33094,46.2085,12.9327
IL Pianeta 2000,Via Circonvallazione 29,Villafalletto,12020,44.4912,7.5423
Cruncheria by Renato Bosco - Verona,Via della Costa 5,Verona,37121,45.4432,10.9977
Gelateria Spini,Piazza Paolo Airoldi 3,Robbiate,23899,45.6934,9.4417
La Rocca,Via Roma 84,Roncade,31056,45.6296,12.3742
La Riviera,Via dei Finelli 6,Cambiano,10020,45.0072,7.8894
Pizzeria I Partenopei Brescia,Via Vittorio Emanuele II 39,Brescia,25122,45.5345,10.2174
Vecchia Trattoria Monte Adone,Via Castellazzo 4,Monzuno,40036,44.3401,11.3027
Trattoria Pizzeria Al Lupo,Via Moglia 102,Reggiolo,42046,44.9162,10.8548
BuonSushi Oriental Italian Restaurant,Via Volpinazza 1,Viggi√π,21059,45.8506,8.9092
TRE Officina delGusto,Str. per Asti 14019,Villanova d'Asti,14019,44.9386,7.9451
Ladybug Bar,Via Provinciale 23,Corte Franca,25040,45.9855,10.3326
Ristorante Bistrot 55,Piazza Erminio Ferretto 55,Venezia,30174,45.4935,12.2418
Alla Fucina da Bepo,Via Praderoni 24,Porcia,33080,45.9298,12.7458
Ristorante Il Girasole,Via Baldizza 35,Trevignano,31040,45.7239,12.5915
La Coccinella - Ristorante e Pizzeria,Via Forcella Giroldi 5,Pontevico,25026,45.2709,10.0923
Bar Nela,Via G. Matteotti 11,Uggiate-Trevano,22029,45.8227,8.9586
Osteria 59,Via Guglielmo Marconi 7,Borgocarbonara,46021,45.0366,11.2264
Pizzeria al Molin,Piazza dei Martiri 13,Alano di Piave,32031,45.9083,11.909
Alle Arcate,Via Stradona 43,Santa Maria di Sala,30036,45.5211,12.0172
Ristorante Il Manuale 2,Via Trento 63,Volpiano,10088,45.1941,7.7752
Ristorante Pizzeria Bar La Ruota,Rue Extrepieraz 100,Brusson,11022,45.7808,7.7005
Il Bagai,Via Serbelloni 4,Gorgonzola,20064,45.5314,9.4079
Trattoria Il Diavoletto,Via Fondovalle 2950,Marano sul Panaro,41054,44.4275,10.9242
Ristorante Pizzeria al Capriccio,V. della Libert√† 40,Gropello Cairoli,27027,45.1769,8.992
La Pizzoteca di Davide Medori,Via Giuseppe Verdi 7,Fossano,12045,44.5479,7.7177
Sumishi,Via Lombardia 19,Monselice,35043,45.2146,11.7547
Ristorante Au Caruggiu,Via Ferdinando Isola 12,Albissola Marina,17012,44.3277,8.5037
Pizzeria Restaurant Mausefalle,Via Wiesenhof 64,Campo Tures,39032,46.9168,11.9575
Calinferno pizzeria ristorante a San Fior,Via Zopp√® 46,San Vendemiano,31020,45.9009,12.3711
Moya Restaurant Japanese,Via Lodovico Il Moro 11,Milano,20143,45.4471,9.154
Mezza Libbra,Corso Vittorio Emanuele II 58,Pordenone,33170,45.9545,12.6599
Crema di Gelato,Corso Cavour 27,Garlasco,27026,45.1964,8.92
Pizzeria Ciro Cascella 3.0 Milano,Via Emilio Morosini 5,Milano,20135,45.4615,9.2115
Al Tranvai - Pizzeria Trattoria,Regione Cittadella 6,Altavilla Monferrato,15041,44.9948,8.3887
Lido 84,Corso Giuseppe Zanardelli 196,Gardone Riviera,25083,45.6252,10.5756
Ristorante Olimpia,Cascina Olimpia 69,San Salvatore Monferrato,15046,44.9889,8.5421
Cos√¨ Com‚Äô√®,Via Cimarosa Domenico 3,Varese,21100,45.8176,8.8281
La Schiavenza,Str. Chiusure 7,Banchette,10010,45.4345,8.024
MiraLago Pizza & Cucina Angera,Viale della Repubblica 14,Angera,21021,45.7709,8.5709
Fiordifragola Ristorante Pizzeria,"Localit√† Erta, Frazione S. Giuseppe, 7",Sommariva Perno,12040,44.7295,7.9242
Special | Burger Restaurant,Via Tombetta 39,Verona,37135,45.4191,10.9889
Sushi Ono Brescia,Borgo Pietro Wuhrer 137,Brescia,25123,45.527,10.2603
Ristorante Pizzeria Lido 2.0,Via Mazzini 50,Cairate,21050,45.9061,8.8961
Ristorante Pizzeria Maffei,Via Maffei 7,Riva del Garda,38066,45.8851,10.8408
Don Chisciotte,Via Confine 1,Galliera,40015,44.7639,11.3663
Pivazzano Pizzeria Ristorante,Via Pivazzano 2,Varese Ligure,19028,44.3406,9.5902
Blancio pub pizza grill,Str. Fonte Blancio 50,Luserna San Giovanni,10062,44.8154,7.2244
Il Mulino Ristorante Pizzeria,Via Riva Po 9,Piossasco,10045,44.9863,7.4642
Kamelot,Via Montecollero 1,Castelleone,26012,45.27,9.7949
Ristorante Pizzeria La Fenice,Via Dante Alighieri 14,Serina,24017,45.8733,9.7311
Ristorante & Pizzeria al Capriolo Tovel,Via Tovel 150,Ville d'Anaunia,38019,46.2944,10.9744
Route 66 Pub & Grill,Via Ugo Foscolo 60,Jesolo,30016,45.4926,12.6089
La Fabbrica del Gelato,Piazza 11 Febbraio 15,Tremezzina,22016,45.9729,9.1963
Il Gelataio Valdagno,Piazza Roma 5,Valdagno,36078,45.6443,11.2997
Pizzeria Ermes 2.0,Via G. Marconi 36,Piazzola sul Brenta,35016,45.5172,11.8051
Mucca Argentina | Ristorante Argentino e Albergo,V. Vandelli 4,Castelnuovo Rangone,41051,44.5782,10.9086
Al Masaniello,Via Grazzano 95,Udine,33100,46.0553,13.2299
Cafe Lintner,via del Paese 3,Renon,39054,46.5377,11.4648
Pizzeria Restaurant L Ciamin,Str. Meisules 64,Selva di Val Gardena,39048,46.5567,11.7502
Ristorante FUJI SUSHI,Via Tavoni 1006,Savignano sul Panaro,41056,44.4737,11.0105
Ristorante Pizzeria Amici Miei,Strada Regionale 229 5,Fontaneto d'Agogna,28010,45.6452,8.4907
Le Papillon - Wood oven - Hamburger Gourmet,Borgata Chianavasso 4 10063,Perosa Argentina,10063,44.9521,7.1935
Gelateria Gallonetto,Salizada S. Lio 5727,Venezia,30122,45.4372,12.3393
Pizzeria La Pieve,Via Guglielmo Marconi 4,Capo di Ponte,25044,46.0302,10.3393
Pasticceria Il Quadrifoglio,SS 467 26,Scandiano,42019,44.5987,10.6963
Pizzeria La Talpa Miola,Via della Cr√≥s 7,Baselga di Pin√®,38042,46.1272,11.2496
La Pinseria 1,Via Giuseppe Barbaroux 4,Torino,10122,45.071,7.6837
Big Bar,Via Badetto 17,Corte Franca,25040,45.9977,10.3381
Da Vittorino Bistrot,Via Postumia Ovest 163,San Biagio di Callalta,31048,45.6736,12.3332
Ristorante Trattoria alla Cappa d'Oro,Via Pisana 2,Stanghella,35048,45.1746,11.756
Haru,Via Papa Giovanni XXIII 45,Oggiono,23848,45.7886,9.3489
Oriental Restaurant,Via Quintino Sella 17,Quaregna Cerreto,13854,45.5642,8.158
Caprizza Pizzeria e Friggitoria,Piazza Sant'Anna 24125,Bergamo,24125,45.6968,9.6829
Ristorante Pizzeria 45,Via Antonio Gramsci 45,Domodossola,28845,46.1169,8.2952
Gazebo Pizzeria Artigianale,Via Primo Maggio 5,Lungavilla,27053,45.0419,9.0809
Osaka - Ristorante Fusion,Via Emilia Est 138,Parma,43123,44.7956,10.3492
A Casa Mia,Piazza Vittorio Emanuele III 19,Mareno di Piave,31010,45.8452,12.3554
Pizzeria Ristorante Gaon,Localit√† Gaon 41,Caprino Veronese,37013,45.614,10.7973
Doppiozero Food Lab - Modena,Via Bartolomeo Paganelli 36,Modena,41122,44.6588,10.9203
La Contea di Montale,V. Vandelli 100,Castelnuovo Rangone,41051,44.5661,10.9044
Ristorante Pizzeria - I Sapori di Casa Mia,Viale Vicenza 10,Lonigo,36045,45.3932,11.3916
Peperosa,Via Piave 21,Mornago,21020,45.7904,8.7534
Ristorante Pizzeria Valceno,Via Provinciale 136,Varano de' Melegari,43040,44.6826,9.9093
Le Cinque Stelle,Corso Italia 74,Vercelli,13100,45.3291,8.426
Mezzaluna,Via Novara 54,Robbio,27038,45.2911,8.5895
SanGiorgio Le Colline,Via Lodi 6,San Colombano al Lambro,20078,45.1873,9.4919
Gelateria Consuelo,Via Dossolo 27,Gavardo,25085,45.5874,10.444
Gelateria Golosandia Snc,Corso Pietro Rolandi 46,Quarona,13017,45.762,8.2688
La Curcuma Ristorante Indiano,Via Aldo Moro 1,Fossalta di Portogruaro,30025,45.7785,12.9178
Ristorante Pizzeria Leon D'oro Riva,Via Fiume 28,Riva del Garda,38066,45.8857,10.8393
Better Sushi,Via L. da Vinci 2,Zanica,24050,45.5997,9.8406
Trattoria Pizzeria Manzoni,Via Alessandro Manzoni 46,Luino,21016,46.0024,8.745
Il Barone Rosso,Via G. Matteotti 301,Medicina,40059,44.4796,11.633
Bar Centro Fondo Aisone - Aisa S.c.,Via del Ponte 1,Cervasca,12010,44.3076,7.2218
Taverna Greca,Via Monginevro 29,Torino,10138,45.065,7.6509
Olo-Olo Ravioleria,Via Pietro Borsieri 41,Milano,20159,45.4897,9.1889
Pizzeria Il Ritorno,Via Vittorio Veneto 121,Lazzate,20824,45.6666,9.0951
Ristorante Pizzeria Il Braciere,Via Prospero Rizzini 38,Cazzago San Martino,25046,45.5769,10.0226
Ristorante e Pizza L' Imbuto,Via 27 e 28 Maggio 12,Cannobio,28822,46.0609,8.7005
Ristorante Pizzeria Pellicano,Corso Roma 97,Trecate,28069,45.4357,8.7482
King,S.S. Romea Vecchia 21,Ariano nel Polesine,45012,44.9364,12.2273
Mair Fast Food,Via Palermo 22,Bolzano,39100,46.4921,11.3324
La Zagara @ Exenel,Via Roma 26,Traversetolo,43029,44.644,10.3814
Slurp,Via Giuseppe Garibaldi 4,Ferrara,44121,44.8363,11.6184
Ristorante Pizzeria Exotic,Via Giuseppe Verdi 1,Mazzano,25080,45.5657,10.5465
Gelateria Gelatami Costa Volpino,Via Nazionale 267,Costa Volpino,24062,45.8304,10.1024
Bar Gelateria Valentino,Via Milano 10,Grosio,23033,46.2959,10.2718
PIZZERIA MAGGI 1953 Ristorante e Pizzeria,Via Montirone 32,Sant'Agata Bolognese,40019,44.6567,11.1129
Gelateria Leffese di Coter Paolo e Mutti Veronica,Via Roma 10,Leffe,24026,45.8025,9.8857
Restaurant Pizzeria Wiesenheim,Str. Riva di Sotto 48,Appiano sulla strada del vino,39057,46.489,11.2614
Pizzeria Du De Cope,Galleria Pellicciai 10,Verona,37121,45.4419,10.9948
Pizzeria Basilico di Rey Bruno,Via Todeschino 62,Sirmione,25019,45.4611,10.607
La Lanterna Galgagnano,SP16 26832,Cervignano d'Adda,26832,45.3489,9.4431
Pizzeria Bar Italia,"Via Friuli, Coccau, 87",Tarvisio,33018,46.5345,13.6387
La Caliera Ristorante Pizzeria,Via Lamen 39,Feltre,32032,46.0581,11.8888
Ristorante Pizzeria Al Porto/Centrale,Piazza Goethe 18,Nago-Torbole,38069,45.8694,10.8765
Al Parco da Gigi,Str. La Rizza 180,Verona,37062,45.3718,10.9429
DON PEPPINO 'A PIZZA- RISTORANTE,Via Padana Superiore 74,Mazzano,25080,45.5011,10.3473
Pizzeria trattoria Zio Pasquale e company,Via Caduti dell'Arma 3,Montecchio Emilia,42027,44.7083,10.4521
Napoleon,Via Leonardo Da Vinci 13,Santa Maria di Sala,30036,45.5065,12.0221
Pizzeria Antico Grano,Piazza Centrale 9,San Vito al Tagliamento,33078,45.9248,12.8419
Birreria Robin Hood,"Castello di, Via G. Pagliani, 2",Scandiano,42019,44.6195,10.723
Pizzeria Tempele,Via Prato alla Drava 1,San Candido,39038,46.7398,12.3679
Sisten Irish Pub,Via Andrea Costa 11,Novellara,42017,44.8457,10.7276
Gelateria L'oasi,Viale Italia 30,Castelli Calepio,24060,45.6679,9.9371
Ristorante Pizzeria Scugnizzi,Via Livorno 3,Curtatone,46010,45.1338,10.7193
Ristorante Pizzeria Papillo,Via Valcanale 6,Tarvisio,33018,46.5033,13.5094
Ristorante La Pianca,Via Paschero 13,San Francesco al Campo,10070,45.2537,7.5108
Corte Fusina Pizza Cucina e Griglia,Via Fusina 2,Grezzana,37023,45.5158,11.0159
Ristorante Giapponese Osen,Via S. Giacomo della Vittoria 54,Alessandria,15121,44.9111,8.6144
Pizzeria Pomodoro Vezzano di Vallelaghi,Via Roma 154,Vallelaghi,38096,46.0767,10.9975
Ristorante Pizzeria l'oro di Napoli,Via E.Ferrario 11,Gallarate,21013,45.6529,8.7906
Hamb√π,Lungolario Cesare Battisti 17,Lecco,23900,45.8568,9.3855
Ristorante Vac √® Press Magenta,Piazza Carlo Fontana 3,Magenta,20013,45.465,8.8853
Ristorante al Cavalluccio Duino,Duino 61,Duino Aurisina,34011,45.7737,13.5992
Ristorante Pizzeria Parlap√†,Piazza Carlo Emanuele 7,Vicoforte,12080,44.3635,7.8643
Il Covo del Ribelle,Via Roncalli A. 99,Ros√†,36027,45.7225,11.7429
Pizzeria Agana,Via Agana 25,Cesiomaggiore,32030,45.9944,11.7837
Santner's Pizzeria Restaurant,Via Sciliar 39,Castelrotto,39040,46.5403,11.5636
Lido' ristorante pizzeria SPIAGGIA,Frazione la Remise 31,Sarre,11010,45.724,7.2755
Al Settimo - Pub | Ristorante | Pizzeria,Piazza Alfredo Avanzini 14,Collecchio,43044,44.7521,10.2162
Camping Comelico Pizzeria Alla Baita,Localit√† Mas 68,Santo Stefano di Cadore,32045,46.5612,12.5709
Pizzeria Ristorante Locanda Dorem√¨,Vicolo Ottone Calderari 4,Santorso,36014,45.7317,11.3824
Pizza e Churrasco di Papillo Gianfranco,Piazza Vittorio Veneto 6,Mongardino,14040,44.8303,8.3303
Trattoria Valtellina,Via Pilasco 2,Ardenno,23011,46.1598,9.6384
Pizzeria Il Pinguino (dal 1978),Via Osteno 30,Porlezza,22018,46.029,9.1294
Ristorante Pizzeria Esperia,Via Zorutti 43,Latisana,33053,45.7799,13
Pasticceria Melograno Cisano,Via Butto di Sopra 5,Cisano Bergamasco,24034,45.7435,9.4738
Japs! De Gasperi,Corso Alcide De Gasperi 8,Torino,10126,45.0584,7.6627
Hamb√π Hamburgeria e Pinsa Romana a Varese,Via Vetera 5,Varese,21100,45.8215,8.8267
Greek Gyros e More,Piazza Michele Cappelli 20135,Milano,20135,45.4583,9.2169
Cornetti Night,Via delle Orfane 28,Torino,10122,45.0762,7.6799
Ristorante Pizzeria Il Pescatore 4,Via Balbo 22,Casale Monferrato,15033,45.1358,8.4502
Mr. Dick,Corso di Porta Ticinese 83,Milano,20123,45.456,9.1808
Locanda Costa dei Vigneti,Via Montale Celli 2,Sarezzano,15050,44.8174,8.9275
Zena Zuena,Via Cesarea 78,Genova,16121,44.4032,8.9421
Taverna Coppapan & Pizzeria Le Dahu,Frazione Villaret 68,La Thuile,11016,45.7095,6.9497
Borgo Di Dentro Pizzeria con cucina,Lungostura Oddini 3,Ovada,15076,44.641,8.6485
Lindt Chocolate Shop Franciacorta,Piazza Cascina Moie 12,Rodengo Saiano,25050,45.5775,10.1203
Ristorante Pizzeria Corte Catenaccio,Strada Francesca Est 109,Guidizzolo,46040,45.1892,10.6561
La Dolce Idea,Piazza S. Marco 15,Lendinara,45026,45.0833,11.6006
Pizzeria Restaurant Pub ALPEN,Via Bolzano 29,Lana,39011,46.611,11.1656
Gelateria Wind,Piazza Valussi 4,Madruzzo,38076,46.0468,10.9526
Ca' Don√† da Vittorio - Ristorante Pizzeria,Via C√† Don√† 1163,Occhiobello,45030,45.1308,11.8977
Muu Sushi - Porta Romana,V.le Sabotino 24,Milano,20135,45.4509,9.2014
Ristorante Pizzeria Belvedere Tirano,Piazza Della Basilica 57,Tirano,23037,46.2181,10.1562
Astra 2,SS45 78,Gossolengo,29020,44.9964,9.6662
Bottega 14,Via Baccarini 19,Campagnola Emilia,42012,44.8401,10.7592
Gemma Pizzeria - Verona Centro,Piazzetta Pescheria 11,Verona,37121,45.443,11.0001
Ok Sushi Restaurant,Via Francesco Crispi 13,Varese,21100,45.823,8.818
Ristorante Moon Sushi,Via Lecco 26,Sirtori,23896,45.7493,9.3336
Ristorante Pizzeria Al Duomo,Via Guido Fiorini 1,Mezzolombardo,38017,46.2092,11.0942
Bar Gelateria Flora Downtown,Viale Dante Alighieri 38,Riva del Garda,38066,45.8865,10.8425
Locanda del Gatto Gordo,Via Camillo Cavour 40,Trento,38122,46.0678,11.1207
Dokdo,Via Friuli Venezia Giulia 2,Martellago,30030,45.4515,12.0659
Osteria Santa Lucia,Via Santa Lucia 10,Castel d'Aiano,40034,44.3072,11.0305
L'Antiga Taverna,via Salago 24,Bedizzole,25081,45.4954,10.4128
Dai Fradei,Via Madonna 266,Bovolone,37051,45.267,11.1055
Val Form,Via S. Sebastiano 8,Cavallermaggiore,12030,44.6288,7.3749
Da Nettuno Ristorante Pizzeria,"Localita Ca, Vicolo Ara, 17",Aquileia,33051,45.7571,13.3592
Ristorante Pizzeria al Mul√¨,Via Monte Grappa 2,Borno,25042,45.9488,10.2066
Birreria Eldorado,Via Ermengarda 82,Leno,25024,45.3657,10.2081
1000 Gourmet Venezia,C. Specchieri 475,Venezia,30124,45.4358,12.3389
BEERGARDEN,Via Sorte 9,Mozzo,24030,45.7299,9.5741
Restaurant - Pizzeria Aquaforum Latsch,Via Mercato 48,Laces,39021,46.6108,10.8583
Gelateria San Gottardo,Corso Roma 116,Borgomanero,28021,45.6965,8.4639
"Arhena + Bowling, Pizzeria & Snackeria",Via Villastorta 31,Portogruaro,30026,45.782,12.8516
Officina del Gelato,Via Santa Maria 122,Parabiago,20015,45.553,8.954
Willy's Burger - Hamburgher a Tema serie tv,Viale Abruzzi 25,Milano,20129,45.4776,9.2169
Niv√† Gelato,P.za Vittorio Veneto 8,Torino,10123,45.0654,7.6935
Ristorante Zen - Sushi Fusion Orientale,Via Manzoni 48,Sesto Calende,21018,45.7239,8.6488
Il Vizietto Di Cortina,Corso Italia 53,Cortina d'Ampezzo,32043,46.5368,12.1377
Ristorante Pizzeria Al Pioppeto,Via Montegrappa 121,Martellago,30030,45.5431,12.1121
Caf√® Del Pess,Piazza Giuseppe Garibaldi 7,Menaggio,22017,46.0198,9.2391
Ristorante Al Solito Posto,Via S. Caterina 30,Varazze,17019,44.3599,8.5807
Ristorante Da Leone,Vicolo Don B. Ferrari 29,Vertova,24029,45.8062,9.8498
Ristorante Pizzeria L'Ontano,Via Montecchio Nord 27,Colico,23823,46.1422,9.3743
Birrificio Bradipongo Srl,Via Pin delle Portelle 16,Colle Umberto,31014,45.955,12.3631
Fogg,Viale Garibaldi 14,Sarnico,24067,45.6663,9.9614
Grimalda Pizzeria e Pinseria,SP185 302,Rocca Grimalda,15078,44.6869,8.6626
Ristorante Trattoria di Campagna,Frazione Saint Maurice 57,Sarre,11010,45.7161,7.2594
Barl√† Living Bar,Via Nuova Provinciale 20,Calco,23885,45.7229,9.4441
Il Moro - Ristorante Pizzeria Steakhouse,Via dell'Artigianato 7,Suzzara,46029,44.9767,10.7732
Trattoria Pizzeria Donna Maria,Via Torino 86,Piossasco,10045,44.9921,7.4909
Cascina Dell'Allaas,Via Statale 18,Bollengo,10012,45.4703,7.9356
Postiglione - Steak House Pizzeria,Viale Trieste 35,San Stino di Livenza,30029,45.7285,12.6861
Nosh - Asian Street Food,Stradone Porta Palio 5,Verona,37122,45.4386,10.9869
Donkey Pub,Via Brenta 76,Villorba,31050,45.6668,12.0076
Ristorante Pizzeria Albergo Aquila D'Oro,Via Giuseppe Verdi 15,Moglia,46024,44.9314,10.9092
Sushi Ono,Piazza Cesare Mozzarelli 15,Mantova,46100,45.1475,10.7967
La Monella,Localit√† S. Desiderio 11,Godiasco Salice Terme,27052,44.8798,9.0626
Alla Tripolitania,Via Mire Basse 38,San Vendemiano,31020,45.9334,12.2287
Gran Caff√® Defilla,Corso Giuseppe Garibaldi 4,Chiavari,16043,44.3161,9.3269
Ristorante Pizzeria Vittoria,Via Modesto Panetti 6,Strambino,10019,45.3807,7.8829
Ristorante Pizzeria Arco,Viale Centrale 18,Lignano Sabbiadoro,33054,45.6833,13.1293
Pizzeria La Gare,Via Vittorio Emanuele III 37054,Nogara,37054,45.1797,11.0689
Ristorante Chiara,Via Garre Padre Attilio 14,Serra Ricc√≤,16010,44.5418,8.9816
Ristorante Gusto Tondo cesano maderno,Via Don Luigi Vigan√≤ 30,Cesano Maderno,20811,45.6396,9.1812
YAO Ristorante,Via Sebenico 14,Milano,20124,45.4878,9.1918
Brisighella Bakery Caf√® Sanguinetto,Corso C. Battisti 258,Sanguinetto,37058,45.1758,11.1543
Pizzeria Ristorante Il Giglio,Strada dei Colli 5,Guidizzolo,46040,45.3833,10.6881
Ristorante La Marcolfa,Via Giardini Sud 67,Pavullo nel Frignano,41026,44.3278,10.8374
Tatum Hosteria - Pizzeria - Farinata,Corso Guglielmo Marconi 35,Cassine,15016,44.7566,8.5269
Re Art√π,Via Torino 62,Sommariva Perno,12040,44.7769,8.0071
Pizzeria L'Angolo della Pizza,Via G. Matteotti 6,San Giorgio di Piano,40016,44.6451,11.3746
Pasqualina,Via Papa Giovanni XXIII 39,Mozzo,24030,45.738,9.5817
Locanda Zanella,Piazza Santissima Trinit√† 5,Cavallino-Treporti,30013,45.4661,12.4562
Torres Pizza&Food,Via Nazionale 29,Santa Giustina,32035,46.0804,12.0338
Gelateria Frigidarium,Via Umberto I 38,Varallo,13019,45.8156,8.2535
Fiore Pizzeria,Corso Filippo Ferrari 7,Albisola Superiore,17011,44.3294,8.5093
Sakari,Via Provinciale 76,Albino,24021,45.7704,9.8116
Casa Del Gelato Ai Due Ponti,Via Piave 1,Trevignano,31040,45.8586,11.9864
Gelateria Cagliani,Viale Dante Alighieri 65,Luino,21016,45.9941,8.7328
Pizzeria Napoletana La Terrazza,Via Orione 2,Mediglia,20060,45.4336,9.3411
Panificio Pasticceria Da Vi√†,Piazza dei Martiri 7,Domegge di Cadore,32040,46.4588,12.4163
Pizzeria da Diego,Via Matteo Repetto 86,Albissola Marina,17012,44.3267,8.501
La Farcia Cuneo,Corso Nizza 36,Cuneo,12100,44.3859,7.5438
Donna P√®,Corso della Vittoria 1534,Caronno Pertusella,21042,45.6097,9.0374
Al Castel,Via del Castello 4,Offanengo,26010,45.3946,9.7185
Ristorante Pizzeria la Rosa,Via Pezze 2,Cavaion Veronese,37010,45.5356,10.7654
Gun√®,Via XXV Aprile 80,Castelnuovo del Garda,37014,45.4389,10.7178
Antica Osteria Cascina Rossino 1949,Via Cascina Rossino 13,Ornago,20876,45.6084,9.4052
Ristorante Pizzeria La Rotonda,via per S. Pietro 825,Carlazzo,22010,46.0441,9.1505
Mulligans Irish Pub & Restaurant,Corso Giuseppe Garibaldi 165,Gattinara,13045,45.6135,8.3588
Ristorante Capanna Valbione,"Localit√†, Valbione, Snc, 25056",Ponte di Legno,25056,46.2483,10.5066
New Factory- Prosciutteria,Via per Marano 4265,Serramazzoni,41028,44.4084,10.8392
Ristorante Sushi Zero,Via Giuseppe Verdi 9,Mornago,21020,45.7912,8.7958
Big Brutus,Via XXV Aprile 36,Fogliano Redipuglia,34070,45.8363,13.4497
Fiume Azzurro,Via Boris Bradac 2,Chivasso,10034,45.1954,7.8931
Pasticceria Clivati,Viale Coni Zugna 57,Milano,20144,45.4567,9.1703
Il Trio,Regione Bronda 6,Saluzzo,12037,44.6448,7.4679
Terra Mia,Piazza Antonio gramsci 8,Modena,41013,44.5971,11.047
Original Bier Fest,Via Monte Grappa 41,Stezzano,24040,45.6623,9.6309
Ristorante La Trattoria dei Cacciatori di Imbersago (LC),Via Contessa L.Castelbarco 31,Imbersago,23898,45.7042,9.4448
Bar Ristorante da Silvio,Via Madonnina 2,Valdisotto,23030,46.1749,10.0078
Lido di Bellagio,Via Paolo Carcano 1,Bellagio,22021,45.983,9.2567
Ristorante Yama Sushi,Via Lanzo 2,San Francesco al Campo,10070,45.2499,7.5559
Hotel San Giorgio Lodi,Strada Statale 9 Via Emilia 58,Tavazzano con Villavesco,26838,45.3292,9.4034
Restaurante Hayashi,Viale Po 131,Cremona,26100,45.1307,10
Trattoria da Berto,Mossale Inferiore 2,Corniglio,43021,44.4454,10.0456
Mei Li Yuan,Piazza Roma 4,Pinerolo,10064,44.8853,7.3344
Ristorante Pizzeria Rio,Viale Europa 2,San Vendemiano,31020,45.8928,12.3336
Soul Kitchen,Via del Santo 23,Padova,35123,45.4052,11.8794
UNIKA CREMERIA,Via Giuseppe Mazzini 111,Crema,26013,45.3634,9.6911
PASTA & PIZZA e non solo,Via Rampa Cavalcavia 6,Venezia,30172,45.4825,12.236
Alla Stazione - Birreria Paninoteca,Via IV Novembre 32,Sagrado,34078,45.8825,13.5105
Ristorante Pizzeria Dolomiti,Via Tonale 1,Dimaro Folgarida,38025,46.3256,10.8612
NIHAO - Ristorante Ferrara,Via I. Scarsella 4,Copparo,44034,44.8896,11.8074
Trevissa,V. Roma 76,Villorba,31050,45.7206,12.2561
Moser Speckworld,Stein 17,Naturno,39025,46.657,11.0283
Pizzeria Br√ºckenwirt,Via Pianlargo 2,San Martino in Passiria,39010,46.8143,11.2417
Hidalgo,Via Roma 7,Postal,39014,46.619,11.1883
InSISTO,Via A. Manzoni 23,Savona,17100,44.308,8.4815
Pasticceria - Caffetteria Luciano,Piazza Garibaldi 4,Barge,12032,44.7254,7.3228
La Vecchia Caserma Sas di Mazzoli Marzia & C.,Via Roma 37,Pellegrino Parmense,43047,44.7325,9.9277
Gelateria Lapecoranera Rezzato,Via Macina 8,Rezzato,25086,45.5122,10.3143
Taverna Dal Conte,Via Belvedere 1,Guidizzolo,46040,45.379,10.6968
MaMeRo - Da Rocco,Via Anselmo Cortesi 6,Ranica,24020,45.7178,9.7287
Yume Sushi Padova,Via Guizza 441,Padova,35125,45.3586,11.8723
Al Solito Posto | Padova,Via Andrea Colotti 13,Padova,35133,45.4332,11.8957
Sakura Ristorante Cermenate,Via Statale del Giovi 32,Cermenate,22072,45.7014,9.0943
Bar Gelateria Doctor Coffee & Mr Ice,Via Santo Stefano 164,Campoformido,33030,46.203,13.1193
Pasticceria Gelateria La Briciola,Via Trevigiana 11,Santa Giustina,32035,46.0758,12.0261
Trattoria Rossi,Via Pascolata 56,Arqu√† Polesine,45031,45.0279,11.7253
U Sushi 5,Via Taboga 178,Gemona del Friuli,33013,46.2756,13.1089
Pasticceria Ore Liete,Via Venezia 72,Scorz√®,30037,45.5685,12.1124
Pizzeria Oasi,Via Pasquale Longo 14,Borgo Veneto,35046,45.2265,11.5172
Black And White Pizzeria,Via Ezio Vanoni 101,Sondrio,23100,46.1609,9.8686
Antoniazzi Gelateria Dolce Gelato & C. s.n.c.,Viale Dante Alighieri 23,Grado,34073,45.6765,13.389
Ristorante Pizzeria Europa,Viale Venezia 1,Roncegno Terme,38050,46.0026,11.2549
Ristorante Asia,Via delle Rosie 14,San Giovanni al Natisone,33048,45.9703,13.403
GluFree Bakery,Via Curtatone 6,Milano,20122,45.4565,9.2023
Ristorante Pizzeria Oasi Campagnola,Via Campagnola 5,Mareno di Piave,31010,45.8471,12.3252
Green Garden,Strada Nazionale 4,Borgo Mantovano,46036,45.0497,11.1305
Braceria Pizzeria La Spessa,Via S. Lucio 70,Clusone,24023,45.8769,9.9508
La Trattoria,Via Stazione 4,Tesero,38038,46.2826,11.5234
Pizzeria Simpathy,Via Roma 3,Cadorago,22071,45.729,9.0398
Pizzeria al Tajer,Via Canton 25,Fossalta di Portogruaro,30025,45.8201,12.8589
Pizzeria Burgheria Scaramouche,Via Idris Faccini 28,Copparo,44034,44.8707,11.8335
Pizzeria Nuovo Meister,Via Giovanni Amendola 31,Argenta,44011,44.5841,11.8642
Pizzeria Ristorante Amadeus Brendola,Via Antonio Pacinotti 1,Torri di Quartesolo,36040,45.4811,11.4354
Pizzeria Mezzomarinaio Celle,Via Aurelia di Ponente 8,Celle Ligure,17015,44.3346,8.5328
Chateau Dufan,Piazzale Baiamonti 1,Milano,20154,45.482,9.1813
La Divina Commedia,Via S. Donato 47,Torino,10144,45.0809,7.663
Busa dei Briganti Pub Padova,Via Vicenza 15,Padova,35138,45.4115,11.8622
Moon Asian Restaurant,Via Miranese 486,Venezia,30174,45.4859,12.184
Pizzeria Vizio 5,Via S. Rocco 28,Borgo Ticino,28040,45.7274,8.5746
"Saulle Re - Ristorante, Pizzeria e bar",Localit√† Am√©rique 11,Gressan,11020,45.741,7.3774
Trattoria al 47 da Ricky,Via Giovanni Giolitti 47,Cavour,10061,44.7847,7.3716
Bar Pizzeria Trattoria La Roda,Via Chiesa 36045,Lonigo,36045,45.4204,11.3734
Raito,Viale Trieste 35,Sant'Angelo Lodigiano,26866,45.2366,9.4168
Gelateria Pandizucchero,SS470 32,Alm√®,24011,45.7394,9.6209
Il Melograno - Naturalmente Buono - Palmanova,Contrada Villachiara 34,Palmanova,33057,45.9026,13.3112
Ristorante Principe,Corso Valsesia 270,Gattinara,13045,45.6312,8.3722
Gelateria Gelatiamo,Piazza Mons. T. Benedetti 25,Treviolo,24048,45.671,9.6124
La Casa del Dolce Gelateria,Piazza Duomo 1,Sal√≤,25087,45.607,10.5308
Pierino Penati,Via XXIV Maggio 36,Vigan√≤,23897,45.7277,9.3263
Brasserie HD by Mattia,Via Tomatis 22,Pocapaglia,12060,44.4621,7.8232
Al Centrale,Piazza Guglielmo Marconi 7,Casier,31030,45.6349,12.2557
Ristorante Antica Osteria di Via Brandolini,Via Brando Brandolini 35,Pieve di Soligo,31053,45.9142,12.17
Edelwei√üh√ºtte,Walten 96 39015,San Leonardo in Passiria,39015,46.8392,11.3208
La Sqola Ristorante Pizzeria,Str. dei Colli Nord 25,Volta Mantovana,46049,45.34,10.6646
Kathi's,Via Stazione 39010,San Martino in Passiria,39010,46.5684,11.1965
Eden Il Ristorante della Pizza,Via D. Bernasconi 60,Cosio Valtellino,23013,46.1306,9.5559
Millennium Bug Ristorante Pizzeria,Via Calbiga 22,Porlezza,22018,46.0319,9.1411
Pizzeria Pino S.N.C. di Gorghetto Mara e Ivan,Via Principe 11,Roncade,31056,45.5832,12.3713
Mood Sushi Restaurant,Via Bergamo 27,Curno,24035,45.6926,9.6242
Gastronomia Le Quattro Stagioni,Corso G. Mazzini 34,Adria,45011,45.053,12.0556
Il Gusto Siciliano di Paolo il Palermitano,Via Giannino Degani 1,Reggio nell'Emilia,42124,44.7024,10.6588
Stinger,Via Francesco Hayez 2,Venezia,30174,45.5052,12.2267
Era Tant√¨,Via Pio Corsi 26,Nizza Monferrato,14049,44.7736,8.3557
Antica Gelateria Modenese,Viale Buon Pastore 240,Modena,41124,44.6358,10.9209
Pizzeria Al Sole,Piazza Madonnina del Grappa 9,Pieve del Grappa,31017,45.827,11.8525
Pizzeria TNT,Viale Santa Margherita 63,Caorle,30021,45.5964,12.8781
Pizzeria Perhonen,Piazza Castello 18,Guidizzolo,46040,45.3737,10.5625
La Colletta,Via Francia 30,Arenzano,16011,44.3994,8.6648
"Zaz√† Ramen, sake bar & restaurant",Via Solferino 48,Milano,20121,45.479,9.1886
Pizzeria e Ristorante da Tiziano,Frazione Roncaglie 7,San Benigno Canavese,10080,45.4186,7.4483
Sushi-One,Via Pola 30,Torri di Quartesolo,36040,45.5088,11.629
Galloway Bassano,Via Cristoforo Colombo 104,Bassano del Grappa,36061,45.7432,11.7375
Pizzeria Gustavo Buccinasco,Via Piemonte 2,Milano,20090,45.4147,9.1171
Insushi,Piazza della Vittoria 20,Bolzano,39100,46.5001,11.3443
Gelateria Franca,Via G. Marconi 5,Albino,24021,45.7569,9.7947
Tigella Bella,Via Natta 35,Como,22100,45.8085,9.083
Trattoria Pizzeria Da Piero,Via Triestina 62,Venezia,30173,45.5051,12.2884
pizzALTaglio,Via del Carmine 3,Modena,41121,44.6452,10.9298
Pasticceria JOSEPHMARY Dolce.Salato.Coffee,Via Provinciale 19 Parcheggio interno 24040,Stezzano,24040,45.6631,9.6326
Lanterna Verde,Via Zocchet 10,Primiero San Martino di Castrozza,38054,46.1811,11.8417
Bar Ristorante Pizzeria malga Valbiolo,loc. valbiolo 38029,Vermiglio,38029,46.2812,10.5799
Gelateria Flipet,Via Torino 29,Trofarello,10028,44.9846,7.7371
Gelateria Bologna,Via Giuseppe Garibaldi 12,Mori,38065,45.8531,10.9758
Ristorante Pizzeria Bobbio PUNTO VERDE,Piazza XXV Aprile 16,Bobbio,29022,44.7728,9.3884
Locanda Stazione,Piazza Giuseppe Garibaldi 21,Borgonovo Val Tidone,29011,45.0174,9.4478
Pizzeria Salin,Strada Dolomites 169,San Giovanni di Fassa,38036,46.4359,11.6901
Trattoria Regina,Via ai Maggenghi 2,Margno,23832,46.0219,9.3799
Bar da √∂ Fuentu,Via Isolabuona 57,Ronco Scrivia,16019,44.5983,8.9534
Restaurant - Pizzeria Moro,Via John Fitzgerald Kennedy 258,Laives,39055,46.4221,11.3317
Gelateria Excalibur,Via A. de Gasperi 43,Cesana Brianza,23861,45.8161,9.2997
Ristorante Brace e Fantasia,Via Naviglio 10,Fiesso d'Artico,30032,45.4129,12.018
I Caraibi,Viale delle Acacie 1,Comacchio,44029,44.6584,12.245
Pizzeria Da Mauro dal 1990,Via XXX Ottobre 27,Codogn√®,31013,45.8697,12.4276
Dolce Sicilia di Maniscalco Fabio,Via Roma 51,Lonigo,36045,45.3851,11.3881
Sukiko,Via Roma Ovest 95,Ospedaletto Euganeo,35045,45.2225,11.6069
Fuoritempo Canale - Pizzeria Ristorante,Corso Asti 21,Canale,12043,44.7985,8.0012
Pizzeria Panaretto,Via Monte Ortigara 34,Cornedo Vicentino,36073,45.6237,11.3168
Muvin Gelateria and Bar,Via V. Golinelli 1,Bologna,40055,44.4967,11.4278
Pizzeria e Spaghetteria da Rodi,Piazza Pieve 6,Cavaso del Tomba,31034,45.8655,11.9149
Ristorante Pizzeria Miramonti,Piazza Giuseppe Garibaldi 1,Volta Mantovana,46049,45.3225,10.6593
Pasticceria Ristorante Stra Dueville,Via Marosticana 229,Dueville,36031,45.6397,11.574
Ristorante Pizzeria Imbarcadero,Via Rimembranza 12,Sabbio Chiese,25070,45.7624,10.4918
Al Peperone Rosso,Via Scotti 72,Costigliole d'Asti,14055,44.8089,8.1463
Il Portico 4.0,Via Caretto Aminto 6,Crescentino,13044,45.1922,8.1026
Pastry Shop Borsari,Via C√† Mignola Nuova 1577,Badia Polesine,45021,45.0929,11.5188
Zaccheo Bakery,Via A. Giovanola 1,Cannobio,28822,46.0613,8.6977
Bier Keller,Via Matteotti 3,Sant'Ilario d'Enza,42049,44.7614,10.4508
Pasticceria Sommia,Via Nazionale 2,Castelli Calepio,24060,45.7609,9.9194
L'Ambaradan Pizzeria Ristorante,S.da Canelli 55,Nizza Monferrato,14049,44.7584,8.3566
Gelateria maCam,Corso Italia 40,Novara,28100,45.4468,8.6177
Ristorante Pizzeria Tie Break,Via Johann Kofler 28,Vipiteno,39049,46.8935,11.4372
Vecchia Costiera - Trattoria Moderna & Pizzeria,Via Roma 32,Caorle,30021,45.5982,12.8888
Pasticceria Veneto,Via Salvo D'Acquisto 8,Brescia,25128,45.5532,10.2174
Il Conte Hop,Via Roma 127,Cassolnovo,27023,45.356,8.8144
Veneto Cable Park/Veneto Grill House,Via Boscalto 63,Resana,31023,45.6152,11.9441
Antico Forno a Legna da Carlo,Via Guglielmo Barbieri 41,Montebruno,16025,44.5257,9.2479
Antica Osteria dai Moretti,Via Piave 70,Piombino Dese,35017,45.6289,12.0288
Grigoris,Via Asseggiano 147,Venezia,30174,45.4967,12.1845
SUSHI KING 2,Via Castellana 7,Scorz√®,30037,45.5748,12.1029
Suso,Sotoportego de la Bissa 5453,Venezia,30124,45.4377,12.3374
Farina00,Via Facchinetti 2,Castelli Calepio,24060,45.6349,9.8077
Gallizioli,Via Alcide de Gasperi 19,Marcheno,25060,45.576,10.2136
Ristorante-Pizzeria Cibo Felice,Via Risorgimento 8,Offanengo,26010,45.302,9.7262
Ristorante Pizzeria La Mamma,3G,Rottofreno,29010,45.058,9.5487
Moon Restaurant,Piazzale Gherardo Prosperi 4,Ferrara,44122,44.8482,11.6
Ristorante Il Rigoletto,Str. delle Anime 2,Fontevivo,43010,44.8356,10.2222
Pizzeria Ristorante Manuno,Via Gutenberg 14,Flero,25020,45.4571,10.2053
Ristorante Pizzeria Il Cris,Via Armando Diaz 13,Tremezzina,22016,45.9734,9.1925
Birrificio di Fiemme,Loc. Santa 7,Cavalese,38033,46.2817,11.4773
B√§ckerei Mein Beck,Via L√§nd 1,Lana,39011,46.6178,11.1437
Pizzeria Sporth√ºtte,Via Tiosler 3,Castelrotto,39040,46.5672,11.5653
Pasticceria Colzani,Via N. Sauro 47,Cassago Brianza,23893,45.734,9.2895
Bar Ristorante Vetta,Piazza Dottor Giuseppe Ferrando 2,Cremolino,15010,44.6341,8.5857
Hops Pub,Via S. Marco 71,Caerano di San Marco,31031,45.7783,12.0001
Il Melograno Collecchio,Str. Nazionale Est 40,Collecchio,43044,44.7538,10.2264
Pirates'Bay Restaurant - Olgiate Olona (VA),Via S. Giorgio 21057,Olgiate Olona,21057,45.6286,8.861
Gelateria Bahia,Via Dante Cesana 16,Carate Brianza,20841,45.6761,9.238
Gelateria Artigianale Ottavo Senso Brugherio,Piazza Roma 22,Monza,20861,45.551,9.3011
Gelateria Casa del Gelato,Rio Terr√† delle Botteghe 36,Caorle,30021,45.599,12.8876
Pizzeria Rossonero,Via Chiamue 2,Tolmezzo,33028,46.3991,13.0179
Ristorante Pizzeria Al Gelso,Via del Gelso 10,Udine,33100,46.0615,13.2331
Bar Moreschi,"Via, Strada Comunale Vecchia, 1",Montagna in Valtellina,23020,46.2934,9.3855
Gemma Pizzeria - Verona Borgo Trento,Via Mario Todeschini 19,Verona,37126,45.4458,10.9872
L'Oste Pinocchio,Piazza Genta 2,Carcare,17043,44.3593,8.2895
Kebab di Sufyan,Viale Battaglione Val Leogra 46,Vicenza,36100,45.5505,11.5213
Minuscoli,Viale Papa Giovanni XXIII 3,Ranica,24020,45.89,9.9834
Ristorante Pizzeria al Ritrovo,Via S. Vito 16,Negrar di Valpolicella,37024,45.5149,10.9374
Sherwood Pub,Via Frusta 44,Martellago,30030,45.5339,12.1016
Ristorante Pizzeria Casa Beust,Via Benaco 15,Nago-Torbole,38069,45.8688,10.8755
Ristorante Pizzeria Churen,Rue des Guides 19,Gressan,11020,45.8335,7.7252
Piadina Elena,SS 309 Romea 45014,Porto Viro,45014,45.0239,12.2347
Bunde Pizza Restaurant,Via Bergamo 6,Cisano Bergamasco,24034,45.7368,9.4852
Ristorante Chica Espana (S.A.S.),Via Nazionale 47,Sant'Antonino di Susa,10050,45.1269,7.011
Pasticceria Roma,Via Cesena 14,Verona,37134,45.4081,11.0013
"Dinamo ""Steak House & Music""",V.le Paganini 5,Oleggio,28047,45.6001,8.6374
Pizzeria Cittadella Parma,Viale Duca Alessandro 45,Parma,43123,44.7921,10.3352
Nuovo Sempione,Via Verbano 70,Novara,28100,45.476,8.629
"Ristorante ""All'Enoteca""",Via Roma 57,Canale,12043,44.7969,7.993
Ristorante Hotel Emi,Via Surrogazione 45,Calderara di Reno,40012,44.5337,11.3008
Pizzeria Birreria Barbanera,Calle al Ponte de la Guerra 5356,Venezia,30122,45.4364,12.3395
Bar Il Pontile,Via alla Darsena 23824,Dervio,23824,46.0757,9.2982
Moy Sushi Asian Restaurant,Via Vittorio Veneto 17,Borgosesia,13011,45.7147,8.2803
Ristorante La Ruota,Via Giacomo Leopardi 4,Gallarate,21013,45.6511,8.8052
Exoticus Biella,Via Dante Alighieri 1,Biella,13900,45.5691,8.0537
Fratelli Pummar√≤,Via Principe Tommaso 12,Torino,10125,45.0591,7.6824
Ristorante Oya Sushi Fusion Experience,Via Padre D. M. Turoldo 3,Cernusco sul Naviglio,20063,45.5351,9.3419
Greek Food Lab,Via Claudio Luigi Berthollet 6,Torino,10125,45.0594,7.68
Da Demir,Piazza Adriano 6,Torino,10138,45.0711,7.654
La Vecchia Bottega di Cappellaro Francesco & C. Sas,Via Michelangelo Buonarroti 6,Valeggio sul Mincio,37067,45.3537,10.7237
Vinosteria Borracho,Via Emilio Chanoux 33,Saint-Vincent,11027,45.7509,7.6481
Ristorante Osteria Valle,Via Valle 13,Casalmaggiore,26041,44.9925,10.5472
Shanghai Sushi Feltre,Via Montelungo 3,Feltre,32032,46.0153,11.9017
Birrificio Casa Del Popolo,Via Fratelli Borghini 62,Ornavasso,28877,45.9893,8.3433
Trattoria Pizzeria Al Ponte,Via dal Maso Bruno 76,Chiampo,36072,45.5424,11.2839
Ristorante Pizzeria Locanda Pertuso,Frazione Pertuso 9,Stazzano,15060,44.7279,9.0337
Checchi Brunch & Specialty Coffee,Via Corsica 225,Brescia,25125,45.5277,10.2055
Pizzeria Da Maruzziello,Corso Guglielmo Marconi 171,Cairo Montenotte,17014,44.3677,8.2902
Zum Woscht - Restaurant Pizzeria,Via Santner 8,Castelrotto,39040,46.5444,11.5615
The Garden of Ghilot,Via Sant Iffredo 8,Cherasco,12062,44.6502,7.855
Voglia di Pizza da Enzo,Via Poirino 7,Torino,10022,44.8513,7.726
Trattoria Bellavista,Via A. Manzoni 11,Colle Brianza,23886,45.7531,9.3762
Ristorante Pizzeria Centrale,Via Nazionale 39,Cont√†,38093,46.2993,11.0309
Casa Drus√π - Pinseria e dintorni,Via Cavagli√† 20,Saluggia,13040,45.373,8.0784
Ristorante Pizzeria Monnalisa Ozegna,Viale dello Sport 1,San Benigno Canavese,10080,45.3501,7.7478
Ristorante Pizzeria Gaia da Camino,Via Comunale di Camino 80,Oderzo,31046,45.7992,12.4931
Ristorante Pizzeria King's Junior,Via Pinerolo 3,None,10060,44.959,7.5997
Ugo Grill,Via Antonio Gramsci 13,Cremona,26100,45.1342,10.0231
"GESPAN srl | Panificio, pasticceria, gastronomia e buffet per eventi | Milano | Corsico",Via Leonardo Da Vinci 21,Milano,20094,45.4444,9.1098
Pizzeria Trattoria Ca' Billi,Viale della Repubblica 3,Cavaion Veronese,37010,45.5852,10.7423
Gelateria Caffetteria Quadrifoglio,V. Roma 6,San Martino di Lupari,35018,45.6488,11.8573
Ristorante Forc-eat (Forcate 1970),Via Francesco Baracca 74,Fontanafredda,33074,46.0038,12.5783
Ristorante Pizzeria Tabial√°,Via Mescolino 6,Cappella Maggiore,31012,45.9607,12.3612
Pizzeria Il Sorriso,Via Vittorio Rugarli 2,Fornovo di Taro,43045,44.6932,10.1025
Wild Turkey Pub,Via Casarette 72,Trissino,36070,45.5901,11.3802
Mai Thai,Via Giuseppe Mazzini 56,Torino,10123,45.0605,7.6905
Hong Fu,C.so Francia 75,Torino,10093,45.0733,7.5975
The Drunken Duck - Le pi√π meglio birre,Via degli Eroi 77,Sovizzo,36050,45.5749,11.6426
Alberto Marchetti Gelaterie | Casa Marchetti,Piazza C.L.N. 248,Torino,10121,45.0666,7.6811
Hamb√π - Hamburgeria e Pinsa Romana a Vimercate,"Presso palazzo Tiglio, Via Torri Bianche, 6",Vimercate,20871,45.6016,9.3619
Ristorante Pizzeria La Nuova Forchetta,P.za Parmigiani 7,Magenta,20013,45.4642,8.8847
Kebab Yakamoz,Via della Libert√† 70,Bellinzago Novarese,28043,45.5738,8.6402
Birreria Torre,Via Garibaldi 93,Cittadella,35013,45.6468,11.7841
Red Lion 2,Via Sante Conti 7,Montecchio Emilia,42027,44.6987,10.4426
Contarini Ristorante Pizzeria Specialit√† Pesce,Via L. Camerini 8,Piazzola sul Brenta,35016,45.5435,11.7875
Fratelli di Pizza - Sant‚ÄôAlessio,"Via dei Livelli, Snc, 27016",Lardirago,27016,45.2273,9.215
Ristorante Trattoria dai Bercau,Via Beato Valfr√® 13,Pocapaglia,12060,44.6675,7.9323
Kashima Sushi - SACILE,Via Gorizia 2,Sacile,33077,45.9658,12.5357
Il Moro - Ristorante Pizzeria,Via Sant'Alberto 4,Ranica,24020,45.8942,9.9184
Gelateria Milky Way,Corso XXV Aprile 21,Gozzano,28024,45.7425,8.4354
Sorriso Pizzeria Ristorante,Via Gardesana 10,Castelnuovo del Garda,37014,45.4489,10.7122
Pizza & Bistrot Italy,Corso Mazzini 20,Borgo San Dalmazzo,12011,44.3306,7.483
Gelateria caffetteria Quadrifoglio Noale,P.za Castello 41,Noale,30033,45.5506,12.0705
Kanji Ristorante,Via Asti 45,Santena,10026,44.9551,7.7922
La Ca' Bianca Ristorante Pizzeria,Via Statale 76,Castelvetro di Modena,41014,44.5309,10.9373
Bar Gelateria Penna,Via A. Abegg 1,Sant'Antonino di Susa,10050,45.1205,7.2397
Ristorante Pizzeria La Staffa,Via Avv. Gianni Augusto Ruffo 2,Arcole,37040,45.3736,11.287
Ristorante Pizzeria Tre Lanterne,Via Trieste 27,Martinengo,24057,45.5703,9.7618
Trattoria Pizzeria All'Albera,Via A. de Gasperi 44,Martellago,30030,45.5196,12.1085
Ristorante Pizzeria O‚Äô Sole Mio,Via Udine 62,Lignano Sabbiadoro,33054,45.6918,13.1479
Sagittario Pizzeria,P.za Tenente Rino Segato 13,Sovizzo,36050,45.6335,11.6263
PIZZERIA RISTORANTE L'ITALIANA,Via Roma 45,Sommariva Perno,12040,44.7339,7.9728
Wok Sushi Abundant,V.le Europa 34,Palazzolo sull'Oglio,25036,45.589,9.884
Bici Grill Tezze,38055 Grigno,Grigno,38055,45.986,11.6677
Pasticceria Desideria,Via Giuseppe Verdi 13,Conselve,35026,45.2326,11.8695
Zapap Pratello,Via del Pratello 31,Bologna,40122,44.4956,11.333
K1 Apr√®s Ski/Restaurant/Pizzeria,Via Funivia 12,Brunico,39031,46.7723,11.9413
Kiyo Sushi,SP14 10,Mediglia,20060,45.483,9.4106
Ristorante Pizzeria Bella Napoli 3,Via Gian Paolo Annoni 7,Motta Visconti,20086,45.2875,8.9955
La Taverna del BiRen,Via Statale 365,Terre del Reno,44047,44.7704,11.3439
Ristorante Caff√® Saraceno,S. Polo 726,Venezia,30125,45.4379,12.3352
Sushi D'oro,Via Emilia Ovest 40,Parma,43126,44.8078,10.2945
Panisfizio,Via Bartolomeo Colleoni 3,Jesolo,30016,45.5017,12.6318
L'intingolo astesano,Corso Vittorio Alfieri 100,Asti,14100,44.902,8.2104
Da Zero,Via San Domenico 33,Torino,10122,45.077,7.6734
Ristorante I Pirati,Corso Vercelli 216,Ivrea,10015,45.4682,7.8938
"Glory POP (Via Correggio, Milano)",Via Correggio 14,Milano,20149,45.4704,9.1512
Capriccio di Como,Strada Provinciale 35 dei Giovi 52,Appiano Gentile,22070,45.7636,9.0555
Op√† Op√†,Via Luigi Porro Lambertenghi 19,Milano,20121,45.4892,9.1874
Pizzeria Made In Sud,Via Milano 772,Cairate,21050,45.6359,8.9081
"Ristorante ""Da Cuomo""",Viale Lenin 1,Suzzara,46029,44.999,10.7353
San Sushi,Via Strada Statale 589,Cavallermaggiore,12030,44.6217,7.4913
Gran Caff√® Aragno - Restaurant & Pizzeria - Mondov√¨ di Ht aragno srl,Corso Statuto 26,Mondov√¨,12084,44.3894,7.8206
VECCHIA VOLPE birreria con cucina,Strada della Ghiacciaia 4,Lesignano de' Bagni,43037,44.6556,10.3177
Cilento Ristorante Pizzeria,Via Colombare 35,Sirmione,25019,45.4686,10.6079
Ristorante Ca' Rossa,Via Valsugana 26,Pergine Valsugana,38057,46.0269,11.2452
Al Gambero d'Oro,Via Valentino Rizzo 13,Oderzo,31046,45.7813,12.4957
Pizzeria Gelateria Graziella,Via Chiesa di Piana 12,Valdagno,36078,45.6137,11.3011
Gelato d'altri tempi,Via S. Fabiano 38,Verbania,28921,45.9358,8.5728
Pizzeria Trattoria Nettuno,Via Liberazione 96,San Vendemiano,31020,45.8764,12.3387
Osteria della Valle,Via Provinciale 81,Centro Valle Intelvi,22023,45.968,9.0762
Ristorante Bersagliere Casalecchio,Via Guglielmo Marconi 94,Bologna,40033,44.4756,11.2758
Ristorante Pizzeria Da Lucio,Frazione Ballino 6,Fiav√®,38075,45.9663,10.8115
Cantina Battisti,Via Provinciale 18,Colognola ai Colli,37030,45.4195,11.1353
Ristorante Pizzeria Case Rosse,Via Case Rosse 15,Feltre,32032,46.0442,11.8968
Caff√® Bistr√≤ Mastai,Piazzale Carlo Donegani 23022,Chiavenna,23022,46.3204,9.4048
Ristorante Pizzeria K13,Via Provinciale 30,Lipomo,22030,45.8074,9.2568
Caff√© La Crepa,Piazza Giacomo Matteotti 14,Isola Dovarese,26031,45.1764,10.3126
Ristorante Pizzeria Ellepi,Piazza Giuseppe Mazzini 16,Massa Lombarda,48024,44.4474,11.828
Bar - Brewery Cheek To Cheek,Via Vincenzo Bellini 13,Valdagno,36078,45.6508,11.3025
Ladri di Biciclette - Pizza & more,Via Guittone d'Arezzo 16,Reggio nell'Emilia,42123,44.6733,10.6007
Trattoria dell'Arlecchino,Via Roncaglia Entro 72,San Giovanni Bianco,24015,45.882,9.634
Il Saraceno,Via Pontebbana 75,Tricesimo,33019,46.1717,13.2054
The Towers,Via Pesa 4,Montebello Vicentino,36054,45.458,11.3882
Pirru Montecavolo,Via P. Togliatti 22,Quattro Castella,42020,44.6343,10.5445
Ristorante pizzeria Ai Gandolfi,Via Gandolfi 1,Vicoforte,12080,44.3599,7.8341
Restaurant Hilberkeller,Via Caines 23,San Martino in Passiria,39010,46.6975,11.1715
Bar Gelateria Calipso,Via Dary 1,Roncade,31056,45.6474,12.3608
BALABI√íTT | Gastro Pub Domodossola,Via Attilio Binda 16,Domodossola,28845,46.1177,8.2926
Marl√† Pasticceria,C.so Lodi 15,Milano,20135,45.4503,9.2057
Mami Burger and Pizza,Via Carlo Oreglio 13,Melzo,20066,45.5052,9.4315
Ristorante Verbella con pizzeria | Ristorante a Sesto Calende,via Ferriera 19,Sesto Calende,21018,45.727,8.6116
Ristorante Pizzeria - Mamm√†,Via Alessandro Manzoni 9,Gallarate,21013,45.6606,8.7943
Haru Restaurant,Corso Sempione 33,Milano,20145,45.4802,9.1657
Hosteria Moderna San Bonifacio,Via Villanova 75,San Bonifacio,37047,45.4044,11.2708
Elleboro Fior Di Gelato,Via Alessandro Manzoni 42,Monza,20900,45.5826,9.2715
Pizzeria Stuzzicando srl,Via Varese 124,Mozzate,22076,45.6678,8.9611
La Baita dei Sapori del Sud,Via Peloritana 56,Garbagnate Milanese,20024,45.5747,9.0675
Flame'n Co. Pasiano,Via Sant' Antonio 9,Pasiano di Pordenone,33087,45.8774,12.6113
Antica Osteria Zanatta,Via del Borgo 64,Maserada sul Piave,31052,45.7368,12.3143
Birrificio artigianale B2O,Strada Provinciale Portogruaro Brussa 216,Caorle,30021,45.6583,12.9477
Gelateria Acquario,Via Aldo Moro 46,Sondrio,23100,46.1671,9.8641
Pizzeria Restaurant Rosmarin,Josef Jungmann Stra√üe 1,Campo Tures,39032,46.9182,11.9522
Pizzeria Veneta - Tutto il Veneto su una pizza!,Via Leonardo Da Vinci 45,Adria,45011,45.0503,12.0636
Osteria Del Vapore,Piazza Capitano Occello 4,Cavallermaggiore,12030,44.7523,7.6003
Pizzeria Ristorante al Panzerotto,Via Roma 10,Castelnovo ne' Monti,42035,44.4348,10.4074
Pizzeria Ristorante Marechiaro,Via Borgo Treviso 44,Cittadella,35013,45.6493,11.7882
Ristorante Pizzeria 5 Torri,Largo delle Poste 13,Cortina d'Ampezzo,32043,46.5388,12.1362
Pizzeria da Pippo,Via Chiesa 13,Sequals,33090,46.0008,12.8456
Ristorante Pizzeria Via Veneto Srl,Via Vitt. Veneto 64,Borgo Ticino,28040,45.7472,8.5243
Grotta Azzurra 2,Largo Perlar 19,Verona,37135,45.4073,10.9768
Al Ciaro de Luna,Via Traversi 27,Casier,31030,45.7876,12.2214
Pizzeria Ristorante L'Angolo,Via Giovanni Capra 48,Rottofreno,29010,45.002,9.7906
Ritual,Viale Antonio Fratti 20,Parma,43121,44.8083,10.3315
Pizzeria Lugano,Via Como 26,Menaggio,22017,46.02,9.2371
Pizzeria Ristorante Goofi Soraga,Strada Dolomites 35,Castello-Molina di Fiemme,38030,46.3957,11.6653
Stambech ristorante Argentino,Corso Roma 77,Aprica,23031,46.1536,10.1494
Sushi K√≤bbo Asian Fusion - ristorante Giapponese -,Via Monte Generoso 8,Cairate,21050,45.8409,8.9109
Gelateria Del Sole,Viale Brianza 72,Varedo,20814,45.6001,9.1734
L'Oasi,Via Varesina 22079,Villa Guardia,22079,45.7714,9.0105
Donna Sof√≠ Pizzeria Napoletana,Via Dante Di Nanni 67,Torino,10138,45.0667,7.6512
Galleria Iginio Massari Milano,"Via Guglielmo Marconi, Piazza Armando Diaz, 4",Milano,20122,45.4629,9.1898
Istanbul Cislago Kebap-Pizza-Grill,Via Cesare Battisti 1103,Gerenzano,21040,45.6591,8.9769
Ristorante Royal Garden,V. Ardengo Folperti 71,Pavia,27100,45.1936,9.1665
Peperino Pordenone,Viale Franco Martelli 7,Pordenone,33170,45.9576,12.6617
Santa F√© - Cantina y Bar,Via Torre 20,Pove del Grappa,36020,45.8083,11.7182
Don Salvatore - pizzaiuolo e oste,Via Ruggero di Lauria 1,Milano,20149,45.4852,9.1559
Dragut,29 Via Porto Turistico 16043,Chiavari,16043,44.3133,9.3233
L'Osteria del Vignaiolo,Frazione S. Maria 12,La Morra,12064,44.6516,7.9455
Gelateria Caffetteria Fioca,Via 3 Martiri 15,Villafalletto,12020,44.5619,7.32
Pizza 2000,Campo Sant'Agostin 2287,Venezia,30125,45.4388,12.3286
Pizzeria Benvenuti al Sud üçïüçïüçï,Via IV Novembre 18,Albisola Superiore,17011,44.3301,8.5137
Fratelli Ravioli,Via Casale 3,Milano,20144,45.4524,9.1702
Castello Pizza & Kebap,Corso Giacomo Matteotti 29,Castel San Giovanni,29015,45.0588,9.4369
Shangri-la,Via Lazzaretto 8,Milano,20124,45.4776,9.202
Mi Sa Sushi - conegliano,Viale Italia 6,Conegliano,31015,45.8751,12.2849
Qb Pizzeria Cucina,Viale Ottorino Respighi 2,Reggiolo,42046,44.918,10.812
Pizzeria Trattoria Vecchia,Via XX Settembre 67,Sabbio Chiese,25070,45.6577,10.4191
Restaurant Pizzeria Geier,St. Josef am See 12 39052,Caldaro sulla strada del vino,39052,46.3859,11.259
La Rotonda Sul Pane,Via Bologna 124,San Giovanni in Persiceto,40017,44.6253,11.1972
Pizzeria Edelweiss,Via Monte Piana 12,Auronzo di Cadore,32041,46.5809,12.2516
6342 A Le Tole Spaghetteria Pizzeria,Barbaria de le Tole 6342,Venezia,30122,45.4388,12.3424
Pizzeria El Gaucho,Via Orbassano 70,None,10060,44.9738,7.5495
Pizzeria Le Coccinelle,Via Massimo D'Azeglio 5,Lainate,20020,45.5681,8.8939
Ristorante Pizzeria Le Giare,Piazza del Malgher 20,San Giovanni di Fassa,38036,46.4311,11.6885
Al Capriccio,Via Dottor Vincenzo Campagnoli Golgi 32,Calvisano,25012,45.3447,10.3374
Le Bertoline,6GVM,Ossago Lodigiano,26816,45.2429,9.5334
Taverna Brigantia,Via S. Pietro 575,Brovello-Carpugnino,28833,45.8465,8.5308
Ristorante Pizzeria Al Molinetto,Via Molinetto 2,Casier,31030,45.8204,11.8214
Vecchia Mori,Piazza Cal di Ponte 21,Mori,38065,45.8519,10.9784
Alba Kebab Center,Via Luigi Einaudi 3,Alba,12051,44.6964,8.0333
Capolinea Bistrot,Via Alessandro Volta 68,Brunate,22034,45.8186,9.0953
Tre Chitarre,Via Mottone 6,Zevio,37059,45.3579,11.1667
La Mulata | Padova,Via Antonio Rossi 5,Padova,35030,45.4251,11.7949
Cutty Sark Scottish Pub,Via Giovanni Pascoli 16,Marano Vicentino,36035,45.6914,11.4185
Caseificio Sociale Ponte di Barbarano,Via Capitello 2,Barbarano Mossano,36048,45.3863,11.5713
La Vecchia Locanda,Via Borgovecchio 2,Gassino Torinese,10090,45.035,7.4197
Caseificio Primiero,Via Roma 179,Roncegno Terme,38050,46.1687,11.8215
Beba Steakhouse,Via Alfredo Di Dio 46,Ornavasso,28877,45.9698,8.4149
Lili Marleen,Via dei Platani 2,Pozzuolo del Friuli,33050,45.9762,13.2769
Pizzeria Barone Rosso,Via Martiri della Libert√† 15,Spinea,30038,45.4955,12.1517
Fiordipanna Arese,Piazza 11 Settembre 5,Lainate,20020,45.551,9.0771
Memo Pizza Kebap Istanbul,Via Carlo Porta 3,Lecco,23900,45.8525,9.3959
Pizzeria Regisole Hostaria,Piazza del Duomo 4,Pavia,27100,45.1851,9.1526
Pizzeria Arrigoni & Basso,Str. Terraglio 274,Preganziol,31022,45.5896,12.2337
Olivieri 1882,Via Alberti 5,Arzignano,36071,45.5167,11.3452
"Ristorante La Foce - Beach Bar, Restaurant & Pizza","fronte lago - accessibile dal lungolago, Via Religione, 44",Toscolano-Maderno,25088,45.6335,10.6167
Ristorante Pizzeria Da Viola,Piazza XX Settembre 47,Ovada,15076,44.6386,8.643
Rapsodia Ristorante Pizzeria,Via Piave 32,Fagnano Olona,21054,45.6714,8.8691
Pizzeria Ristorante Barbabl√π,Piazzale Roma 70,Istrana,31036,45.679,12.1012
La Piazza dei Sapori,Via Milano 125,Cant√π,22063,45.7245,9.1465
Il Gelato Di Raffa Di Uberti Raffaello,Piazza Giuseppe Garibaldi 2,Cologne,25033,45.5853,9.9434
PanzeR√© - Panzerotteria,Lungadige Porta Vittoria 29,Verona,37129,45.4372,11.002
Cornale,"Via Piovega di, Via Fosse di Sotto, 7",Enego,36052,45.9365,11.7243
Ristorante Pizzeria La Piccola Primavera,Piazza Paganora 13,Mazzano,25080,45.5186,10.3535
Pub Bauhaus Stube,Via Risorgimento 18,Motta di Livenza,31045,45.7728,12.6111
La Casaccia da Bacco,Via Beppino Smania 3,Fiesso d'Artico,30032,45.4179,12.0169
Athena,Via Sandro Pertini 10,Caprino Veronese,37013,45.6066,10.7925
Restaurant Pizzeria La Boheme,Via Gabbiola 22,Lazise,37017,45.4937,10.7396
Ristorante Pizzeria Vecchia Canonica,Piazza Cei 4,Mal√©,38027,46.3512,10.9123
Ristorante Pizzeria El Gaucho,Via Risorgimento 4,Montegrotto Terme,35036,45.3303,11.7627
Ristorante Pizzeria Il Desco dei Fieschi,Piazza della Libert√† 42,Lavagna,16033,44.3074,9.3451
Ristorante Pizzeria Le Fate,Via de Gasperi 81,Sommariva Perno,12040,44.7758,8.0932
La Moucca,Piazza della Vittoria 36,Genova,16121,44.4032,8.946
Ristorante Pizzeria Le Fontane Srl,Via alle Fontane 14,Porte di Rendena,38094,46.073,10.7209
Ristorante Pizzeria Agordina di Laghi & C. S.n.c.,Piazzale Marconi 3,Agordo,32021,46.2812,12.0332
The Bay Luzzara,Str. Viale Po 42045,Luzzara,42045,44.9699,10.6717
JOE,Via Camillo Campari 23,Pavia,27100,45.1889,9.1666
La Boutique del Gelato,Via Rogerio 30,Piacenza,29122,45.0416,9.6959
pizzeria ristorante Ermes,Via Dante A. 85,Martellago,30030,45.4056,11.9982
Bar Ristorante Pie' dei Monti,Via Piazza 325,Serramazzoni,41028,44.4165,10.8513
Groove Burger,Via ai Quattro Canti di S. Francesco 32,Genova,16124,44.4111,8.9313
Pizzeria Il Giglio 3,Via Santa Maria 64,Caldogno,36030,45.6949,11.5316
Alberto Marchetti Gelaterie | via Po,Via Po 35,Torino,10124,45.0678,7.691
Ristorante Pizzeria Ai Cappuccini,Via dei Morari 2,Thiene,36016,45.7002,11.4683
Dawali,Via Corrado II il Salico 10,Milano,20141,45.4412,9.1903
Ristorante Suyoshi,Via del Garda 44,Rovereto,38068,45.8671,11.0128
Ristorante Pizzeria Vecchia Napoli,Arco della Paranza 2,Lignano Sabbiadoro,33054,45.6672,13.1084
Arcadia - Ristorante Pizzeria,Via Udine 13,Povoletto,33040,46.1138,13.2831
Dolce Segreto srl,Via Eridania 70,Occhiobello,45030,44.9109,11.6021
La Ciau del Tornavento,Piazza Leopoldo Baracco 7,Guarene,12050,44.6891,8.0859
Birreria hobelics,Via Roma 10,Quattro Castella,42020,44.6248,10.5915
Beirut,Via Tito Livio 1,Milano,20137,45.4526,9.215
Britannia,Via Roma 5,Torre Pellice,10066,44.8202,7.2251
Cascina Manzo,Borgata Gombe 27,Dogliani,12063,44.5191,7.9458
Pizzeria ContadiNostrano,Via Cremona 30,Mantova,46100,45.1554,10.7657
Le Macine Steakhouse,Via Pablo Picasso 2,Mirandola,41037,44.8853,11.0714
Locanda del Vegnot,V. Fornello 10,Borgo San Giacomo,25022,45.3605,9.9938
Trattoria Dentella,Via Cav. Antonio Dentella 25,Sorisole,24010,45.8232,9.7071
The Hop,V. Santi Simone e Giuda 1,Nibionno,23895,45.753,9.2628
Ristorante Pizzeria La Trota,Piazza Santa Eurosia 1,Val Brembilla,24012,45.8087,9.6002
Europa Pizzeria Trattoria,Via III¬∞ Armata 98,Fogliano Redipuglia,34070,45.8455,13.489
Ristorante Pizzeria Al Ritrovo D'Amico Di D'Amico Serena & C. S.A.S.,Via Calcara 151,Cerea,37053,45.1865,11.249
Pizzeria Dae Tose,Via Schiavonia 155,Preganziol,31022,45.6015,12.2569
La Colonna l'Amalfitano,Strada Romana 2,Borgo Virgilio,46034,45.1232,10.7884
Corte Farina Ristorante Pizzeria,Volto corte farina 4,Verona,37121,45.4414,10.9943
Ristorante Dolce e Salato,Piazza Luigi Calori 16,San Pietro in Casale,40018,44.7006,11.4046
da Pino Trieste,Via Ottaviano Augusto 2,Trieste,34123,45.6451,13.7581
Ristorante Pizzeria Chichibio @Cervignano Del Friuli,Via Carnia 2,Cervignano del Friuli,33052,45.8307,13.3333
LA MURAGLIA Ristorante Cinese e Giapponese,Via Cardinale Agostino Richelmy 8,Ivrea,10015,45.4687,7.8897
Gelateria Fiamma,Via Madonna Sette Dolori 16,Vigevano,27029,45.3213,8.854
The Public,Viale Trieste 26,San Bonifacio,37047,45.3993,11.2749
Jollibee,Piazza Armando Diaz 7,Milano,20122,45.4619,9.1899
Poss Cesate,Via Roma 10,Lainate,20020,45.5926,9.0772
Gran Bar,Via Maggiore 40,San Vito al Tagliamento,33078,45.8956,12.8511
Beri Formaggi Valsassina,"Via Antonio, Via Stoppani, 17",Primaluna,23819,45.9803,9.4351
Galivm Vittorio Veneto,Piazza Foro Boario 31029,Vittorio Veneto,31029,45.9968,12.2915
Bar Lago Tana ‚Äúdalla Pola‚Äù,Via Olivete 10,Arenzano,16011,44.4051,8.686
La Ciacolada,Via G. Caprin 35,Grado,34073,45.6769,13.3881
OutSider Pub,Via San Cassiano 72,Quinto di Treviso,31055,45.6584,12.1619
Bar Cavalletto,Via Guglielmo Marconi 25,Carpaneto Piacentino,29013,44.916,9.7877
Pizzeria alla Scimmia,Via Cartiera 25,Porcia,33080,45.9599,12.6295
Sforketta Pizzeria,Via Poggiorenatico 26,San Giorgio di Piano,40016,44.6804,11.3913
Greek Passion,C.so Francia 201,Torino,10139,45.075,7.637
Camoscio D'Oro,Via dei Partigiani 72,Bargagli,16021,44.4404,9.0489
SWAGAT Ristorante Indiano,Via Andrea Vochieri 108,Alessandria,15121,44.9161,8.6108
Otani Sushi Restaurant,Via Broseta 61,Bergamo,24128,45.6931,9.6565
Spluga Pizzeria Contemporanea,Via Vittorio Emanuele 12,Carlazzo,22010,46.1723,9.3796
SQUISITO The Grill Brothers,Via Torino 51,San Francesco al Campo,10070,45.2274,7.6443
Leoni Gelateria,Via Vittorio Emanuele II 36,Monza,20900,45.5838,9.2795
Liccu,Via Camillo Ranzani 13,Bologna,40127,44.5007,11.3586
Gelateria al Panciotto,Via S. Giovanni 6,Manzano,33044,45.9921,13.3929
Gelateria La Gatta,Piazza Venti Settembre 18,Sarnico,24067,45.6665,9.9561
Antica Aquileia ristorante pizzeria,Via Bertrando Di Saint Genies 2,Aquileia,33051,45.7618,13.3717
Pizzeria Trattoria Ristorante Bruschetteria Da Dario Cornedo Vicentino Vicenza,Via Marogna 3,Cornedo Vicentino,36073,45.6223,11.3339
That's Amore La Pizzeria,Via F. Gilera 58,Monza,20862,45.6289,9.3293
Da Arnold,Via della Locanda 3,Medolla,41036,44.8244,11.0392
Jocasta,Via degli Artigiani 30,Peveragno,12016,44.3738,7.6149
Hotate Sushi,S.P. 11 N,Cureggio,28060,45.4044,8.5508
Pizzeria Ristorante da Piero e Vittoria,Via Roma 101,Arquata Scrivia,15061,44.6887,8.8865
Dai Tosi-Thiene,Viale Francesco Bassani 87,Thiene,36016,45.7102,11.4843
Vinile,Via del Sacro Cuore 17,Rovigo,45100,45.069,11.7864
Purabrace Inverigo,Via Don C. Gnocchi 24,Inverigo,22044,45.725,9.2154
Pizzeria Da Tata,Piazzale Stadio del Ghiaccio 15,Asiago,36012,45.8718,11.5079
Meet Hamburger Gourmet,Str. XX Settembre 8,Parma,43121,44.8071,10.3304
Internos Caff√®,Piazza Martiri 11,Borgosesia,13011,45.7162,8.2767
Pattini,Corso Buenos Aires 55,Milano,20124,45.4822,9.2126
Ristorante Gino Arenzano,Corso Giacomo Matteotti 106,Arenzano,16011,44.4042,8.6856
Ristorante Pizzeria OVER√à Pizzaioli Musicanti,Via Martorello 10,Castenedolo,25014,45.4813,10.2847
Rienzbr√§u,Via Stegona 8,Brunico,39031,46.7972,11.9361
Pizzeria Ecco -Bargagli,Via A. Martini 66,Bargagli,16021,44.4526,9.0868
Ristorante La Giulia e Il Gallo,Via Cesare Battisti 8,Macherio,20846,45.6334,9.2464
L'Evoluzione Del Gusto,Via del Capitello Albrizzi 16,Mira,30034,45.4332,12.1137
The Steak House Bormio,Via Roma 21,Bormio,23032,46.4671,10.3765
Drago D'Oro,Via della Roggia 7,Bolzano,39100,46.5003,11.3516
Val di Luce Ristorante Pizzeria,Frazione Godi 15,San Giorgio Piacentino,29019,44.9051,9.7321
Caff√® Filopanti - Caffetteria Gelateria Pasticceria,Piazza Quirico Filopanti 12,Budrio,40054,44.5376,11.5359
Nuovo Caff√® Firenze,Corso Valsesia 116,Gattinara,13045,45.6178,8.3712
Il Vicolo Corto - Pizza And More,Vicolo Sant'Agostino 3,Brescia,25121,45.5397,10.2216
Al Volto,Via Volto 39,Longare,36023,45.4708,11.6019
Al Cuntadein,Via Serrabella 4,Pianoro,40065,44.4188,11.3459
Ice and Co. Pizzeria e Gelateria,Via Terragliol 3,Preganziol,31022,45.6365,12.2408
Pizzeria Brian,Via Luigi Einaudi 28,Venezia,30020,45.5927,12.8127
I Ginza Susegana,Via IV Novembre 14,Mareno di Piave,31010,45.8205,12.2534
Pizzeria Altero - Via dell'indipendenza,Via dell'Indipendenza 33,Bologna,40121,44.4983,11.3437
Fuori Giri,Via Vittorio Veneto 63,Travedona-Monate,21028,45.8033,8.6744
7 Sapori Ristorante e Pizza,Via Enrico Mattei 22,Offanengo,26010,45.3717,9.6034
Ristorante Pizzeria Itaca,Via Roma 81,Calderara di Reno,40012,44.5596,11.2703
Gelateria Gianni Csp Snc di Barnabei Sergio e C,Via Carlo Jussi 16,Bologna,40068,44.4679,11.4097
Lindt,Via San Martino di Zusiagna 28060,Cureggio,28060,45.4682,8.4628
Ristorante Le Roi,Via Cima Tosa 40,Pinzolo,38086,46.2327,10.8255
Ristorante Pizzeria Punto Uno,Via Tagliamento 2,Molinella,40062,44.6149,11.6729
La Stube Pizzeria,Via Torquato Tasso 22,Piazza Brembana,24014,45.9486,9.6714
Quelli di Paderna - Ristorante Pizzeria,Localit√† Case Nuove 14,San Giorgio Piacentino,29019,44.9211,9.7565
Il Pensiero,Via Bagnasco 11,Torino,10141,45.056,7.6505
Sciura Maria Panzerotti - VIALE MONZA,Viale Monza 256,Milano,20128,45.5155,9.2257
Osaka Japan Sushi,Corso Garibaldi 157,Mantova,46100,45.1492,10.7957
Yoshi,Via Brescia 7,Cremona,26100,45.1379,10.0318
Restaurant Pizzeria Oberhauser,Piazza dott. Weiser 1,Terlano,39018,46.5291,11.2487
Ristorante Pizzeria La Costiera,Piazza Don Amilcare Soria 4,Alessandria,15121,44.9148,8.6215
LA BRUSCHETTA.....GIA' IL FUNTANIN,21030 Rancio Valcuvia,Cugliate-Fabiasco,21030,45.9209,8.7729
Pizza Studios,Via Gaetano Donizetti 2,Alessandria,15121,44.9197,8.6184
Casa Della Pizza Soliera - Pizzeria e Tavola calda-,Via Caduti 286,Soliera,41019,44.7352,10.9248
Prati Verdi,Via Fiume Oglio 10,Pontoglio,25037,45.5823,9.854
Trattoria Pizzeria la Baita,Via Orlando Scavazza 2891,Lusia,45020,45.0873,11.4719
Trattoria Pizzeria Malaspina,Via Margattoni 236,Oppeano,37050,45.289,11.2
Voodoo Child Pub,Via Gorgo 56,Santa Maria di Sala,30036,45.4857,12.0323
Ristorante con Pizzeria Belvedere,Via Dante Alighieri 40,Cremeno,23814,45.9245,9.4519
Ciao Kebab,Via Centotrecento 24,Bologna,40126,44.499,11.3509
Il Paradiso Perduto,"della Misericordia, Fondamenta Cannaregio, 2540",Venezia,30121,45.4446,12.3321
Momi's Pub,Via Botte 64,Mira,30034,45.4631,12.149
Pizzeria Napoletana O'Garibaldin,Piazza Giuseppe Garibaldi 7,Gravedona ed Uniti,22015,46.1462,9.3051
Arizona 66 - Palazzo Pignano,Via dei Salici 4,Palazzo Pignano,26020,45.4032,9.5946
Ristorante Pizzeria Rosengarden,Via Nazionale 54,Valdidentro,23038,46.4851,10.3094
La Peschiera Agriturismo,Localit√† La Peschiera 182,Albareto,43051,44.43,9.7012
Pupp Caf√© Bakery and Ice Cream Parlor,Altenmarktgasse 37,Bressanone,39042,46.719,11.6561
La Stiva Del Pirate,Via Capparola Sotto 7,Vestone,25078,45.716,10.4143
Twickenham Pub&Billiards,Str. Privata Commercio 11,Collecchio,43044,44.7701,10.2659
Cittamani by Ritu Dalmia,Piazza Carlo Mirabello 5,Milano,20121,45.4752,9.1903
Gelateria Mille,Piazza Libert√† 30,Verolanuova,25028,45.3257,10.0756
Farenheit 451 Ristorante Pizzeria,Via Cavour 46,Alpignano,10091,45.1006,7.53
Sushic Biella,Viale Macall√® 9,Biella,13900,45.555,8.0613
La Nuova Felicit√†,Via Monginevro 69,Torino,10141,45.0645,7.6456
Wahlalla,Strada Provinciale ex Strada Statale 415 P,Offanengo,26010,45.3849,9.5549
Trau Brusa - Ristorante Pizzeria,Corso Fiume 79,Poirino,10046,44.9207,7.8581
Piadineria In Piazzetta,Piazza I Maggio 1,Quattro Castella,42020,44.6251,10.4214
Tripoli Pizza e Ristorante,Piazza Vittorio Veneto 9,Ceva,12073,44.3888,8.0341
Montallegro Restaurant,Mura delle Chiappe 30,Genova,16136,44.4242,8.9375
Tigellino,Via Calzolerie 1,Bologna,40124,44.4941,11.3452
Ristorante Pizzeria Ai Portici,Piazza Paolo Camerini 28,Piazzola sul Brenta,35016,45.5426,11.7868
Gelateria Perin,Via Roma 103,Longarone,32013,46.267,12.3001
Dama Capricciosa,Via Emilia 41,Noceto,43015,44.8262,10.2056
Pizzeria Monterainero,Via Monte Rainero 6,Asti,14100,44.9038,8.2136
Otto,Via Ferrara 168,Ostellato,44020,44.7546,11.8754
URBAN BBQ 1982,Viale Partigiani 23,Pozzolo Formigaro,15068,44.7927,8.7772
Azzurra Chinese Restaurant,Via Piave 149,Venezia,30171,45.4832,12.2326
Pizzeria Da Ciccio,Via Guglielmo Marconi 141,Edolo,25048,46.175,10.3381
Faville Ristorante Pizzeria,Viale G. G. Felissent 9,Villorba,31050,45.7009,12.2589
Ristorante Pizzeria Hotel Car√® Alto,Frazione Borzago 54,Spiazzo,38088,46.0978,10.7332
La Perla di Trino,Piazza Audisio 13039,Trino,13039,45.1954,8.2973
Rifugio La Pavoncella,Loc. San Giovanni Belbo 1,Camerana,12072,44.4179,8.1212
Trattoria Merlo,Via Campiani 1,Marcheno,25060,45.5742,10.1917
To Steki,Largo Respighi 4,Bologna,40126,44.4967,11.3496
Trattoria al Porticciolo Ristorante & Pizzeria,Via XXV Aprile 83,Sirmione,25019,45.4732,10.6109
Kebabbar - Star Zagros,Corso Ventidue Marzo 38,Milano,20135,45.462,9.2191
Gelateria Antiche Tentazioni,Via Roma 17,Padova,35030,45.3936,11.7801
Pizzeria Positano Milano - Colonne di San Lorenzo,Via S. Vito 5,Milano,20123,45.4597,9.1824
TOrino.OtranTO Pizzeria Via Piave 33 Pianezza,Via Piave 33,Torino,10044,45.0986,7.5559
Jazsbo,Via del Progresso 18,Sovizzo,36050,45.5291,11.4509
Gelateria Fiabe di Gelato,Via Roma 74,Magenta,20013,45.4654,8.8809
San Marteen,Via Leonardo da Vinci 45,San Martino di Lupari,35018,45.6464,11.8595
Ristorante Farsora,Via Rossignago 99,Spinea,30038,45.5056,12.1532
Anatolia Pizzeria Kebab Grill,Via Claudia Augusta 55,Bolzano,39100,46.4832,11.3431
The Donegal Irish Pub,Piazza Pasotti 10,Castellucchio,46014,45.1491,10.6458
Sumo Sushi,Via Milano 36,Cassano d'Adda,20062,45.5278,9.5106
Ristorante | Pizzeria | Pineta Caldonazzo,Via Pineta 1,Caldonazzo,38052,45.9833,11.2662
Yuki Sushi Restaurant,Corso Italia 84,Vignola,41058,44.4779,11.0113
Ristorante la Taverna Rottigni,Via Chiesa 10,Serina,24017,45.8492,9.7334
Bello Garno - Il Cassone Riminese,Via Ugo Bassi 10,Bologna,40121,44.4954,11.3383
Roxy Bar,Via Monginevro 38,Oulx,10056,45.0325,6.833
La Corte di Marina,Via Giovanni Cimabue 1,Sarezzo,25068,45.6568,10.2193
Angus Churrascaria,Via Niccol√≤ Macchiavelli 2,Mogliano Veneto,31021,45.5553,12.2266
Pizzeria @more,Via G. Mazzini 13,Sacile,33077,45.9543,12.5039
Ristorante Pizzeria Harlem,Via Romolo Gorla 13,Romanengo,26014,45.3777,9.7841
Domenico Restaurant,"di Spresiano, Via del Fante, 19",Spresiano,31027,45.7825,12.2912
Star Pizzeria&Kebap,Via Milano 13,Cassano d'Adda,20062,45.5264,9.5149
Pizzeria La volpe,Via Giorgio Basta 3,Volpiano,10088,45.2025,7.7787
Osteria Madonnetta,Via Vajenti 21,Marostica,36063,45.7449,11.6548
Loacker Caf√© Brenner,Via S. Valentino 9,Brennero,39041,47.0049,11.5053
THE BIG,Via Savona 80,Torri di Quartesolo,36040,45.513,11.6237
Orostube,Via Sommarive 10,Trento,38123,46.0649,11.1505
Spuntino di Campagna,Via Ponte della Delizia 11,Codroipo,33033,45.965,12.9146
Trattoria Da Adele,Via Guglielmo D'Alzano 6,Bergamo,24122,45.6923,9.6708
Pizzeria La Sueva 2.0 - Trocino,Via Enrico Cialdini 50,Torino,10138,45.0753,7.6494
Galeone d'Oro Pizzeria Ristorante,Piazza Giorgione 74,Castelfranco Veneto,31033,45.6729,11.9241
Ryori Japanese Restaurant,Viale Europa 30,Milano,20090,45.4427,9.0409
Gran Canyon Pub Castelnuovo Belbo,Regione Crivelletto 49,Castelnuovo Belbo,14043,44.8112,8.4217
Trattoria Da Bosa,Via Roma 102,Villorba,31050,45.6604,12.4175
Old Pub Pizzeria Albachiara,Via Alessandro Volta 86,Sermide e Felonica,46028,45.014,11.2665
Pizzeria Ristorantino Flamingo,Via Romana 1,Cles,38023,46.3643,11.0362
Taverna Caorlina,Via Francesconi 19,Caorle,30021,45.5991,12.8862
Cremeria Spinola,Corso Valparaiso 118,Chiavari,16043,44.3176,9.3151
Osteria Di Cimbriolo,Str. Gazzo 24,Cimbriolo MN,46010,45.1648,10.581
Happm Pappm Marling,Via delle Palade 39020,Parcines,39020,46.6546,11.1472
Trattoria Pizzeria Piccolo Borgo,Via Borgo 41,Concordia sulla Secchia,41033,44.9091,10.9804
Bar Moretti,Via Torino 1,Bolzano,39100,46.4918,11.3413
Gelateria Essenza - La Natura nel Gelato Trescore Balneario,Via Alessandro Volta 5,Trescore Balneario,24069,45.6897,9.8258
Ristorante Pizzeria Da Icio,Via Cesare Battisti 2,Marano di Valpolicella,37020,45.6422,10.9375
Ristorante Pizzeria Vesuvio,Via Bafile 111,Jesolo,30016,45.5047,12.6416
Bar La Stua,Via Guido Fiorini 31,Mezzolombardo,38017,46.209,11.1006
Ristorante Pizzeria Paioa,Via Giuseppe Mazzini 1,Cavarzere,30014,45.1305,12.0792
Chimi Churri Empanadas Argentinas,Str. Maggiore 7,Bologna,40125,44.4937,11.3475
Poke&Food Experience,Via Giulio Romano 10,Mantova,46100,45.1531,10.7901
Tabi√† Ristorante Pizzeria Birreria,Via Vittorio Veneto 77,Anguillara Veneta,35022,45.1424,11.8829
Il Kiwi,Via Emilia Levante 490,Castel Bolognese,48014,44.3165,11.8067
100Piade-Caffetteria Cappuccineria Centese,Via Ferrarese 9,Cento,44042,44.7329,11.2916
Le Noci,Via Trieste 1,Villar Perosa,10069,44.911,7.2487
Chiosco La Nuova Greppia Piadineria,Via Emilia 287,Imola,40026,44.3519,11.7201
Ristorante Pizzeria Il Panino,Via Venezia 8,Grado,34073,45.6772,13.389
Enjoy Restaurant,Via Statale 27,Cugliate-Fabiasco,21030,45.9456,8.8354
Pizzeria Nonno Papero,"Centro Commerciale Pontelagoscuro, Via delle Fiere, 32",Ferrara,44123,44.87,11.6028
Ristorante Val di Non - Alla Diga,Localit√† S. Giustina 18,Ville d'Anaunia,38019,46.3463,11.0594
Ristorante Pizzeria Cheope,Via Maglio 2,Chiampo,36072,45.5532,11.2743
Ristorante Novecento,Via Palmanova 32,Gradisca d'Isonzo,34072,45.8814,13.4779
Antica Osteria Cera,Via Marghera 24,Lughetto VE,30010,45.3879,12.1303
Ristorante Pizzeria Zur Alten Schmiede,Via Panider 7,Castelrotto,39040,46.5674,11.5613
Pasticceria Manuelina,Via Roma 80,Briga Novarese,28010,45.7295,8.4444
Ristorante Pizzeria Il Tanino,Viale S. Lorenzo 24,Pegognaga,46030,44.9949,10.8592
IncantaMonte,Via Maddalena 20,Caldogno,36030,45.6513,11.3635
Gelateria Santa Rosa,Via Santa Rosa 63,Monticello Conte Otto,36010,45.716,11.4655
Pizzeria Luisa,Via Trento 65,Ala,38061,45.7963,11.0246
Pasticceria Bar Cioccolateria Bacilieri,Via Statale 24,Cugliate-Fabiasco,21030,45.946,8.834
Nuovo Zhen bao,Via Giuseppe Luigi Lagrange 22,Torino,10123,45.0658,7.6825
Papillon,Lungolago Zanardelli 69,Sal√≤,25087,45.6066,10.5326
Pizzeria Perdinci,Via Cardinale Callegari 43,Padova,35133,45.4309,11.897
Fumi - Ristorante Cinese Giapponese,C.so Re Arduino 47,Rivarolo Canavese,10086,45.3175,7.7335
Mauri's l'hamburgheria Gardone,Via Matteotti 340,Gardone Val Trompia,25063,45.6834,10.1873
Pasticceria Zizzola Stefano Noale,Via Borgo dell'Oasi 2,Noale,30033,45.5494,12.0797
Spring Sushi,Via Delle Rose 6,Castelli Calepio,24060,45.6287,9.8082
Doge Lantern,Via Tiveron 28,Zero Branco,31059,45.6275,12.1171
La Cascata,Piazza Madonna Beata Vergine Del Rosario 12 22020,Faloppio,22020,45.8072,8.9772
Zaz√≠e Ferrara,Via S. Romano 62,Ferrara,44121,44.8341,11.6191
Tre Rape,Via Madonnetta 7,Caldogno,36030,45.679,11.3814
Pizzeria Ae Oche Santa Lucia,Cannaregio 158,Venezia,30121,45.4423,12.3232
Frasca Borgoluce,Via Mandre 47,Mareno di Piave,31010,45.8291,12.2778
Ristorante Pizzeria Selvole | Castel Goffredo,Contrada Selvole 23,Castel Goffredo,46042,45.308,10.4656
La Gelateria Cannolomania,Via IV Novembre 16,Mareno di Piave,31010,45.8207,12.2536
Pizzeria-Ristorante la Catapecchia,Via Trieste 120,Fiumicello Villa Vicentina,33059,45.805,13.4141
Aj√≤ Griglieria con cucina,Via Regina Levante 41,Domaso,22013,46.1501,9.3238
Ristorante Pizzeria al Serbatoio,Via Galileo Galilei 4,Brescia,25128,45.5453,10.2264
Antoniazzi,V. Romana Conventino 15,Bagnolo San Vito,46031,45.087,10.8759
Birreria Al Toro,Via Monte Grappa 110,Marcon,30020,45.5591,12.2775
Pizzeria - Trattoria Putip√π,Via Conciatori 17,Rovereto,38068,45.8883,11.0423
Ven√®xian,Via S. Silvestro 25,Mirano,30035,45.453,12.0834
UNPLUG,Borgata Grangetta 30,Condove,10055,45.1171,7.2825
Da Jitty Fast Food,Piazzale delle Piscine 5,Carpi,41012,44.7843,10.8683
Ristorante Pizzeria Centauri,Via Don B. Ferrari 7,Vertova,24029,45.805,9.8489
Pizzeria La Casera,Via Cima I Pr√† 6,Ponte nelle Alpi,32014,46.1902,12.2863
MANGIA MANGIA | Roletto,Via Torino 2,None,10060,44.9124,7.3621
Mamasita,Marina di Varazze 17019,Varazze,17019,44.3515,8.566
Trattoria Ponte Peron,Via Vallorgana 14,Asolo,31011,45.8114,11.8881
Mocambo,Strada Statale Goitese 233,Goito,46044,45.2529,10.6775
Alberto Marchetti Gelaterie,Viale Monte Nero 73,Milano,20135,45.4611,9.2074
Re Cupido,Via Guglielmo Oberdan 9,Pordenone,33170,45.9607,12.6542
Il Gelataio,Viale Francesco Crispi 57,Vicenza,36100,45.5431,11.5203
Crocca - Torino Via Madama Cristina,Via Madama Cristina 69,Torino,10125,45.0526,7.6795
Moya Japanese Restaurant Mariano Comense,Via Como 82,Mariano Comense,22066,45.7143,9.1621
Il Terrazzo di Diana,Via Giuseppe Garibaldi 42,Appiano Gentile,22070,45.6881,8.9247
La Limonaia,Via Cristoforo Colombo 10,Merone,22046,45.791,9.2574
Ristorante Pizzeria Gia' Che Ci Sei,Via Padova 104,Cartura,35025,45.2744,11.8666
Pasticceria Il Chiosco,Viale Vittoria 4,Lonigo,36045,45.3899,11.3891
Porfido Collecchio,Via La Spezia 1,Collecchio,43044,44.7529,10.2191
Ristorante Pizzeria Le Specialit√†,Via Europa 27,Gossolengo,29020,44.9129,9.6704
Pomodoro,Piazza Martiri della Libert√† 4,Omegna,28887,45.8741,8.4077
Peace In Po,Via Lido Po 17,Guastalla,42016,44.931,10.6354
Da Massimo,Via del Mare 159,Tresignana,44039,44.8167,11.8907
Scacciafame,Via Piero Gobetti 39,Piacenza,29122,45.0364,9.6829
Trattoria Pizzeria Da Marisa,Via Madonna dei Boschi 124,Peveragno,12016,44.312,7.6161
Lido Paina,"Localit√†, Via Paina, 49",Malcesine,37018,45.7692,10.8109
La Carioncella,Via Argine Traversagno 25,Bondeno,44012,44.8864,11.3748
Ristorante Pizzeria Dai Monelli Scicc ...,Via della Vittoria 4,Luino,21016,46.0042,8.7434
Pizzeria Re Pip√¨n,Via Antonio Diliberto 4,Finale Emilia,41034,44.8272,11.3018
La Brasa,Via Amba Uork 3,Ponte di Legno,25056,46.2602,10.5088
Flori' S.N.C. Di Pagani Marianna & C.,Via Stalla Nuova 2,Oppeano,37050,45.3107,11.0711
Medieval Times Restaurant and Show,Via Fossalta 58,Lazise,37017,45.4782,10.7276
Lombino - Il Regno del Dolce - La Bottega del Caff√®,Via Cossolo E. 107,Villastellone,10029,44.9213,7.7476
Cantina Garibaldi. Aperitivi e cene. Pranzi domenicali IN INVERNO. ENOTECA. Asporto. Produzione pasta fresca.,Via G. Di Vittorio 4,Puianello,42020,44.6273,10.5675
La Padella,Vicolo Dolonne 7,Courmayeur,11013,45.7909,6.9714
Lo Spuntino dal fornaio,Via Avogadro 15,Castel San Pietro Terme,40024,44.4019,11.5833
IL Torchio di Grossi Massimo,Str. Torchio 89,Fontevivo,43010,44.843,10.1856
La Mafaldina Pizzeria PONTEVIGODARZERE,Via dei Vivarini 22,Padova,35133,45.4446,11.8907
Gelateria San Marco,Piazza Guglielmo Marconi 1,Montegalda,36047,45.4436,11.6738
Ristorante Pizzeria Ca' Bianca,Via Milano 9,Sant'Angelo Lodigiano,26866,45.2549,9.3974
El Resole',Via Costa 266,Canazei,38032,46.4605,11.7833
Ristorantino Pizzeria Lago Pranda,Via Lago Pranda 1,Ventasso,42032,44.3034,10.2429
Ristorante Pizzeria al Picchio Rosso,Localit√† Priori 3,San Michele all'Adige,38010,46.1788,11.0145
Agriturismo Lupo Alberto,Via Macillis 2,Vivaro,33099,46.0785,12.7742
Nonno Andrea Bistrot Agricolo e Shop,Via Campagnola 72,Villorba,31050,45.7599,12.2318
Carne alla Griglia Mantova - Dorado Ranch,Via Francesco Rismondo 19,Roncoferraro,46037,45.1366,10.8933
Gelateria artigianale La Mela Verde,Via Castellana 105,Venezia,30174,45.5138,12.2093
ALDENTE Pastabar - Cordusio,Via dei Bossi 7 ingresso su Via Broletto 20121,Milano,20121,45.4673,9.1859
Pizza AM,Corso di Porta Romana 83,Milano,20122,45.4556,9.1969
Ristorante Pizzeria Da Beniamino,Via Turati 23,Cava Manara,27051,45.1313,9.1192
Augusto - Ristorante Pizzeria,Via S. Quintino 11,Torino,10121,45.0652,7.6753
Grande Shanghai,Via Pontevigodarzere 75,Padova,35133,45.4424,11.8932
Oasi,Via Viganovo 47,Leno,25024,45.3709,10.2343
All'antico Vinaio - Verona,Via Giuseppe Mazzini 27,Verona,37121,45.4411,10.9959
CaffeDelConvento Verdello,"Caff√®DelConvento Verdello, Via S. Giovanni Bosco, 13",Verdello,24049,45.6081,9.6261
Pizzeria Barbarossa Bistrot,Via Giuseppe Borsalino 7,Alessandria,15121,44.9082,8.6125
Zu Sushi Mestre,V. Torino 105,Venezia,30172,45.4817,12.2479
All'Anfora,Via Giulia Augusta 3,Pozzuolo del Friuli,33050,45.7898,13.3567
Trattoria Al Postiglione,Localit√† Gramogliano 19,Povoletto,33040,46.0008,13.4545
L'Osteria Le Guglie,Fondamenta Cannaregio 1078,Venezia,30121,45.4448,12.3237
Ristorante Pizzeria Monticino Serra,Via Serra 3980,Castel Bolognese,48014,44.3081,11.745
Ristorante Birrificio 1816,Via Pontiglia 37,Livigno,23041,46.5387,10.1376
Baia del Corvo,Lungomare Europa 17019,Varazze,17019,44.3672,8.6108
Fra' Bernardo,Via Nazario Sauro 6,Istrana,31036,45.6786,12.0989
Pizzeria Ristorante La Baita,Viale Dolomiti 26,Comacchio,44022,44.719,12.2383
Gelateria Marcella,Corso Repubblica 16,Arona,28041,45.7595,8.5611
Ristorante Pizzeria da Frankino,Via Roma 16,Bubbio,14051,44.664,8.2942
Ca' Mea,Viale Risorgimento 15,Trescore Cremasco,26017,45.3998,9.6143
Ristorante Pizzeria Parco di Limana,Via Coi 88,Limana,32020,46.0986,12.209
Gelateria L'Imbarcadero,Viale Porro Edoardo 3,Laveno-Mombello,21014,45.9097,8.6198
Ristorante Pizzeria Lenci Tre,Via M. Piccoli 61,Bosco Chiesanuova,37021,45.6232,11.0359
Pizzeria Ristorante Capanna Bianca,Via Sisemol 1,Gallio,36032,45.8865,11.5487
Cantine del Pisacane,Via del Tritone 20,Genova,16147,44.3925,8.9827
Gelateria Alaska,Via Sant'Antonio 8,Formigine,41043,44.573,10.8525
Albergo Ristorante Pizzeria Il Buongustaio,Strada Statale 221 36,Pieve del Cairo,27037,45.0481,8.8098
Ristorante Pizzeria Nonno Grillo,Via Nuova Intra Premeno 22,Arizzano,28811,45.9497,8.5847
Ristorante Pizzeria La Granseola,Piazza Marcello d‚ÄôOlivo 3,Lignano Sabbiadoro,33054,45.665,13.1095
Hosteria La Palazzina,Via Monte Grappa 23,Castenedolo,25014,45.4705,10.3157
Il Ponte - Ristorante Pizzeria,"Via B, Via Barone Franchetti, 8",Cortina d'Ampezzo,32043,46.5366,12.1408
Trattoria Pi√® di Castello Sas,Via al Cingol Ros 38,Brentonico,38060,45.9151,10.8418
Sushi Ho,Via Vailetta 24044,Dalmine,24044,45.6542,9.622
Ristorante Il Pescatore 7,Via Casale 28,Alessandria,15121,44.9167,8.6094
Pasticceria Ferracina,Via XX Settembre 69,Camisano Vicentino,36043,45.5208,11.713
Premiata Pizzeria Di Negrone,Via Piave 23,Ranica,24020,45.7069,9.7606
Ristorante Pizzeria Il Basilico,Piazza Casimiro Buttini 1,Saluzzo,12037,44.6456,7.4975
Birreria Bunker,Localit√† Aurisina 97,Duino Aurisina,34011,45.7493,13.6734
PizzaClub No Limits - Varedo,Via Stelvio 21,Varedo,20814,45.6043,9.1618
Sedicigusti,Piazza Giuseppe Garibaldi 1,Busto Arsizio,21052,45.6124,8.8545
Pizzeria El Pash√†,Viale Cristoforo Colombo 134,Chioggia,30015,45.2044,12.2974
Al chiosco,Via Roma 2,Rovellasca,22069,45.6679,9.0505
THE BELLS PUB¬Æ - Carobbio,Via Cavalieri di Vittorio Veneto 28,Castelli Calepio,24060,45.6639,9.8259
El Argentino,Via Collina Forni 3,Montaldo Scarampi,14048,44.8375,8.2593
Osteria al Cantin√¨,Via Vittorio Emanuele 17,Borno,25042,45.9482,10.2064
Habitat Bistrot,Via delle Industrie 1,San Vendemiano,31020,45.7789,11.8242
Oven Parma,Str. Nino Bixio 52,Parma,43125,44.8005,10.3221
Trattoria dal Pansa,Piazza di Sopra 12,Lazise,37017,45.4736,10.7434
Pizzeria Ristorante Monviso,Via Barge 2,Bagnolo Piemonte,12031,44.7556,7.3141
Ristorante Pizzeria Fornace,Via Castellana 119,Martellago,30030,45.541,12.172
Il Regno di Timarsalallo,Via Roma 35,Biandronno,21024,45.8202,8.7122
Gran Gelato Cervignano,Via Udine 47,Cervignano del Friuli,33052,45.8293,13.333
La Chiesetta 2.0,Via Trieste 5,Rosolina,45010,45.127,12.3224
Ristorante Da Franco,Via Locatelli 28,Oggiono,23848,45.7894,9.3524
Rocco e i suoi fratelli,Vico delle Saline 5,Rapallo,16035,44.3488,9.2301
Osteria del Moleta,Via Bolladore 22,Sondalo,23035,46.326,10.322
Gelateria Brivido Ice Cream Bozen,Via Milano 115,Bolzano,39100,46.4898,11.3296
Pasticceria Caffetteria Celio,Largo Manin 6,Cavarzere,30014,45.1362,12.0859
Evergreen burger,Piazza Accademia 24,Bovolenta,35024,45.2704,11.9358
Pizzeria Trattoria Cygnus,Str. Valeggio 29,Monzambano,46040,45.3848,10.6967
Lido dei Platani,Via Lungolago Guglielmo Marconi 1,Iseo,25049,45.6634,10.0502
Al Larin Da Bepo,Via dei Soldera 3,Vittorio Veneto,31029,45.9455,12.2796
Rock 1978,Via Ponti 1,Sabbio Chiese,25070,45.6647,10.3441
Ristorante Sotoriva,Lungomare Dante Alighieri 32,Punta Sabbioni,30013,45.4389,12.4211
Bollicine Restaurant Music Context,Via Milano 10,San Fiorano,26848,45.1416,9.7139
Taverna del Pappagallo Ristorante e Pizzeria,Via Principessa Margherita 46,Stresa,28838,45.8837,8.5387
Ciao | La Gelateria Artigianale,Via Giardini Sud 122,Formigine,41043,44.5636,10.8512
Albergo Ristorante Fontana,V. Giuseppe Mazzini 7,Calestano,43030,44.6006,10.1217
Brasserie Tipica e Originale Pizza Polesana,"12, Via Curicchi",Adria,45011,45.0223,12.071
Just Peruzzi,Via Giuseppe Mazzini 132,Bogliasco,16031,44.3776,9.0718
La Pagoda,Via dell'Arcoveggio 2,Bologna,40129,44.5181,11.3419
Yun Quick,Via Giacomo Quarenghi 23,Milano,20151,45.4971,9.112
Poke&Go | Settimo Milanese,Piazza degli Eroi 8,Settimo Milanese,20019,45.48,9.0551
Il Trevigliese,Viale Ortigara 12,Treviglio,24047,45.5276,9.5879
MakaMaka Poke,Corso del Popolo 32,Venezia,30172,45.4901,12.2441
Ni Hao,Via Giuseppe Grazioli 68,Trento,38122,46.0664,11.1301
OAKBERRY A√áA√ç - Milano - Cadorna,Via Caradosso 19,Milano,20123,45.4675,9.1729
3 Guys,Via Renon 29,Bolzano,39100,46.4985,11.3613
Lei Poke Sushi Milano,"Zona MM Lima, Via Vitruvio, 8",Milano,20124,45.4809,9.2097
Pok√® Club Conegliano,Viale Giosu√® Carducci 27,Conegliano,31015,45.8855,12.2987
SushiBox Bozen,Via Claudia Augusta 49,Bolzano,39100,46.4835,11.3434
Il Padelghiotto,Corso Giuseppe Garibaldi 118,Legnano,20025,45.5997,8.9151
Cremeria Retr√≤,Viale Ilic Uljanov Lenin 12,Bologna,40139,44.4824,11.3832
D√∂ner Club Kebab,Viale Monte Nero 50,Milano,20135,45.4586,9.2065
Bellimpasto pizzeria pavia,Corso Camillo Benso Cavour 40,Pavia,27100,45.1868,9.1485
Pizzeria Il Bianco e il Nero,Via Giovanni Gnifetti 86,Novara,28100,45.4486,8.6087
Fresh Poke & Dimsum,Piazza S. Lorenzo 9,Gallarate,21013,45.6581,8.7971
La Braseria On The Road,Via Broseta 3,Bergamo,24122,45.6928,9.6628
Scrocchia Pizza,Via Angelo Maj 15,Bergamo,24121,45.6946,9.6792
kungfu bao 2 and poke,Via Giosu√® Carducci 11,Milano,20123,45.4662,9.1762
Poke Sushi Life,Via Vincenzo Gioberti 13,Vercelli,13100,45.3259,8.4239
Kungfu bao friuli,Via Friuli 88,Milano,20135,45.4584,9.2169
Sushimi-Poke,Via Giuseppe Garibaldi 24,Milano,20090,45.5222,9.2832
SUSAKI,Via Roma 2,Bolzano,39100,46.4947,11.3402
Houseki Sushi,Via Paolo Lomazzo 29,Milano,20154,45.4828,9.1713
Maoji Mini,Alzaia Naviglio Pavese 6,Milano,20143,45.4517,9.1777
Poke Salsa - Bassano del Grappa,Largo Parolini 114,Bassano del Grappa,36061,45.7645,11.7399
Youme,Piazzale Bernardino Ramazzini 21,Carpi,41012,44.779,10.8819
Gelateria Cuore,Via Camillo Benso Cavour 10,Milano,20094,45.4328,9.1089
Starvin' Burger,Corso Italia 13,Novara,28100,45.4468,8.6209
Gelateria LAB,Via Antonio Stoppani 7,Milano,20129,45.4756,9.2127
HAWAII POKE UNIVERSITA',Lungadige Porta Vittoria 13,Verona,37129,45.4379,11.0022
Insushi Campofranco,Via della Mostra 3,Bolzano,39100,46.4983,11.3541
Il Vascello.,Corso Italia 27,Bolzano,39100,46.498,11.3403
"STEAM dumplings, rice & salad TAKE AWAY",Viale Trieste 81,Vicenza,36100,45.5574,11.5581
Ristorante Cinese Vittoria Gourmet,Viale Antonio Fratti 26,Parma,43121,44.8083,10.3329
PokeBon | Hawaiian poke a Crema,Via IV Novembre 15,Crema,26013,45.3629,9.6957
Goss Quality Burger,Viale Papa Giovanni XXIII 54,Bergamo,24122,45.6931,9.6717
Furai,Piazza delle Erbe 9,Vicenza,36100,45.5467,11.5472
Pizza Da Benny,Via S. Giovanni Bosco 86,Fossano,12045,44.5507,7.7295
SUSHI JOLLY,Via Roma 76,Bolzano,39100,46.4907,11.3418
PICCERELLA delivery - Pizzeria Friggitoria Napoletana,Via Cesare Battisti 25,Bolzano,39100,46.5004,11.3383
Wok Time,Via Niccol√≤ Tommaseo 96,Padova,35131,45.4121,11.8924
WOK on the GO,"Corso di porta ticinese angolo, Via Urbano III, 2",Milano,20123,45.4589,9.1813
Rosticceria Palazzi,Via Plinio 9,Milano,20129,45.4794,9.2125
La Caveja - Piadineria Cant√π,Via Ariberto da Intimiano 7,Cant√π,22063,45.7389,9.1307
Ocean Poke,Via Clateo Castellini 49,Melegnano,20077,45.3581,9.323
Kungfu Bao - Plinio,Via Plinio 40,Milano,20129,45.4772,9.2161
Istanbul Kebap Caronno,Corso della Vittoria 382,Caronno Pertusella,21042,45.6005,9.0441
Rajput,Via Antonio Stoppani 10,Milano,20129,45.4755,9.2126
Poke Kal - Erba,Via Dante 48,Erba,22036,45.8124,9.2299
Toomangi Fine Street Food,Viale Lecco 121,Como,22100,45.8081,9.0886
CHIHUAHUA TACOS - Sarpi,Via Paolo Sarpi 60,Milano,20154,45.4811,9.1707
Ristorante Nuova Asia,Spalto Rovereto 50,Alessandria,15121,44.9195,8.6182
Twist Pizza ‚Äòn More,Via Giacomo Matteotti 36,Trento,38122,46.0561,11.1209
Ristorante Antica Cina‰∏≠È§êÂéÖ,Via Gaspare Spontini 6,Milano,20129,45.4818,9.2137
Manawa Poke,Corso Antonio Fogazzaro 54,Vicenza,36100,45.5485,11.5426
Dips - French Tacos & Salads,Via Dr. Julius Perathoner 29,Bolzano,39100,46.4969,11.3558
Hi Poke,Viale Adriano Olivetti 2,Trento,38121,46.0622,11.115
SuperBowl,V. Cristoforo Astengo 10,Savona,17100,44.3079,8.4801
Golden Dragon - Asian Food Pavia,Corso Giuseppe Mazzini 8,Pavia,27100,45.1853,9.1558
Bolin,Via Ganaceto 184,Modena,41121,44.6527,10.9278
Poke Corner Lentate,Piazza S. Vito 3,Lentate sul Seveso,20823,45.6782,9.1214
Ni'ihau Poke,Via Cesare Cant√π 43,Como,22100,45.8075,9.0847
Noor Kebab & Pizzeria,Via Borgo Palazzo 75,Bergamo,24125,45.6951,9.6866
Mint- lab,Viale Umbria 20135,Milano,20135,45.451,9.2127
Color Pok√©,V. Novara 50,Borgomanero,28021,45.6947,8.4668
Gelateria Kalimera,Piazza Goffredo Mameli 40,Savona,17100,44.3085,8.4787
Pabo's Pizza Gussago,Via Alcide de Gasperi 16,Gussago,25064,45.5847,10.1579
Pok√® Go,Via Giuseppe Verdi 14,Cremona,26100,45.134,10.0226
Primo Passo Pizza & Piada,Corso della Libert√† 40,Bolzano,39100,46.5016,11.341
Pok√© Factory Carpi,Corso Manfredo Fanti 68,Carpi,41012,44.7857,10.8821
Gerli dal 1870,Via Carlo Ravizza 23,Milano,20149,45.4692,9.15
Poke al doro,Via Padova 9,Ferrara,44122,44.8481,11.6003
21 / 23 Laboratorio lievitati,Via N. S. dell'Olmo 21,Savona,17100,44.3055,8.4824
Kona Milano,C.so di Porta Vittoria 49,Milano,20122,45.4624,9.2051
HAIKKY Sushi & Noodle Bar Pavia,Corso Cairoli 49,Pavia,27100,45.1889,9.1607
PokeBon | Hawaiian poke a Lodi,Via Sant'Angelo 10,Lodi,26900,45.3057,9.4997
Pizzeria Positano Street Milano,Via Roberto Sarfatti 1,Milano,20136,45.4482,9.1869
Yami rosticceria cinese,Via Giovanni Dupr√® 15,Padova,35133,45.4343,11.8892
Burger Sberla,Via Pietro Borsieri 29,Milano,20159,45.4886,9.1888
Ristorante Sapore di Mare,Via Pola 16,Milano,20017,45.5237,9.0466
Gelateria Doria,Via Bonaventura Barcella 6,Venezia,30174,45.4938,12.2404
Pokeat & Sushi box,Piazza Unit√† D'Italia 1,Saronno,21047,45.6286,9.0354
Yoshi - Japanese Restaurant,Via Emilia Levante 164,Bologna,40139,44.4792,11.3862
Pepen Milano,Via Marcello Malpighi 3,Milano,20129,45.4746,9.2071
Number One Pizzeria - Kebap,Via Giovanni Pascoli 60,Milano,20133,45.4763,9.2248
OAKBERRY A√áA√ç - Milano - Porta Romana,Corso di Porta Romana 19,Milano,20122,45.4589,9.1914
Erbert - Freguglia,Via Carlo Freguglia 4,Milano,20122,45.4612,9.2001
Terra gelato,Via Losanna 46,Milano,20124,45.4873,9.166
Nasty Burger Club - Saragozza,Via Saragozza 55,Bologna,40123,44.4901,11.3331
POKE WOOD TORINO,V. Antonio Bertola 27,Torino,10122,45.0711,7.6781
Re Kebab,"Giardino Caserma Lamarmora, C.so Vittorio Emanuele II, 129",Torino,10138,45.0695,7.6591
Chuck‚Äôs,Via Bonvesin de la Riva 3,Milano,20129,45.4631,9.212
Con Mollica o Senza? - Take Away Milano,Viale Brianza 15,Milano,20124,45.4873,9.2132
Piadineria Il Chiosco (C.so Re Umberto),Corso Re Umberto 15,Torino,10121,45.065,7.6748
Noodles & Sushi,Via Aurelio Saffi 13,Bologna,40131,44.4998,11.326
ÊàêÈÉΩÂ∞èÈ¶ÜRistorante Cheng Du,Viale Abruzzi 51,Milano,20129,45.4808,9.2167
Alberto Marchetti Gelaterie | Via Principi d'Acaja,Via Principi d'Acaja 65,Torino,10124,45.0713,7.6611
FONZO'S NYC,Via Anfiteatro 2,Milano,20121,45.4741,9.1832
Jia Wei - ristorante cinese,Corso di Porta Romana 44,Milano,20122,45.4583,9.1919
Opa Opa - La Grecia a Milano,Via Ponte Vetero 11,Milano,20121,45.4697,9.185
"In Out - Secret Delivery Torino, 10125*",Via Belfiore 4,Torino,10125,45.0591,7.6802